Source File,Country,Company Name,Sector,Product Categories,Phone,Email,Address,Certifications,Production Capacity,Other,City/Location,Website,Types of Products,Additional Information,Name,الأسم,Type,نوع التصنيف,Subtype,نوع التصنيف الفرعي,Block,X Longitude,Y Latitude,Location,Factory Name,Industry Type,City,Region,Products/Services,Manufacturer Name
arab_manufacturers.csv;mena_manufacturers.csv,Kuwait,Abbas Ali A-Hazeem & Partners Co. for Mattresses,Other Manufacturing Industries,Spring Mattresses – Headboards & Boxes – Bedrooms – Sofa Sets,(+965) 24731309 - 24738712,hazeem@qualitynet.com,Sabhan – Block 2- Street 21 –P.O. Box 497 Farwaniah Kuwait,,,Fax: (+965) 24735732,,,,,,,,,,,,,,,,,,,,Abbas Ali A-Hazeem & Partners Co. for Mattresses
arab_manufacturers.csv;mena_manufacturers.csv,Kuwait,Ahmad Hassan Boland Sons & Partners Co.,Food and Beverages,Corn chips & snacks,(+965) 24718288 - 24739479,,Sabhan – Block 1 – Street 103 – P.O. Box 20651 Safat 13067 Kuwait,,,Fax: (+965) 24725574,,,,,,,,,,,,,,,,,,,,Ahmad Hassan Boland Sons & Partners Co.
arab_manufacturers.csv;mena_manufacturers.csv,Kuwait,Al-Baghli Sponge Manufacturing Company,Textiles, Clothing & Leather Industries,Pillow cases & sheet sets,(+965) 24761444,sponge@albaghli.com,Sabhan – Block 2 – Street 101 – P.O. Box 29920 Safat 13160 Kuwait,,"N/A,Fax: (+965) 24762999; Website: www.albaghli-sponge.net",,,,,,,,,,,,,,,,,,,,Al-Baghli Sponge Manufacturing Company
arab_manufacturers.csv;mena_manufacturers.csv,Kuwait,Al-Jeel Reprographic Industries,Paper & Wood Products,Engineering Papers – Thermal rolls,(+965) 24712918 – 24769875,Kuriakose@al-alfin.com,Sabhan – Block 2 – Plot 200 – P.O. Box 25726 Safat 13118 Kuwait,,,Fax: (+965) 24769876,,,,,,,,,,,,,,,,,,,,Al-Jeel Reprographic Industries
arab_manufacturers.csv;mena_manufacturers.csv,Kuwait,Al-Seedawi Sweets Factories Co.,Food and Beverages,Packed roasted nuts – Arabian sweets – Candies – Halawa tahinia – Tahina (sesame juice) – Chocolate – Wafers,(+965) 24843994 - 24841551,alsedawi@qualitynet.net,Shuwaikh Industrial Area – Block 6 – Plot 70 – P.O. Box 569 Safat 13006 Kuwait,,,Fax: (+965) 24847488,,,,,,,,,,,,,,,,,,,,Al-Seedawi Sweets Factories Co.
arab_manufacturers.csv;mena_manufacturers.csv,Kuwait,Alrawdah Paper & Nylon Products Plate Carton Company,Paper & Wood Products,Paper bags – Paper rolls – Paper plates – Carton products,(+965) 24710429 – 24832901 – 24740162,alrawdah_RPPC@hotmail.com,Sabhan – Block 2 – Street 21 – P.O. Box 33065 Safat 73451 Kuwait,,,Fax: (+965) 24740194 – 24848301; Website: www.alrawdah-co.com,,,,,,,,,,,,,,,,,,,,Alrawdah Paper & Nylon Products Plate Carton Company
arab_manufacturers.csv;mena_manufacturers.csv,Kuwait,Arabian Beverage Company (ABC),Food and Beverages,Natural fruit juices – Yogurt & dairy products – Mineral water – Milk & flavored milk,(+965) 1802066 – 24736222,admin@abcjuice.com.kw,North Sabhan – Block 5 – Street 103 – P.O. Box 3022 Safat 13031 Kuwait,,,Fax: (+965) 24722793 – 24752881; Website: www.abcjuice.com.kw,,,,,,,,,,,,,,,,,,,,Arabian Beverage Company (ABC)
arab_manufacturers.csv;mena_manufacturers.csv,Kuwait,Burgan Shoes Manufacturing Company,Textiles, Clothing & Leather Industries,Military shoes – Safety shoes – Casual shoes,(+965) 24733228 – 24731589,q8shoes@qualitynet.net,Sabhan – Block 2 – Street 102 – P.O. Box 3063 Safat 13031 Kuwait,,"N/A,Fax: (+965) 24714062",,,,,,,,,,,,,,,,,,,,Burgan Shoes Manufacturing Company
arab_manufacturers.csv;mena_manufacturers.csv,Kuwait,Caesar Pac Carton & Paper Products Company,Paper & Wood Products,Corrugated carton & paper products,(+965) 24610077,caesarpac@caesarsgroup.net,Kuwait Free Trade Zone - Block 2 B - Plot 5 - P.O. Box 5592 Safat 13056 Kuwait,,,Fax: (+965) 24610177; Website: www.caesarsgroup.net,,,,,,,,,,,,,,,,,,,,Caesar Pac Carton & Paper Products Company
arab_manufacturers.csv;mena_manufacturers.csv,Kuwait,Carpets Industry Company K.S.C.,Textiles, Clothing & Leather Industries,100 % Polyester carpets cut piles - straight and frieze yarn - 100 % PP BCF loop carpets,(+965) 24719000,info@carpetskuwait.com,Northern Sabhan – Block 6 – Street 104 - P.O. Box 929 Hawalli 32010 Kuwait,,"N/A,Fax: (+965) 24763669; Website: www.carpetskuwait.com",,,,,,,,,,,,,,,,,,,,Carpets Industry Company K.S.C.
arab_manufacturers.csv;mena_manufacturers.csv,Kuwait,Conserved Food Distributing Co (Khazan),Food and Beverages,Chilled / frozen processed meat – Chilled / frozen processed poultry – Frozen processed sea food – Other frozen processed products – Canned food – Cake & pastries,(+965) 24722135 / 6 / 7/ 8/ 9,khazan@wazzan.com,Sabhan – Block 1 – Street 1 – P.O. Box 26226 Safat 13123 Kuwait,,,Fax: (+965) 24722142; Website: www.mezzan.com,,,,,,,,,,,,,,,,,,,,Conserved Food Distributing Co (Khazan)
arab_manufacturers.csv;mena_manufacturers.csv,Kuwait,Domain General Trading & Contracting Co.,Other Manufacturing Industries,Furniture & Interior Design,(+965) 24717566 - 24717552,domainkwt@yahoo.com,Sabhan – Block 6 – Street 61 – P.O. Box 3783 Hawali 32069 Kuwait,,,Fax: (+965) 24717498; Website: www.dominkwt.com,,,,,,,,,,,,,,,,,,,,Domain General Trading & Contracting Co.
arab_manufacturers.csv;mena_manufacturers.csv,Kuwait,Final Touches Co.,Other Manufacturing Industries,Furniture – Curtains – Accessories – Fabrics – Execution of interior designs,(+965) 24821143 - 1808899,finaltouches@usa.com,Shuwaikh –Canadadry Street –Wara Center– P.O. Box 22922 Safat 13090 Kuwait,,,Fax: (+965) 24822081,,,,,,,,,,,,,,,,,,,,Final Touches Co.
arab_manufacturers.csv;mena_manufacturers.csv,Kuwait,Food Industries Company (Fico),Food and Beverages,Potato chips – Corn starch snacks,(+965) 1803344 – 24742242,fico@ficofood.com,Sabhan – Block 1 – Street 11 – P.O. Box 26221 Safat 13123 Kuwait,,,Fax: (+965) 24730141; Website: www.ficofood.com,,,,,,,,,,,,,,,,,,,,Food Industries Company (Fico)
arab_manufacturers.csv;mena_manufacturers.csv,Kuwait,Gulf Leather Industries,Textiles, Clothing & Leather Industries,Shoes for men and women – Army shoes & safety shoes – Leather products (bags, wallets, belts),(+965) 24739766,gsf_kwt@yahoo.com,"Sabhan – Block 6 – Street 62 – P.O. Box 2336 Safat 13024 Kuwait,N/A,N/A,Fax: (+965) 24742046",,,,,,,,,,,,,,,,,,,,Gulf Leather Industries
arab_manufacturers.csv;mena_manufacturers.csv,Kuwait,Gulf Pastries Manufacturing Company,Food and Beverages,Cake – Pastries,(+965) 24745455 – 24745400,sara@wazzan.com,Sabhan – Block 10 – Street 1 – P.O. Box 3531 Safat 13036 Kuwait,,,Fax: (+965) 24748510; Website: www.mezzan.com,,,,,,,,,,,,,,,,,,,,Gulf Pastries Manufacturing Company
arab_manufacturers.csv;mena_manufacturers.csv,Kuwait,Gulftex Industries Co.,Textiles, Clothing & Leather Industries,Pillows & quilts - Cushions - Polyester fiber yarns,(+965) 24720874 – 24758892/ 3/4,info@gulftexindustries.com,Sabhan – Block 2 – Street 23 – P.O. Box 26532 Safat 13126 Kuwait,,"N/A,Fax: (+965) 24720869 – 24758891; Website: www.gulftexindustries.com",,,,,,,,,,,,,,,,,,,,Gulftex Industries Co.
arab_manufacturers.csv;mena_manufacturers.csv,Kuwait,Hayakel Steel Industries Co.,Basic Metal Industries,Tankers (water, fuel, sewage) –Trailers & Semi Trailers – Garbage Compactors – Security Products,(+965) 1844888 – 24720088,info@hayakel.com,Sabhan – Block 3 –P.O. Box 145 Safat 13002 Kuwait,"N/A,N/A,Fax: (+965) 24749759; Website: www.hayakel.com",,,,,,,,,,,,,,,,,,,,Hayakel Steel Industries Co.
arab_manufacturers.csv;mena_manufacturers.csv,Kuwait,Integral Services Co.,Basic Metal Industries,Heat exchangers,(+965) 23262706 / 7,iscocrop@isco.com.kw,Western Shuaiba – Block 6 – Plot 80 - P.O. Box 3683 Salmiya 22037 Kuwait,,,Fax: (+965) 23262717 - 23263193; Website: www.isco.com.kw,,,,,,,,,,,,,,,,,,,,Integral Services Co.
arab_manufacturers.csv;mena_manufacturers.csv,Kuwait,Jercy Foodstuff Inc.,Food and Beverages,Potato chips & snacks – Popcorn – Jam – Honey – Salt – Black / white pepper – White / brown sugar,(+965) 24716402,jercyfoodstuff@hotmail.com,Sabhan – Block 1 – Street 13 – Plot 145 – P.O. Box 2508 Jahra 1027 Kuwait,,,Fax: (+965) 24713590; Website: www.jercycanary.com,,,,,,,,,,,,,,,,,,,,Jercy Foodstuff Inc.
arab_manufacturers.csv;mena_manufacturers.csv,Kuwait,Khalid Ali Al-Kharafi & Bros. Co. (Kharafi Steel),Basic Metal Industries,Structural steel – Pre-engineered steel buildings – Space frames – Pipes – Steel tanks – Steel doors (plain and fire rated) – Porta cabins – Aluminum composite panels – Galvanized products,(+965) 24845100 - 24873400,kaksteel@qulaitynet.net,Shuwaikh Industrial Area – Block B – Plot 100, 101, - P.O. Box 2886 Safat 13029," Kuwait,N/A,N/A,Fax: (+965) 24835501 - 24873500; Website: www.kharafisteel.net/index.htm",,,,,,,,,,,,,,,,,,,,Khalid Ali Al-Kharafi & Bros. Co. (Kharafi Steel)
arab_manufacturers.csv;mena_manufacturers.csv,Kuwait,Kuwait Aluminum & Brass Industries Co.,Basic Metal Industries,Aluminum housewares – Iron gas burners & other products made of iron,(+965) 24715884 – 24814419,info@kabi-kw.com,Sabhan – Block 9 – Street 102 – P.O. Box 3937 Safat 13040 Kuwait,,,Fax: (+965) 24840202; Website: www.kabi-kw.com,,,,,,,,,,,,,,,,,,,,Kuwait Aluminum & Brass Industries Co.
arab_manufacturers.csv;mena_manufacturers.csv,Kuwait,Kuwait Aluminum Extrusion Company,Basic Metal Industries,Aluminum Extrusion – Anodizing,(+965) 24738509 – 24745434,extrusion@kalexco.com,Sabhan – Block 8 – Street 84 – Plot 208 –P.O. Box 24501 Safat 13106 Kuwait,,,Fax: (+965) 24710694; Website: www.kalexco.com,,,,,,,,,,,,,,,,,,,,Kuwait Aluminum Extrusion Company
arab_manufacturers.csv;mena_manufacturers.csv,Kuwait,Kuwait Biscuit & Food Products Manufacturing Co.,Food and Beverages,Chips & snacks – Biscuits – Wafers – Sugar cubes & Icing sugar,(+965) 24745400 – 24745455,kbc@wazzan.com,Sabhan – Block 1 – Street 11 – P.O. Box 335 Hawali 32004,,,Fax: (+965) 24748510; Website: www.mezzan.com,,,,,,,,,,,,,,,,,,,,Kuwait Biscuit & Food Products Manufacturing Co.
arab_manufacturers.csv;mena_manufacturers.csv,Kuwait,Kuwait Cement Company,Non Metal Mining,Ordinary Portland cement – Sulphate resisting cement – Al- Ramadi (Masonry cement) – Clinker,(+965 ) 22401700 - 23261621,alcement@kuwait-cement.com,Kuwait City -Cement House -at the intersection of Al- Shuhada Street with Khaled Ibn Al-Waleed Street, Al-Sawaber Area- P.O. Box 20581 Safat 13066 Kuwait,,"N/A,Fax: (+965) 22432956 - 22440896; Website: www.Kuwait-cement.com",,,,,,,,,,,,,,,,,,,,Kuwait Cement Company
arab_manufacturers.csv;mena_manufacturers.csv,Kuwait,Kuwait Cotton Products Co. For Trade & Industry,Textiles, Clothing & Leather Industries,Pillows – Bed sheets & quilts,(+965) 24742287 – 24742288,kcpckt@kcpckt.com,Sabhan – Block 1 – Street 11 – P.O. Box 24301 Safat 13104 Kuwait,,"N/A,Fax: (+965) 24742513; Website: www.kcpckt.com",,,,,,,,,,,,,,,,,,,,Kuwait Cotton Products Co. For Trade & Industry
arab_manufacturers.csv;mena_manufacturers.csv,Kuwait,Kuwait Flour Mills & Bakeries Company,Food and Beverages,Wheat flour Biscuits – Macaroni – Vegetable oil & ghee – Arabic / European bread – Animal feed,(+965) 24841866,sales@flour-mills.com.kw,Shuwaikh – Jamal Abdul Naser Street – P.O. Box 681 Safat 13007 Kuwait,,,Fax: (+965) 24841590; Website: www.kuwaitflourmills.com,,,,,,,,,,,,,,,,,,,,Kuwait Flour Mills & Bakeries Company
arab_manufacturers.csv;mena_manufacturers.csv,Kuwait,Kuwait Food Company (Americana - Commercial Trading & Bakeries Division),Food and Beverages,Croissant / Mini Croissant – Mini Pate – Rusk – Bread Crumbs – Cold Sandwiches – Frozen Pastries (Puff Pastry, Sambousa) – Salads,(+965) 24735476 – 24735661,trade@americanaf.com,Sabhan – Block 1 – P.O. Box 5078 Safat 13051 Kuwait,,"N/A,Fax: (+965) 24767232; Website: www.Americana-group.net",,,,,,,,,,,,,,,,,,,,Kuwait Food Company (Americana - Commercial Trading & Bakeries Division)
arab_manufacturers.csv;mena_manufacturers.csv,Kuwait,Kuwait Foundry Company,Basic Metal Industries,Manhole covers - Drainage pipes & fittings - Other castings,(+965) 24766691/2/3/4,srp737@hotmail.com,Ray Industrial Area – Block 1 – Street 10 – P.O. Box 1393 Safat 13014 Kuwait,,,Fax: (+965) 24763033,,,,,,,,,,,,,,,,,,,,Kuwait Foundry Company
arab_manufacturers.csv;mena_manufacturers.csv,Kuwait,Kuwait Pipe Industries and Oil Services Company,Basic Metal Industries,Spirally welded carbon steel pipes,(+965) 24674843 – 24675622,kpios@kpios.com,Sulaibiya Industrial Area – Block 1 – Street 4 – P.O. Box 3416 Safat 13035 Kuwait,,,Fax: (+965) 24675897; Website: www.kpios.com,,,,,,,,,,,,,,,,,,,,Kuwait Pipe Industries and Oil Services Company
arab_manufacturers.csv;mena_manufacturers.csv,Kuwait,Kuwait Protein & Fat Production Company,Food and Beverages,Animal feed (meat & bone powder) – Inedible tallow,(+965) 24672712 – 24678024,kpfpco@yahoo.com,Al-Mirqab – Abdullah Mubarak Street – Al-Niffisi Building – P.O. Box 22967 Safat 12092 Kuwait,,,Fax: (+965) 24678054,,,,,,,,,,,,,,,,,,,,Kuwait Protein & Fat Production Company
arab_manufacturers.csv;mena_manufacturers.csv,Kuwait,Kuwait United Poultry Company,Food and Beverages,Fresh eggs – Columbus eggs – Fresh chicken – Frozen chicken,(+965) 24810033,info@kupco.net,Shuwaikh – Jamal Abdul Naser Street – P.O. Box 1236 Safat 13013 Kuwait,,,Fax: (+965) 24818864; Website: www.kupco.net,,,,,,,,,,,,,,,,,,,,Kuwait United Poultry Company
arab_manufacturers.csv;mena_manufacturers.csv,Kuwait,Livestock Transport & Trading Co. - Meat Factory,Food and Beverages,Frozen products (mutton, beef, poultry) – Cooked products (mutton, beef, poultry) – Chilled New Zealand & Australian mutton carcasses – Frozen New Zealand mutton cuts – Chilled beef & veal cuts,(+965) 22420669 – 24676101,"sales@kltt.com.kw,Sulaibiya Agricultural Area – Block 12 – P.O. Box 23727 Safat 13098 Kuwait,N/A,N/A,Fax: (+965) 24676113; Website: www.kltt.com.kw",,,,,,,,,,,,,,,,,,,,Livestock Transport & Trading Co. - Meat Factory
arab_manufacturers.csv;mena_manufacturers.csv,Kuwait,Mattress & Sofa Industries Co. (Al Fares Industries),Other Manufacturing Industries,Spring & normal mattresses – Divan Base – Head boards / Feet Boards – Sofa sets,(+965 ) 24720871 / 2 / 3 / 4,info@alfaresindustries.com,Sabhan –Block 2 – Street 24 – P.O. Box 2947 Safat 13030 Kuwait,,,Fax: (+965 ) 24720869; Website: www.alfaresindustries.com,,,,,,,,,,,,,,,,,,,,Mattress & Sofa Industries Co. (Al Fares Industries)
arab_manufacturers.csv;mena_manufacturers.csv,Kuwait,Metal Products Accessories Co.,Basic Metal Industries,Beach chairs & umbrellas – Steel furniture (ladders - ironing tables - cloth dryers – cloth hangers – bases for gas cylinders and fridges),(+965) 24755292,metalproductsm@yahoo.com,Sabhan – Block 2 – Street 102 - Plot 73 - P.O. Box 99 Shamiya 71661, Kuwait,,"N/A,Fax: (+965) 24755191; Website: www.mpcoj.com",,,,,,,,,,,,,,,,,,,,Metal Products Accessories Co.
arab_manufacturers.csv;mena_manufacturers.csv,Kuwait,Metal Products Company,Basic Metal Industries,Galvanized Iron Profiles – Aluminum Ceiling of different Sizes,(+965) 24731287 – 24737916,mpc@kems.net,Sabhan – Block 6 – Street 62 - P.O. Box 3973 Safat 13040 Kuwait,,,Fax: (+965) 24737932; Website: www.mpckw.com,,,,,,,,,,,,,,,,,,,,Metal Products Company
arab_manufacturers.csv;mena_manufacturers.csv,Kuwait,Mickey Snax (Light Food Company),Food and Beverages,Natural potato chips – Snacks (processed potato),(+965) 24711531 – 24711534,contact@mickeysnax.com,Sabhan – Block 10 – Plot 58 – P.O. Box 26704 Safat 13129,,,Fax: (+965) 24711523,,,,,,,,,,,,,,,,,,,,Mickey Snax (Light Food Company)
arab_manufacturers.csv;mena_manufacturers.csv,Kuwait,National Canned Food Product & Trade Co (Dania),Food and Beverages,Canned meat – Canned vegetables and legumes – Vinegar – Mineral water,(+965) 24748866,national@wazzan.com,Sabhan – Block 1 – Street 3 – P.O. Box 25452 Safat 13115 Kuwait,,,Fax: (+965) 24722142; Website: www.daniah.com,,,,,,,,,,,,,,,,,,,,National Canned Food Product & Trade Co (Dania)
arab_manufacturers.csv;mena_manufacturers.csv,Kuwait,National Fishing Company,Food and Beverages,Fresh / frozen fish – Fresh / frozen shrimps – Processed seafood,(+965) 1807766 – 24827999,nfcinfo@nfcq8.com,Shuwaikh Industrial Area – Block A – Plot 89 – P.O. Box 27511 Safat 13136 Kuwait,,,Fax: (+965) 24847181; Website: www.nfcq8.com,,,,,,,,,,,,,,,,,,,,National Fishing Company
arab_manufacturers.csv;mena_manufacturers.csv,Kuwait,National Industries Company for Building Materials,Non Metal Mining,Al-Abyad Blocks – Sand Lime Bricks – Interlock Tiles,(+965) 1844555 – 24837099,Sales@nicbm.com,Shuwaikh – Crossroads of Jahra Road and Airport Road – P.O. Box 3314 Safat 13034 Kuwait,,,Fax: (+965) 24833498; Website: www.nicbm.com,,,,,,,,,,,,,,,,,,,,National Industries Company for Building Materials
arab_manufacturers.csv;mena_manufacturers.csv,Kuwait,National Tannery Company,Textiles, Clothing & Leather Industries,Arabian / Australian skin – Arabian / Australian wool,(+965) 24676147 – 24676148,ntc@qualitynet.net,Sulaibiya Industrial Area – Block 1 – Street 3 – P.O. Box 1048 Safat 13011 Kuwait,,"N/A,Fax: (+965) 24679777",,,,,,,,,,,,,,,,,,,,National Tannery Company
arab_manufacturers.csv;mena_manufacturers.csv,Kuwait,National Textile Company,Textiles, Clothing & Leather Industries,Towels – Polyester / cotton sheets – Table linen – Polyester Pillows – Comforters – Cotton products (Pilgrimage towels, t-shirts, ghutras),(+965) 24763311 – 24714347,alrabea@qualitynet.net,"Sabhan – Block 2 – Street 104 – P.O. Box 25186 Safat 13112 Kuwait,N/A,N/A,Fax: (+965) 24761122; Website: www.ntckuwait.com",,,,,,,,,,,,,,,,,,,,National Textile Company
arab_manufacturers.csv;mena_manufacturers.csv,Kuwait,New Exhibition Company,Basic Metal Industries,Electric Water Heaters – Water Cooling & Heating Equipments – Food Heating Equipment,(+965) 24822084 – 24716683,newexhib@newexhib.com,Shuwaikh – Al-Jawazat Street– P.O. Box 2383 Safat 13024 Kuwait,,,Fax: (+965) 24813083 – 24766993; Website: www.newexhib.com,,,,,,,,,,,,,,,,,,,,New Exhibition Company
arab_manufacturers.csv;mena_manufacturers.csv,Kuwait,Nijaracraft Furniture & joinery,Other Manufacturing Industries,Desks (conferences, reception…etc) – Wall cladding – Vanity cabinets & counters- Solid surfaces (tops, cladding …etc),(+965) 24719884,admin@nijaracraft.com,South Sabhan – Block 8 – Street 103 - P.O. Box 28903 Safat 13150 Kuwait,"N/A,N/A,Fax: (+965) 24743863",,,,,,,,,,,,,,,,,,,,Nijaracraft Furniture & joinery
arab_manufacturers.csv;mena_manufacturers.csv,Kuwait,Petra Trading & Manufacturing Food Stuff,Food and Beverages,Dairy products – Juices – Cakes,(+965) 24733362 – 1802280,Petra@qualitynet.net,Sabhan – Block 7 – Street 103 – P.O. Box 3331 Safat 13034 Kuwait,,,Fax: (+965) 24745978; Website: www.Petrafood.com,,,,,,,,,,,,,,,,,,,,Petra Trading & Manufacturing Food Stuff
arab_manufacturers.csv;mena_manufacturers.csv,Kuwait,Quality International Plant,Non Metal Mining,Concrete mix (all grades) –Swift Crete mix – Crack resisting mix – splash mix – screed mix- raw materials (washed sand and gravel of different sizes),(+965) 24580887,info@qiplant.com,Amghara Industrial Area – Block 4 – Plot 19 , 20 - P.O. Box 66678 Bayan, Kuwait,"N/A,N/A,Fax: (+965) 24560887; Website: www.qiplant.com",,,,,,,,,,,,,,,,,,,,Quality International Plant
arab_manufacturers.csv;mena_manufacturers.csv,Kuwait,Refreshment Trading Company,Food and Beverages,Soft drinks – Mineral water – Juices,(+965) 24746888,rtccoke@kems.net,Sabhan – Block 11 – Street 1 – P.O. Box 1044 Safat 13011 Kuwait,,,Fax: (+965) 24741688,,,,,,,,,,,,,,,,,,,,Refreshment Trading Company
arab_manufacturers.csv;mena_manufacturers.csv,Kuwait,Refrigeration Industries and Storage Company,Basic Metal Industries,Central & Split Air-conditioning units,(+965) 1833380 - 24679732,risco@ricoolex.com,Sulaibiya – Block 1 – P.O. Box 22261 Safat 13083 Kuwait,,,Fax: (+965) 24673562; Website: www.riscoolex.com,,,,,,,,,,,,,,,,,,,,Refrigeration Industries and Storage Company
arab_manufacturers.csv;mena_manufacturers.csv,Kuwait,Sa’ad Murshad General Trade & Construction Establishment,Basic Metal Industries,Interior & Exterior Signs – Safety Signs – Road Markings – Metal Works,(+965) 23988171 – 23263888,mail@ smurshedest.com,West Industrial Shuaiba – Block 5 – P.O. Box 9716 Ahmadi 61008 Kuwait,,,Fax: (+965) 23988172 – 23263880; Website: www.smurshedest.com,,,,,,,,,,,,,,,,,,,,Sa’ad Murshad General Trade & Construction Establishment
arab_manufacturers.csv;mena_manufacturers.csv,Kuwait,Shuaiba Animal Feed Factory,Food and Beverages,All types of animal feed (both pellets and powder),(+965) 23260831,saffkwt@hotmail.com,Shuaiba Industrial Area – Block 5 – P.O. Box 2145 Safat 13075 Kuwait,,,Fax: (+965) 23260837 – 22446503; Website: www.mykitco.com,,,,,,,,,,,,,,,,,,,,Shuaiba Animal Feed Factory
arab_manufacturers.csv;mena_manufacturers.csv,Kuwait,Sofan Steel and Metal Furniture Factory,Basic Metal Industries,Steel pipes – Hollow sections – Galvanized steel sheets – Corrugated sheets – Decoration steel,(+965) 24763841 / 91 - 24812337,faid@sofansteel.com,Al Rai – Block 1 – Plot 1822 - P.O. Box 42087 Shuwaikh 70651 , Kuwait,,"N/A,Fax: (+965) 24763868 - 24831139; Website: www.sofansteel.com",,,,,,,,,,,,,,,,,,,,Sofan Steel and Metal Furniture Factory
arab_manufacturers.csv;mena_manufacturers.csv,Kuwait,Specialties Expanded Metal Factory (Kumex),Basic Metal Industries,Metal Lath – Angle Beads – Brick Mesh – Plaster stop,(+965 ) 24565145/ 65,technical@aspeckuwait.com,Amghara Industrial Area – Block 4 – Plot 106 , 108 , 110 - P.O. Box 23595 Safat 13096 ," Kuwait,N/A,N/A,Fax: ( +965 ) 24565135; Website: www.kumex.net",,,,,,,,,,,,,,,,,,,,Specialties Expanded Metal Factory (Kumex)
arab_manufacturers.csv;mena_manufacturers.csv,Kuwait,Steel Panel Center,Basic Metal Industries,Insulated Sandwich Panels – Corrugated & Plain Sheet Iron – Pre-Fabricated Buildings – Al,(+965) 24828200 – 24827532,nblramadan@yahoo.com,Shuwaikh Industrial Area – Mohammad Ben Al Qasim Street –P.O. Box 399 Dasman 15454 Kuwait,,,Fax: (+965) 24828201; Website: www.spckuwait.com,,,,,,,,,,,,,,,,,,,,Steel Panel Center
arab_manufacturers.csv;mena_manufacturers.csv,Kuwait,The Kuwait Indo Trading Company ltd,Food and Beverages,Potato chips & snacks – Corn starch snacks,(+965) 1802345,kitco@wazaan.com,Sabhan – Block 1 – Street 11 – P.O. Box 2135 Safat 13022 Kuwait,,,Fax: (+965) 24764889; Website: www.mykitco.com,,,,,,,,,,,,,,,,,,,,The Kuwait Indo Trading Company ltd
arab_manufacturers.csv;mena_manufacturers.csv,Kuwait,The Mediator for Industries & Com. Co (Juice Factory),Food and Beverages,Juices,(+965) 24734336 – 24739670,plasticc@hotmail.com,Sabhan – Block 1 – Street 12 – P.O. Box 3802 Safat 13039 Kuwait,,,Fax: (+965) 24768175,,,,,,,,,,,,,,,,,,,,The Mediator for Industries & Com. Co (Juice Factory)
arab_manufacturers.csv;mena_manufacturers.csv,Kuwait,United Steel Industrial Company,Basic Metal Industries,Reinforced steel bars,(+965) 22422200 – 22444231,commercial@unisteelkuwait.com,Shuaiba Industrial Area –Block 4 – Plot 71 – P.O. Box 1370 Safat 13014 Kuwait,,,Fax: (+965) 22444232; Website: www.unisteelkuwait.com,,,,,,,,,,,,,,,,,,,,United Steel Industrial Company
arab_manufacturers.csv;mena_manufacturers.csv,Kuwait,Universal Steel Factory,Basic Metal Industries,Stainless Steel Tanks – Stainless Steel Trolleys –Stainless Steel Insulated Water Coolers – Water Heater Tanks – Stainless Steel Cooking Equipments – Stainless steel Tankers – Stainless Steel / Carbon Steel Pipes & Fittings – Stainless Steel Decoration,(+965) 22650372 / 3,universal-steel-architect@hotmail.com,West Industrial Shuaiba – Block 5 – P.O. Box 511 Surra 45706 Kuwait,,,Fax: (+965) 25352442,,,,,,,,,,,,,,,,,,,,Universal Steel Factory
arab_manufacturers.csv;mena_manufacturers.csv,Oman,AL ASR ELECTRICAL & ELECTRONIC INDUSTRIES,Electrical,Electrical and electronic products,24446809,alasr@omantel.net.om,,,,Contact: Gopalen 99358957; Fax: 24446809,,,,,,,,,,,,,,,,,,,,AL ASR ELECTRICAL & ELECTRONIC INDUSTRIES
arab_manufacturers.csv;mena_manufacturers.csv,Oman,AL HASSSAN POWER INDUSTRIES,Electrical,Power products,24591283,baqer.j@al-hassan.com,,,,Contact: Bqer 95334775; Fax: 24596899,,,,,,,,,,,,,,,,,,,,AL HASSSAN POWER INDUSTRIES
arab_manufacturers.csv;mena_manufacturers.csv,Oman,AL JIZZI TRANSFORMERS & SWITCHGEAR CO.LLC,Electrical,Transformers and switchgear,24451427,ajtsoman@omantel.net.om,,,,Contact: Srirram 99375340; Fax: 24456190,,,,,,,,,,,,,,,,,,,,AL JIZZI TRANSFORMERS & SWITCHGEAR CO.LLC
arab_manufacturers.csv;mena_manufacturers.csv,Oman,AL MOHSIN ELECTRICALS,Electrical,Electrical products,24701494,allmoha@omantel.net.om,,,,Contact: Saleem 99438409; Fax: 24706049,,,,,,,,,,,,,,,,,,,,AL MOHSIN ELECTRICALS
arab_manufacturers.csv;mena_manufacturers.csv,Oman,AL SAQLAWI EST.,,,24813314,bisan80@omantel.net.om,,,,Contact: Abdullah saqlawi 99383822; Fax: 24810344,,,,,,,,,,,,,,,,,,,,AL SAQLAWI EST.
arab_manufacturers.csv;mena_manufacturers.csv,Oman,AL TASNEEM ELECTRICAL CONT.,Electrical,Electrical contracting,24501017,,,,,Contact: Moosa Tubaila 99366083; Fax: 24501018,,,,,,,,,,,,,,,,,,,,AL TASNEEM ELECTRICAL CONT.
arab_manufacturers.csv;mena_manufacturers.csv,Oman,Al Hassan Switchgear Manufacturing Co. LLC (AHSG),Electrical,Switchgear,24591283,baqer.j@al-hassan.com,,,,Contact: Bqer 95334775; Fax: 24596899,,,,,,,,,,,,,,,,,,,,Al Hassan Switchgear Manufacturing Co. LLC (AHSG)
arab_manufacturers.csv;mena_manufacturers.csv,Oman,ELECTRO MECHANICAL SERVICES LLC,Electrical,Electro mechanical,24596686,suresh@emsswitchgear.com,,,,Contact: Suresh 99365503; Fax: 24595585,,,,,,,,,,,,,,,,,,,,ELECTRO MECHANICAL SERVICES LLC
arab_manufacturers.csv;mena_manufacturers.csv,Oman,JYOTI SOHAR SWITCHGEAR,Electrical,Switchgear,26751197,jyotijss@omantel.net.om,,,,Contact: Prabhat sherma 99445474; Fax: 26750286,,,,,,,,,,,,,,,,,,,,JYOTI SOHAR SWITCHGEAR
arab_manufacturers.csv;mena_manufacturers.csv,Oman,MAJAN SWITCHGEAR COMPANY,Electrical,Switchgear,24504235,majanmct@omantel.net.om,,,,Contact: T.Thangamani 99226968; Fax: 24502549,,,,,,,,,,,,,,,,,,,,MAJAN SWITCHGEAR COMPANY
arab_manufacturers.csv;mena_manufacturers.csv,Oman,NATIONAL ELECTRICAL INDUSTRIES,Electrical,Electrical products,24453880,sudarsan@neioman.com,,,,Contact: Sudarsan 95210070; Fax: 24453721,,,,,,,,,,,,,,,,,,,,NATIONAL ELECTRICAL INDUSTRIES
arab_manufacturers.csv;mena_manufacturers.csv,Oman,NATIONAL PLASTIC FACTORY,Plastics,Plastic products,24811689,info@nationalplasticoman.com,,,,Contact: wilfard 99840233; Fax: 24810078,,,,,,,,,,,,,,,,,,,,NATIONAL PLASTIC FACTORY
arab_manufacturers.csv;mena_manufacturers.csv,Oman,NATIONAL TRADING CO.,Trading,,24591041,natcoed@omantel.net.om,,,,Contact: ashok 99759012; Fax: 24591046,,,,,,,,,,,,,,,,,,,,NATIONAL TRADING CO.
arab_manufacturers.csv;mena_manufacturers.csv,Oman,NUHAS OMAN LLC,Manufacturing,Cables,24449007,alokbasu@nuhasoman.com,,,,Contact: Sunil 99372917; Fax: 24446790,,,,,,,,,,,,,,,,,,,,NUHAS OMAN LLC
arab_manufacturers.csv;mena_manufacturers.csv,Oman,OMAN CABLES INDUSTRY (O.C.I),Electrical,Cables,24446464,quadri@omancables.com,,,,Contact: Saeed Qadiri 99349265; Fax: 24446096,,,,,,,,,,,,,,,,,,,,OMAN CABLES INDUSTRY (O.C.I)
arab_manufacturers.csv;mena_manufacturers.csv,Oman,Oman National Engineering & Investement Co.,Engineering,Engineering and investment,24702075,bala.v@oneic.com.om,,,,Contact: Bala 99217652; Fax: 24797394,,,,,,,,,,,,,,,,,,,,Oman National Engineering & Investement Co.
arab_manufacturers.csv;mena_manufacturers.csv,Oman,SHARIKAT FANNIYA OMANIA,Electrical,Electrical,24815970,sfoelect@omantel.net.om,,,,Contact: Abijit 99363078; Fax: 248108706,,,,,,,,,,,,,,,,,,,,SHARIKAT FANNIYA OMANIA
arab_manufacturers.csv;mena_manufacturers.csv,Oman,URICH SWITCHGEAR MANUFACTURING CO.,Electrical,Switchgear,24815597,usg_oman@yahoo.com,,,,Contact: Prakash 99824034; Fax: 24818350,,,,,,,,,,,,,,,,,,,,URICH SWITCHGEAR MANUFACTURING CO.
arab_manufacturers.csv;mena_manufacturers.csv,Oman,VOLTAMP MANUFACTURING CO.,Manufacturing,,24446372,aasit@voltampoman.com,,,,Contact: Aaist Naik 99337423; Fax: 24446371,,,,,,,,,,,,,,,,,,,,VOLTAMP MANUFACTURING CO.
arab_manufacturers.csv;mena_manufacturers.csv,Oman,VOLTAMP TRANSFORMERS OMAN LTD.,Electrical,Transformers,24446372,aasit@voltampoman.com,,,,Contact: Aaist Naik 99337423; Fax: 24446371,,,,,,,,,,,,,,,,,,,,VOLTAMP TRANSFORMERS OMAN LTD.
arab_manufacturers.csv;mena_manufacturers.csv,Qatar,ADVANCED PLASTIC FACTORY,Plastics,Pipes, fittings PVC and HDPE, corrugated pipes,,,,"N/A,N/A,N/A",,,,,,,,,,,,,,,,,,,,ADVANCED PLASTIC FACTORY
arab_manufacturers.csv;mena_manufacturers.csv,Qatar,AL ARZ AUTOMATIC BAKERY,Food processing,Bakery products,ISO 22000:2005, ISO 9001:2015,,,,,,,,,,,,,,,,,,,,,,,,AL ARZ AUTOMATIC BAKERY
arab_manufacturers.csv;mena_manufacturers.csv,Qatar,AL BAYADAR PACK-QATAR,Packaging,Food packaging solutions,,,,,,,,,,,,,,,,,,,,,,,,,,AL BAYADAR PACK-QATAR
arab_manufacturers.csv;mena_manufacturers.csv,Qatar,AL MESBAH FACTORY FOR ALUMINUM WORKS,Metal works,Aluminum works,,,,,,,,,,,,,,,,,,,,,,,,,,AL MESBAH FACTORY FOR ALUMINUM WORKS
arab_manufacturers.csv;mena_manufacturers.csv,Qatar,AL NAQEEB PLASTIC FACTORY,Plastics,Polypropylene woven bags and sacks,ISO 9001:2015, ISO 22000:2018, HACCP,,,"N/A,N/A",,,,,,,,,,,,,,,,,,,,AL NAQEEB PLASTIC FACTORY
arab_manufacturers.csv;mena_manufacturers.csv,Qatar,AL SADA FACTORY FOR PLASTIC PIPES,Plastics,PPR pipes and fittings,,,Industrial Area, Doha,,"N/A,N/A",,,,,,,,,,,,,,,,,,,,AL SADA FACTORY FOR PLASTIC PIPES
arab_manufacturers.csv;mena_manufacturers.csv,Qatar,AL SADA FOOD INDUSTRY,Food industry,Factory sale, company not operational,,,Street 31, Zone 81," Small & Medium Industries Area,N/A,N/A",,,,,,,,,,,,,,,,,,,,AL SADA FOOD INDUSTRY
arab_manufacturers.csv;mena_manufacturers.csv,Qatar,AL SULAITEEN AGRICULTURE AND INDUSTRIAL COMPLEX CO,Agriculture,Flowers, fruits, vegetables, animal products,,,"40 hectares farms,N/A,N/A",,,,,,,,,,,,,,,,,,,,AL SULAITEEN AGRICULTURE AND INDUSTRIAL COMPLEX CO
arab_manufacturers.csv;mena_manufacturers.csv,Qatar,ALBIDDA INDUSTRIES AND SERVICES,Electrical,Switchboard enclosures, assembly,,,,,"N/A,N/A",,,,,,,,,,,,,,,,,,,,ALBIDDA INDUSTRIES AND SERVICES
arab_manufacturers.csv;mena_manufacturers.csv,Qatar,ALUMINUM GULF RAY (GULF RAY ALUMINUM AND GLASS),Metal products,Metal cladding, facades, doors, windows, aluminum products,,"N/A,N/A,N/A,N/A,N/A",,,,,,,,,,,,,,,,,,,,ALUMINUM GULF RAY (GULF RAY ALUMINUM AND GLASS)
arab_manufacturers.csv;mena_manufacturers.csv,Qatar,Al crystal food oil factory,Food processing,Edible oil,,,New Industrial Area, Doha,,,,,,,,,,,,,,,,,,,,,,Al crystal food oil factory
arab_manufacturers.csv;mena_manufacturers.csv,Qatar,AlBINA SNACKS,Food processing,Roasted nuts,,,,,,,,,,,,,,,,,,,,,,,,,,AlBINA SNACKS
arab_manufacturers.csv;mena_manufacturers.csv,Qatar,Artikkan Gallery,Furniture and decor,Arab or Oriental influenced furniture and home-décor,,,Doha,,,,,,,,,,,,,,,,,,,,,,,Artikkan Gallery
arab_manufacturers.csv;mena_manufacturers.csv,Qatar,Asima Plastic Factory,Packaging,Packaging,,,,,,,,,,,,,,,,,,,,,,,,,,Asima Plastic Factory
arab_manufacturers.csv;mena_manufacturers.csv,Qatar,BRIGHT FUTURE TIRE RECYCLING COMPANY,Recycling,Reclaimed rubber from tyres,,,Umsaeed industrial area,,,,,,,,,,,,,,,,,,,,,,,BRIGHT FUTURE TIRE RECYCLING COMPANY
arab_manufacturers.csv;mena_manufacturers.csv,Qatar,Baladna,Food and beverages,Dairy and juice products,ISO 22000:2005,,Al Khor,,,,,,,,,,,,,,,,,,,,,,,Baladna
arab_manufacturers.csv;mena_manufacturers.csv,Qatar,COASTAL STEEL AND GALVANIZING WLL,Metal fabrication,Steel structures, stadium seats, bathroom partitions, lighting poles, crash barriers, cable trays,"N/A,N/A,N/A,N/A,N/A,N/A",,,,,,,,,,,,,,,,,,,,COASTAL STEEL AND GALVANIZING WLL
arab_manufacturers.csv;mena_manufacturers.csv,Qatar,DELTA CORPORATION,Oil and gas,Wellheads, X-Mass tree equipment, valves, actuators, flow control products,,"N/A,N/A,N/A,N/A,N/A",,,,,,,,,,,,,,,,,,,,DELTA CORPORATION
arab_manufacturers.csv;mena_manufacturers.csv,Qatar,DOHA EXTRACO,Construction materials,GRC, GRP, UHPC, GRG, EIFS,,"N/A,N/A,N/A,N/A,N/A",,,,,,,,,,,,,,,,,,,,DOHA EXTRACO
arab_manufacturers.csv;mena_manufacturers.csv,Qatar,DOHA PRECAST FACTORY,Construction materials,Reinforced concrete pipes, precast manholes, fittings,,,Messaieed Industrial City,"N/A,N/A",,,,,,,,,,,,,,,,,,,,DOHA PRECAST FACTORY
arab_manufacturers.csv;mena_manufacturers.csv,Qatar,Dandy Company,Food and beverages,Dairy, beverage and ice cream products,ISO 9001:2000,,,,,,,,,,,,,,,,,,,,,,,,Dandy Company
arab_manufacturers.csv;mena_manufacturers.csv,Qatar,Doha Cables,Electrical,Cables,BASEC, LPCB, KEMA/DNV-GL,,Messaieed Industrial City,"N/A,N/A",,,,,,,,,,,,,,,,,,,,Doha Cables
arab_manufacturers.csv;mena_manufacturers.csv,Qatar,ELITE PAPER RECYCLING,Recycling,Paper recycling,,,,,,,,,,,,,,,,,,,,,,,,,,ELITE PAPER RECYCLING
arab_manufacturers.csv;mena_manufacturers.csv,Qatar,EXPANDED METAL MFG. CO.,Metal products,Expanded metal products,British Standards, ASTM, ISO 9001:2015, AISI,,"New Industrial Area, Doha,N/A,N/A",,,,,,,,,,,,,,,,,,,,EXPANDED METAL MFG. CO.
arab_manufacturers.csv;mena_manufacturers.csv,Qatar,GROWTECH TRADING & INDUSTRIAL GROUP CO.,,,,,,,,,,,,,,,,,,,,,,,,,,,,GROWTECH TRADING & INDUSTRIAL GROUP CO.
arab_manufacturers.csv;mena_manufacturers.csv,Qatar,GULF CRAFTS,Manufacturing,Bespoke design and manufacturing,,,Doha,,,,,,,,,,,,,,,,,,,,,,,GULF CRAFTS
arab_manufacturers.csv;mena_manufacturers.csv,Qatar,HALUL FOR BOAT MANUFACTURING,Manufacturing,Fiber glass boats, yachts, coast guard boats,,,New Industrial Area," Doha,N/A,N/A",,,,,,,,,,,,,,,,,,,,HALUL FOR BOAT MANUFACTURING
arab_manufacturers.csv;mena_manufacturers.csv,Qatar,INTERNATIONAL WELDING RODS FACTORY,Manufacturing,Welding electrodes,ISO-certified,,New Industrial Area, Doha,,,,,,,,,,,,,,,,,,,,,,INTERNATIONAL WELDING RODS FACTORY
arab_manufacturers.csv;mena_manufacturers.csv,Qatar,ITAG INTERNATIONAL,Oilfield equipment,Oilfield equipment,,,,,,,,,,,,,,,,,,,,,,,,,,ITAG INTERNATIONAL
arab_manufacturers.csv;mena_manufacturers.csv,Qatar,JERSEY GLASS,Glass processing,Glass processing,,,New Industrial Area,,,,,,,,,,,,,,,,,,,,,,,JERSEY GLASS
arab_manufacturers.csv;mena_manufacturers.csv,Qatar,METALS FORMING SUPPORT FACTORYS,Construction,Construction solutions,,,New Industrial Area Pink Zone,,,,,,,,,,,,,,,,,,,,,,,METALS FORMING SUPPORT FACTORYS
arab_manufacturers.csv;mena_manufacturers.csv,Qatar,MODERN BUILDING ACCESSORIES FACTORY,Building materials,Plastic items for building,,,New Industrial Area, Doha,,"N/A,N/A",,,,,,,,,,,,,,,,,,,,MODERN BUILDING ACCESSORIES FACTORY
arab_manufacturers.csv;mena_manufacturers.csv,Qatar,NATIONAL FOOD COMPANY W.L.L,Food processing,Processed dates,,,Doha,,,,,,,,,,,,,,,,,,,,,,,NATIONAL FOOD COMPANY W.L.L
arab_manufacturers.csv;mena_manufacturers.csv,Qatar,National Food Company (Al arabia),Food processing,Processed frozen food,,,,,,,,,,,,,,,,,,,,,,,,,,National Food Company (Al arabia)
arab_manufacturers.csv;mena_manufacturers.csv,Qatar,QATAR GERMAN GASKET FACTORY (Q-GER),Manufacturing,Metallic and non-metallic gaskets,,,New Industrial Area, Doha,,,,,,,,,,,,,,,,,,,,,,QATAR GERMAN GASKET FACTORY (Q-GER)
arab_manufacturers.csv;mena_manufacturers.csv,Qatar,QATAR MEAT PRODUCTION,Food processing,Meat processing,,,6,000 sqm facility,,,,,,,,,,,,,,,,,,,,,,QATAR MEAT PRODUCTION
arab_manufacturers.csv;mena_manufacturers.csv,Qatar,QATAR NATIONAL ALUMINIUM PANEL CO.,Metal products,Aluminium composite panels, coated aluminium coils,,,,,"N/A,N/A",,,,,,,,,,,,,,,,,,,,QATAR NATIONAL ALUMINIUM PANEL CO.
arab_manufacturers.csv;mena_manufacturers.csv,Qatar,QATAR POLYMER INDUSTRIAL COMPANY,Plastics,PP woven products,HACCP, ISO 9001:2015, ISO 45001:2018,,,"N/A,N/A",,,,,,,,,,,,,,,,,,,,QATAR POLYMER INDUSTRIAL COMPANY
arab_manufacturers.csv;mena_manufacturers.csv,Qatar,QATAR STEEL INDUSTRIES FACTORY,Steel products,Steel pipes, tubes, corrugated sheets, insulated panels, angles, beams," channels, flats,N/A,N/A,N/A,N/A,N/A,N/A",,,,,,,,,,,,,,,,,,,,QATAR STEEL INDUSTRIES FACTORY
arab_manufacturers.csv;mena_manufacturers.csv,Qatar,QATAR TECHNICAL STEEL FABRICATION CO.,Metal fabrication,Steel fabrication, industrial refrigeration, machining,,,Street 24," Zone 81, New Industrial Area,N/A,N/A",,,,,,,,,,,,,,,,,,,,QATAR TECHNICAL STEEL FABRICATION CO.
arab_manufacturers.csv;mena_manufacturers.csv,Qatar,QMEDIA SIGNAGE,Signage,Traffic, industrial, building name, indoor, way finding signs,,"N/A,N/A,N/A,N/A,N/A",,,,,,,,,,,,,,,,,,,,QMEDIA SIGNAGE
arab_manufacturers.csv;mena_manufacturers.csv,Qatar,Qatar Flour Mills Co.,Food processing,Flour and wheat-based products,,,,,,,,,,,,,,,,,,,,,,,,,,Qatar Flour Mills Co.
arab_manufacturers.csv;mena_manufacturers.csv,Qatar,Qatari Canadian for Electrical generators and energy,Power and renewable energy,Power solutions,,,,,,,,,,,,,,,,,,,,,,,,,,Qatari Canadian for Electrical generators and energy
arab_manufacturers.csv;mena_manufacturers.csv,Qatar,Qatari German For Medical Devices Company,Medical devices,Single-use syringes, hypodermic needles, intravenous cannulas, re-use prevention syringes, insulin syringes,,"N/A,N/A,N/A,N/A,N/A",,,,,,,,,,,,,,,,,,,,Qatari German For Medical Devices Company
arab_manufacturers.csv;mena_manufacturers.csv,Qatar,RAYYAN MINERAL WATER CO.,Beverages,Mineral water,,,60 kms from Doha,,,,,,,,,,,,,,,,,,,,,,,RAYYAN MINERAL WATER CO.
arab_manufacturers.csv;mena_manufacturers.csv,Qatar,Royal Foodz,Processed food services,Processed food,,,,,,,,,,,,,,,,,,,,,,,,,,Royal Foodz
arab_manufacturers.csv;mena_manufacturers.csv,Qatar,SIGMA METAL INDUSTRIES,Metal products,Traffic signs, directional signs, gantries, cantilevers, variable message signs, controllers cabinets," steel structures,ISO 9001:2015, ISO 14001:2018,N/A,N/A,N/A,N/A",,,,,,,,,,,,,,,,,,,,SIGMA METAL INDUSTRIES
arab_manufacturers.csv;mena_manufacturers.csv,Qatar,Seashore Panels Factory (formaly Al Atti ya Steel),Construction materials,Insulated polyurethane sandwich panels, cold room panels, decking sheets, purlins, single skin sheets,,"N/A,New Industrial Area, Doha,N/A,N/A",,,,,,,,,,,,,,,,,,,,Seashore Panels Factory (formaly Al Atti ya Steel)
arab_manufacturers.csv;mena_manufacturers.csv,Qatar,THE CONFIDENCE INDUSTRIAL GASES PLANT CO,Gases,Industrial, medical, specialty gases,,,,"N/A,N/A,N/A",,,,,,,,,,,,,,,,,,,,THE CONFIDENCE INDUSTRIAL GASES PLANT CO
arab_manufacturers.csv;mena_manufacturers.csv,Qatar,Twyla Recycling Company,Plastic recycling,Plastic raw material,,,,,,,,,,,,,,,,,,,,,,,,,,Twyla Recycling Company
arab_manufacturers.csv;mena_manufacturers.csv,Qatar,WEST BAY ICE AND WATER FACTORY,Beverages,Ice cubes, bottled water,,,,,"N/A,N/A",,,,,,,,,,,,,,,,,,,,WEST BAY ICE AND WATER FACTORY
saudi_factories.csv,Saudi Arabia,ALHamoudi Sign Systems,,,+966 xxxxxxxxxx,,,,,,,,,,,,,,,,,,,,ALHamoudi Sign Systems,,Riyadh,Riyadh,"Since 1990, Al-Hamoudi established an integrated media system for providing integrated advertising services whether companies, institutions, or individuals, in the Kingdom of Saudi Arabia market. Addi...",ALHamoudi Sign Systems
saudi_factories.csv,Saudi Arabia,Abdulaziz & Saad Al Moajil Co.,,,+966 xxxxxxxxxx,,,,,,,,,,,,,,,,,,,,Abdulaziz & Saad Al Moajil Co.,,,Eastern Province,Abdulaziz & Saad Al Moajil Co. was established in 1928 as a collective partnership company between the two brothers Abdulaziz & Saad and started functioning as a food stuff import company.,Abdulaziz & Saad Al Moajil Co.
arab_manufacturers.csv;mena_manufacturers.csv,Saudi Arabia,Abdullah bin Salem bin Ayyad Al-Khattabi Factory for Industry,Manufacturing of rubber and plastic products,Rubber and plastic products,0126094111,alkhattabi_factory@hotmail.com,Jeddah 1st,,,,,,,,,,,,,,,,,,,,,,,Abdullah bin Salem bin Ayyad Al-Khattabi Factory for Industry
saudi_factories.csv,Saudi Arabia,Advanced Solutions Company,,,+966 112016528,,,,,,,,,,,,,,,,,,,,Advanced Solutions Company,,Riyadh,Riyadh,Comprehensive Software Solutions to Elevate Your Business We offer a range of intelligent software solutions to help you efficiently manage and streamline your operations: ✅ Enterprise Resource...,Advanced Solutions Company
saudi_factories.csv,Saudi Arabia,Al Joaib Plastic Factory,,,+966 xxxxxxxxxx,,,,,,,,,,,,,,,,,,,,Al Joaib Plastic Factory,,,Eastern Province,Today we are surrounded by products made out by plastic and it’s hard to imagine a world without plastic manufacturers. But how did it all begin and when was the birth of plastic? In 1862 the first...,Al Joaib Plastic Factory
saudi_factories.csv,Saudi Arabia,Al Kuhaimi Group,,,+966 566838672,,,,,,,,,,,,,,,,,,,,Al Kuhaimi Group,,Dammam,Eastern Province,"AlKuhaimi Group of Companies founded in 1975 with the initial establishment of AlKuhaimi Metal Industries in Dammam, Saudi Arabia. The growth and stability of the Saudi market various sectors necessit...",Al Kuhaimi Group
saudi_factories.csv,Saudi Arabia,Al Qahtani Pipe Coating Industries,,,+966 xxxxxxxxxx,,,,,,,,,,,,,,,,,,,,Al Qahtani Pipe Coating Industries,,,Eastern Province,Abdel Hadi Abdullah Al-Qahtani Group of Companies established in 1940’s and has been expanded to cover various activities and considered to be one of the largest and most reputable privately owned...,Al Qahtani Pipe Coating Industries
saudi_factories.csv,Saudi Arabia,Al Rish Al Khaleeji Trading Co.,,,+966 552295924,,,,,,,,,,,,,,,,,,,,Al Rish Al Khaleeji Trading Co.,,,Riyadh,"Is a leading provider of high-quality advertising and signage materials, committed to turning creative ideas into impactful marketing solutions. Since our inception, we have been serving clients acros...",Al Rish Al Khaleeji Trading Co.
saudi_factories.csv,Saudi Arabia,Al Shifa Medical Products Co.,,,+966 xxxxxxxxxx,,,,,,,,,,,,,,,,,,,,Al Shifa Medical Products Co.,,Dammam,Eastern Province,"Since our establishment in 1980, we have committed to ourselves to making the healthcare environment safe and clean by manufacturing the latest and highest-quality medical disposable. We achieved that...",Al Shifa Medical Products Co.
saudi_factories.csv,Saudi Arabia,Al-Jubail Sanitary Pipe Factory,,,+966 xxxxxxxxxx,,,,,,,,,,,,,,,,,,,,Al-Jubail Sanitary Pipe Factory,,Jubail,Eastern Province,"JSPF is the trade name of Al-Jubail Sanitary Pipe Factory owned 100% by a Saudi Individual. It was established in 1985, since then JSPF has become one of the largest manufacturer and supplier of Polye...",Al-Jubail Sanitary Pipe Factory
arab_manufacturers.csv;mena_manufacturers.csv,Saudi Arabia,Al-Mumayzah Solutions Company for Chemical Industries,Manufacturing chemicals and chemical products; Manufacturing of rubber and plastic products; Manufacturing of machinery and equipment,Chemical industries,0126058546,info@usci.com.sa,Jeddah 1st,,,,,,,,,,,,,,,,,,,,,,,Al-Mumayzah Solutions Company for Chemical Industries
arab_manufacturers.csv;mena_manufacturers.csv,Saudi Arabia,Al-Rahden for Cleaning Company Saudi Closed Joint Stock,Other manufacturing; Manufacturing chemicals and chemical products,Cleaning products,0114543393,HR@alrahden.net,Riyadh 1st,,,,,,,,,,,,,,,,,,,,,,,Al-Rahden for Cleaning Company Saudi Closed Joint Stock
saudi_factories.csv,Saudi Arabia,Al-Suyuf Factory,,,+966 564240789,,,,,,,,,,,,,,,,,,,,Al-Suyuf Factory,,Jeddah,Makkah,"Al-Suyuf factory is one of the well-known manufacturers in Saudi Arabia for producing plastic bags. If you're looking for biodegradable or eco-friendly plastic bags, we provide all types of plastic ba...",Al-Suyuf Factory
saudi_factories.csv,Saudi Arabia,AlMutlaq Furniture,,,+966 138472211,,,,,,,,,,,,,,,,,,,,AlMutlaq Furniture,,Dammam,Eastern Province,"ALMUTLAQ FURNITURE was founded in 1954 and since then the company was a leader and pioneer in the furniture retail market, in furniture manufacturing, and in contract furnishing. For decades the compa...",AlMutlaq Furniture
saudi_factories.csv,Saudi Arabia,Alam Albaitar Trading Co.,,,+966 558584966,,,,,,,,,,,,,,,,,,,,Alam Albaitar Trading Co.,,Khamis Mushayt,Asir,"We are one of the leading companies in the field of high-quality paint manufacturing in the Kingdom of Saudi Arabia. Our factory is located in Khamis Mushait and was established in 2008. Since then, o...",Alam Albaitar Trading Co.
saudi_factories.csv,Saudi Arabia,Alanwar Factory Co.,,,+966 xxxxxxxxxx,,,,,,,,,,,,,,,,,,,,Alanwar Factory Co.,,Riyadh,Riyadh,"Alanwar Factory Co. is a leading factory in Saudi Arabia in the production of street light poles, street lights, and lighting accessories. The factory was established in 1392 in the 1st industrial Cit...",Alanwar Factory Co.
saudi_factories.csv,Saudi Arabia,Alaousaj,,,+966 xxxxxxxxxx,,,,,,,,,,,,,,,,,,,,Alaousaj,,Jizan,Jazan,"Alaousaj established in Saudi Arabia, is dedicated to providing comprehensive and reliable pharmaceutical services to the community. We offer a wide range of medicines, healthcare products, and profes...",Alaousaj
saudi_factories.csv,Saudi Arabia,Albitar Factory Company,,,+966 591596878,,,,,,,,,,,,,,,,,,,,Albitar Factory Company,,Dammam,Eastern Province,"Albitar factory is a wholly Saudi owned entity that was founded in 1974 in the First Industrial City, Eastern Province of Saudi Arabia and is a leading provider which is dedicated to quality work and...",Albitar Factory Company
saudi_factories.csv,Saudi Arabia,Alfalak Electronic Equipment & Supplies Co.,,,+966 13 882 9996,,,,,,,,,,,,,,,,,,,,Alfalak Electronic Equipment & Supplies Co.,,Khobar,Eastern Province,Al-Falak Electronic Equipment & Supplies Co. is a leading IT and communications solution provider that has continuously been ranked by Arab News as one of the top 100 Companies in Saudi Arabia. Wi...,Alfalak Electronic Equipment & Supplies Co.
gcc_manufacturers.csv,Saudi Arabia,Alfanar,,,,,,,,,Riyadh,www.alfanar.com,Electrical equipment," transformers, EPC,$6.6B revenue; 24K employees; exports to 100+ countries; smart grid tech.",,,,,,,,,,,,,,,,Alfanar
gcc_manufacturers.csv,Saudi Arabia,Almarai,,,,,,,,,Riyadh,www.almarai.com,Dairy," poultry, bakery, juices,World's largest vertically integrated dairy; $5B+ revenue; 40K employees; halal; fresh produce.",,,,,,,,,,,,,,,,Almarai
saudi_factories.csv,Saudi Arabia,Alsharq Factory,,,+966 550723222,,,,,,,,,,,,,,,,,,,,Alsharq Factory,,Jeddah,Makkah,"Based in Jeddah, Saudi Arabia, Al Sharq Al Adna Manufacturing specializes in producing high-quality Wood-Plastic Composite (WPC) products. With a focus on durability, sustainability, and innovation, w...",Alsharq Factory
saudi_factories.csv,Saudi Arabia,Aluminium Manufacturing Co. Ltd,,,+966 xxxxxxxxxx,,,,,,,,,,,,,,,,,,,,Aluminium Manufacturing Co. Ltd,,Dammam,Eastern Province,ALUMACO is one of the largest and most prestigious architectural aluminum fabricators and installers in the Middle East. This achievement was made through advanced material management and technical en...,Aluminium Manufacturing Co. Ltd
saudi_factories.csv,Saudi Arabia,Alwasat Printing Company,,,+966 58 392 6917,,,,,,,,,,,,,,,,,,,,Alwasat Printing Company,,Dammam,Eastern Province,"AlWasat Printing Company is one of the pioneers in providing high quality printing services. Whether in design, accuracy or execution, the company’s strength lies in its approach that works to meet...",Alwasat Printing Company
saudi_factories.csv,Saudi Arabia,Aqua Cool Saudi Arabia,,,+966 xxxxxxxxxx,,,,,,,,,,,,,,,,,,,,Aqua Cool Saudi Arabia,,Dammam,Eastern Province,"Established in 1985, Aqua Cool is the first, and remains the longest serving, 5 gallon bottled drinking water supplier in the Kingdom of Saudi Arabia. Licensed by the Ministry of Industry and the Saud...",Aqua Cool Saudi Arabia
gcc_manufacturers.csv,Saudi Arabia,Arabian Contracting Services Co.,,,,,,,,,Riyadh,www.arabiancontracting.com,Prefabs," steel structures, construction materials,Industrial builds; 1,000 employees; MODON zones; infra projects.",,,,,,,,,,,,,,,,Arabian Contracting Services Co.
arab_manufacturers.csv;mena_manufacturers.csv,Saudi Arabia,Arabian Controls and Electrics Limited Company,Manufacturing computers, electronic and optical products,Electronics,0138101720,samer.alkurdi@abdulla-fouad.com,Dammam 3rd,,"N/A,N/A",,,,,,,,,,,,,,,,,,,,Arabian Controls and Electrics Limited Company
saudi_factories.csv,Saudi Arabia,Arabian Minerals and Chemicals Co. Ltd,,,+966 xxxxxxxxxx,,,,,,,,,,,,,,,,,,,,Arabian Minerals and Chemicals Co. Ltd,,Dammam,Eastern Province,"Arabian Minerals and Chemical Company Ltd. (AMC) is a Saudi Arabian Chemical Manufacturing Company supporting the Oil & Gas Industry for over 45 years. Established in 1976, AMC is one of the most...",Arabian Minerals and Chemicals Co. Ltd
saudi_factories.csv,Saudi Arabia,Arabian Seals Company Ltd. (ASC),,,+966 xxxxxxxxxx,,,,,,,,,,,,,,,,,,,,Arabian Seals Company Ltd. (ASC),,Dammam,Eastern Province,"The first Saudi Arabian Joint Venture company to manufacture, sell and service mechanical seals, sealing systems and other related products for the Petroleum, Petrochemical, Chemical, Power Generation...",Arabian Seals Company Ltd. (ASC)
saudi_factories.csv,Saudi Arabia,Bahra Electric,,,+966 920011127,,,,,,,,,,,,,,,,,,,,Bahra Electric,,Jeddah,Makkah,Bahra Electric was established in 2008 as Bahra Cables. Initially we focused purely on establishing our name in the Wires and Cables industry and are very proud of our achievements to have reached the...,Bahra Electric
saudi_factories.csv,Saudi Arabia,Brothers Gas Bottling and Distribution Co. LLC,,,+966 506373336,,,,,,,,,,,,,,,,,,,,Brothers Gas Bottling and Distribution Co. LLC,,Riyadh,Riyadh,Brothers Gas Bottling & Distribution Co. LLC established in 1992 as a single bottling unit providing clean & portable fuel solutions has experienced a meteoric rise to our current position as...,Brothers Gas Bottling and Distribution Co. LLC
gcc_manufacturers.csv,Saudi Arabia,Consolidated Can Manufacturing Co. Ltd.,,,,,,,,,Jeddah,www.consolidatedcan.com,Metal cans," packaging,Aerosol/beverage cans; 800 employees; sustainable aluminum; GCC exports.",,,,,,,,,,,,,,,,Consolidated Can Manufacturing Co. Ltd.
gcc_manufacturers.csv,Saudi Arabia,Crystal Arabia For Modern Industries Co. Ltd.,,,,,,,,,Riyadh,www.crystal-arabia.com,Glass products," containers, tableware,Modern glassware; 600 employees; Dammam plant; luxury focus.",,,,,,,,,,,,,,,,Crystal Arabia For Modern Industries Co. Ltd.
saudi_factories.csv,Saudi Arabia,Delmon Chemical Industries,,,+966 xxxxxxxxxx,,,,,,,,,,,,,,,,,,,,Delmon Chemical Industries,,Dammam,Eastern Province,"Delmon Chemical Industries - Specialty Chemicals Division, is a part of multi product, multi service Delmon business group. The Delmon group and Delmon Chemical Industries are hundred percent Saudi ow...",Delmon Chemical Industries
arab_manufacturers.csv;mena_manufacturers.csv,Saudi Arabia,East Treasures Factory for Industry,,,0126545666,,Jeddah 1st,,,,,,,,,,,,,,,,,,,,,,,East Treasures Factory for Industry
saudi_factories.csv,Saudi Arabia,Eastern Factory for Ready Houses,,,+966 xxxxxxxxxx,,,,,,,,,,,,,,,,,,,,Eastern Factory for Ready Houses,,Dammam,Eastern Province,"Eastern Factory for Ready Houses is one of the leading manufacturers/suppliers of Single and double Storey Prefabricated Portable Buildings in Kingdom of Saudi Arabia, Dammam. Established in 1402H (...",Eastern Factory for Ready Houses
saudi_factories.csv,Saudi Arabia,Electrical A. Modern Factory Co.,,,+966 xxxxxxxxxx,,,,,,,,,,,,,,,,,,,,Electrical A. Modern Factory Co.,,Dammam,Eastern Province,"EAMFCO is a leading manufacturer of Low Voltage Electrical Panel Board in Saudi Arabia. Our company is professionally managed with over-qualified, experienced and trained personnel, modern equipment...",Electrical A. Modern Factory Co.
saudi_factories.csv,Saudi Arabia,Electrical Industries Co.,,,+966 xxxxxxxxxx,,,,,,,,,,,,,,,,,,,,Electrical Industries Co.,,Dammam,Eastern Province,Electrical Industries Company (EIC) was established with the merging of the leading manufacturers of electrical products in pursuit of a common goal; to satisfy growing demand of electrical equipment...,Electrical Industries Co.
saudi_factories.csv,Saudi Arabia,Elopak Packaging Company LLC,,,+966 543344577,,,,,,,,,,,,,,,,,,,,Elopak Packaging Company LLC,,Dammam,Eastern Province,"Elopak is a leading global supplier of carton packaging and filling equipment. We use renewable, recyclable and sustainably sourced materials to provide innovative packaging solutions. Our iconic Pure...",Elopak Packaging Company LLC
saudi_factories.csv,Saudi Arabia,Fabco Plastic Factory,,,+966 xxxxxxxxxx,,,,,,,,,,,,,,,,,,,,Fabco Plastic Factory,,Dammam,Eastern Province,"Fabco Plastic Factory Company Ltd. was established in 1975 at 2nd industrial city of Dammam; Eastern Province, to become one of the industrial castles in KSA for manufacturing Plastic Pipes, Fittings...",Fabco Plastic Factory
saudi_factories.csv,Saudi Arabia,Glass Speacialized Industry GSI,,,+966 535005543,,,,,,,,,,,,,,,,,,,,Glass Speacialized Industry GSI,,Dammam,Eastern Province,Glass Specialized Industries (GSI) is a Glass fabrication factory with more than 30 years experience in the architecture glass sector in the area. GSI was previously known as Almadouie Aluminium and G...,Glass Speacialized Industry GSI
saudi_factories.csv,Saudi Arabia,Guardian Industries Company Limited,,,+966 xxxxxxxxxx,,,,,,,,,,,,,,,,,,,,Guardian Industries Company Limited,,Dammam,Eastern Province,"Guardian Industries Company Limited was established in 1978, a 100% Saudi company, a subsidiary of Abdul Mohsen Al Tamimi Group.",Guardian Industries Company Limited
saudi_factories.csv,Saudi Arabia,Gulf Carton Factory Co,,,+966 13 534 0500,,,,,,,,,,,,,,,,,,,,Gulf Carton Factory Co,,Al Ahsa,Eastern Province,"Gulf Carton Factory Co. was established in 1994 and belongs to one of the reputed business group from Saudi Arabia, Al Jabr Holding Company. Al Jabr Holding Co. has diverse business such as sole agenc...",Gulf Carton Factory Co
saudi_factories.csv,Saudi Arabia,Gulf Promotion Company,,,+966 xxxxxxxxxx,,,,,,,,,,,,,,,,,,,,Gulf Promotion Company,,Riyadh,Riyadh,"Gulf Promotion Signage and Advertising Co., Saudi Arabia, is a prominent signage and advertising company with a strong presence in the industry. The company has built a reputation for delivering high-...",Gulf Promotion Company
saudi_factories.csv,Saudi Arabia,Holol Pack Company,,,+966 112016528,,,,,,,,,,,,,,,,,,,,Holol Pack Company,,Riyadh,Riyadh,"Holol Pack is the first company of its kind in the Middle East, dedicated to meeting the diverse needs of customers in the packaging industry through three key approaches: ------ 1️⃣ Pre-Made Pa...",Holol Pack Company
saudi_factories.csv,Saudi Arabia,Jo Drinks Factory,,,+966 xxxxxxxxxx,,,,,,,,,,,,,,,,,,,,Jo Drinks Factory,,Dammam,Eastern Province,"At JO DRINKS, we uphold a set of core values that form the foundation of our operations and guide us in the non-alcoholic beverage industry.",Jo Drinks Factory
saudi_factories.csv,Saudi Arabia,Kadioutdoor Trading Co.,,,+966 xxxxxxxxxx,,,,,,,,,,,,,,,,,,,,Kadioutdoor Trading Co.,,Dammam,Eastern Province,Leading Experts in Camping & Outdoor Gear Across Saudi Arabia Since 1967. Kadi Out,Kadioutdoor Trading Co.
saudi_factories.csv,Saudi Arabia,MEDICAL Textile Company,,,+966 920006826,,,,,,,,,,,,,,,,,,,,MEDICAL Textile Company,,Jeddah,Makkah,"Medical Textile Our products provide high protection and great comfort. We know you rely on disposable apparel to keep your staff protected and comfortable. For this reason, we use the finest mate...",MEDICAL Textile Company
gcc_manufacturers.csv,Saudi Arabia,Maaden International Industries for Metal Co. Ltd.,,,,,,,,,Riyadh,www.maaden.com.sa,Aluminum," base metals, fertilizers,Mining/manufacturing; PIF-owned; 7K employees; Ras Al Khair smelter.",,,,,,,,,,,,,,,,Maaden International Industries for Metal Co. Ltd.
saudi_factories.csv,Saudi Arabia,Modern Saudi factory,,,+966 xxxxxxxxxx,,,,,,,,,,,,,,,,,,,,Modern Saudi factory,,Dammam,Eastern Province,"Modern Saudi Factory Equipping central kitchens, hotels, restaurants, stainless steel works, and cold and freezing rooms.",Modern Saudi factory
arab_manufacturers.csv;mena_manufacturers.csv,Saudi Arabia,Modhesh Factory for Metal Furniture Grills,Manufacturing of machinery and equipment; Manufacturing of furniture; Manufacturing of electrical equipment,Metal furniture,0114489782,info@modhish.sa,Riyadh 1st,,,,,,,,,,,,,,,,,,,,,,,Modhesh Factory for Metal Furniture Grills
saudi_factories.csv,Saudi Arabia,Momaizah Metal Fabrication Factory (MFF),,,+966 5555555555,,,,,,,,,,,,,,,,,,,,Momaizah Metal Fabrication Factory (MFF),,Dammam,Eastern Province,"Since 1983, Momaizah Metal Fabrication Factory LLC (MFF) has been a leading manufacturer in Saudi Arabia and the Gulf, of a variety of metal products, including playground equipment and laboratory fur...",Momaizah Metal Fabrication Factory (MFF)
saudi_factories.csv,Saudi Arabia,Napco National,,,+966 xxxxxxxxxx,,,,,,,,,,,,,,,,,,,,Napco National,,Dammam,Eastern Province,"Napco National employs over 5,000 people across Saudi Arabia and the rest of the GCC, and has grown into becoming a leading manufacturer of Plastic and Paper Packaging Solutions, Recycled Resins, Corr...",Napco National
gcc_manufacturers.csv,Saudi Arabia,Naqi Water Co.,,,,,,,,,Jeddah,www.naqiwater.com,Bottled water," beverages,Purified products; 500 employees; eco-bottling; serves Hajj/Umrah; Red Sea plant.",,,,,,,,,,,,,,,,Naqi Water Co.
saudi_factories.csv,Saudi Arabia,National Care Company,,,+966 xxxxxxxxxx,,,,,,,,,,,,,,,,,,,,National Care Company,,Dammam,Eastern Province,"With over 5,000 employees, National Care Company is recognized as a significant player in the manufacturing industry within Saudi Arabia. The company’s commitment to excellence is evident through th...",National Care Company
saudi_factories.csv,Saudi Arabia,National Lighting Company LTD.,,,+966 xxxxxxxxx,,,,,,,,,,,,,,,,,,,,National Lighting Company LTD.,,Dammam,Eastern Province,"25 years have been completed since National Lighting Company established, over the years the achievements follow. National lighting company has a complete range of indoor and outdoor lighting fixtures...",National Lighting Company LTD.
gcc_manufacturers.csv,Saudi Arabia,National Petrochemical Co. (Petrochem),,,,,,,,,Jubail,www.petrochem.com.sa,Aromatics," polymers, ethylene,Basic chemicals; 2,000 employees; Yanbu/Jubail facilities; global supply.",,,,,,,,,,,,,,,,National Petrochemical Co. (Petrochem)
saudi_factories.csv,Saudi Arabia,National Signage Industrial Company,,,+966 559767125,,,,,,,,,,,,,,,,,,,,National Signage Industrial Company,,Riyadh,Riyadh,"National Signboards Company for Industry was established as a leading Saudi company specialized in the design, manufacturing, and installation of all types of advertising and directional signage. With...",National Signage Industrial Company
arab_manufacturers.csv;mena_manufacturers.csv,Saudi Arabia,Noor Sar Factory for Building Chemicals,Manufacturing chemicals and chemical products,Building chemicals,0165314844,noorsar@windowslive.com,Hail,,,,,,,,,,,,,,,,,,,,,,,Noor Sar Factory for Building Chemicals
saudi_factories.csv,Saudi Arabia,Oasis Sykes Ltd,,,+966 xxxxxxxxxx,,,,,,,,,,,,,,,,,,,,Oasis Sykes Ltd,,Dammam,Eastern Province,Oasis Sykes Ltd a Saudi Arabian company headquartered in Dammam second industrial city was founded in 1396H by a successful entrepreneur in collaboration with Andrew Sykes UK. Oasis Sykes Ltd is licen...,Oasis Sykes Ltd
gcc_manufacturers.csv,Saudi Arabia,Petro Rabigh,,,,,,,,,Rabigh,www.petrorabigh.com,Refined petroleum," chemicals, polymers,$10.9B revenue; Aramco JV; 60K employees; exports globally; focus on sustainable fuels.",,,,,,,,,,,,,,,,Petro Rabigh
saudi_factories.csv,Saudi Arabia,PetroSafe Empowering Industry,,,+966 xxxxxxxxxx,,,,,,,,,,,,,,,,,,,,PetroSafe Empowering Industry,,Khobar,Eastern Province,"PetroSafe is a premier supplier of industrial and safety solutions headquartered in Al Khobar, Saudi Arabia. We specialize in providing comprehensive equipment and materials for the Oil & Gas, Pet...",PetroSafe Empowering Industry
saudi_factories.csv,Saudi Arabia,Pioneer Way Establishment,,,+966 920013559,,,,,,,,,,,,,,,,,,,,Pioneer Way Establishment,,Riyadh,Riyadh,"Telecommunications, distributing technology and information security equipment, including barcode printers, scanners, surveillance cameras, and personal digital assistants; providing software solution...",Pioneer Way Establishment
saudi_factories.csv,Saudi Arabia,Power Solution Industries,,,+966 555789764,,,,,,,,,,,,,,,,,,,,Power Solution Industries,,Riyadh,Riyadh,"Power Solution Industries founded in 2003, based in Dubai & Riyadh is an engineering manufacturing company serving the different sectors of economy in MENA region through its brand of Cable Manage...",Power Solution Industries
arab_manufacturers.csv;mena_manufacturers.csv,Saudi Arabia,Qu dra Industrial Company,Manufacturing of shaped metal products; Manufacturing of base metals; Manufacturing of electrical equipment; Manufacturing of rubber and plastic products; Manufacturing of motor vehicles, trailers and semi-trailers; Repair and installation of machinery and equipment; Manufacturing of other transport equipment,Various industrial,0112077773,faisal.benhumaid@qudra-sa.com,Riyadh 2nd,,"N/A,N/A",,,,,,,,,,,,,,,,,,,,Qu dra Industrial Company
saudi_factories.csv,Saudi Arabia,RTQ Silicone Factory,,,+966 503203416,,,,,,,,,,,,,,,,,,,,RTQ Silicone Factory,,Riyadh,Riyadh,WE ARE FIRST FACTORY FOR SILICONE SEALANT IN KINGDOM OF SAUDI ARABIA,RTQ Silicone Factory
arab_manufacturers.csv;mena_manufacturers.csv,Saudi Arabia,Raniyah Mahmoud Mohammed Al-Abi Factory for Food Products,Manufacturing food products,Food products,0112865287,rokn.alhail@gmail.com,Al-Kharj,,,,,,,,,,,,,,,,,,,,,,,Raniyah Mahmoud Mohammed Al-Abi Factory for Food Products
saudi_factories.csv,Saudi Arabia,Rema Industrial Company,,,+966 xxxxxxxxx,,,,,,,,,,,,,,,,,,,,Rema Industrial Company,,Riyadh,Riyadh,"Rema Industrial Company - From the factory to your doorstep.. Specialized in producing shopping bags, food wrapping bags, freezer bags, and food storage bags of all sizes and thicknesses.",Rema Industrial Company
saudi_factories.csv,Saudi Arabia,Riyadh Cables Group,,,+966 562233555,,,,,,,,,,,,,,,,,,,,Riyadh Cables Group,,Dammam,Eastern Province,"Riyadh Cables Group is the largest manufacturer of cables in the Middle East with manufacturing facilities that span 650,000 square meters, and 24 branches covering Saudi Arabia and beyond its borders...",Riyadh Cables Group
saudi_factories.csv,Saudi Arabia,Riyadh Ceramics,,,+966 135109090,,,,,,,,,,,,,,,,,,,,Riyadh Ceramics,,Dammam,Eastern Province,"Riyadh Ceramics is a national factory in Saudi Arabia specialized in manufacturing all kinds of porcelain and ceramic tiles. Headquartered in Dammam, Kingdom of Saudi Arabia, Riyadh Ceramics Factory h...",Riyadh Ceramics
gcc_manufacturers.csv,Saudi Arabia,Rose Aljazera Co. Ltd.,,,,,,,,,Jeddah,www.rosealjazera.com,Plastic products," packaging,Films/bags; 400 employees; Jeddah 2nd Industrial City; eco-plastics.",,,,,,,,,,,,,,,,Rose Aljazera Co. Ltd.
gcc_manufacturers.csv,Saudi Arabia,SABIC,,,,,,,,,Riyadh,www.sabic.com,Petrochemicals," plastics, fertilizers,World's 4th largest; $37B revenue; 33K employees; Vision 2030 pillar; HQ in Jubail/Yanbu.",,,,,,,,,,,,,,,,SABIC
saudi_factories.csv,Saudi Arabia,SAIPIN Company,,,+966 13 808 8887,,,,,,,,,,,,,,,,,,,,SAIPIN Company,,Dammam,Eastern Province,"Abdullah Al Saihati Factory for Plastic Industries, popularly known as SAIPIN is a manufacturing enterprise of Saihati Group of Companies established in the year 2003. The company is involved in the m...",SAIPIN Company
saudi_factories.csv,Saudi Arabia,SAUDI ROAD MARKING CO.LTD.,,,+966 xxxxxxxxxx,,,,,,,,,,,,,,,,,,,,SAUDI ROAD MARKING CO.LTD.,,Dammam,Eastern Province,"Saudi Road Marking Company was established in Dammam 1st Industrial Area in 1984 for the production of Thermoplastic Hot Melt Road Marking Paint with a capacity of 10,000 MT. enabling us to cater for...",SAUDI ROAD MARKING CO.LTD.
gcc_manufacturers.csv,Saudi Arabia,Safari Group,,,,,,,,,Riyadh,www.safari.sa,Industrial gases," steel, mining,$6.7B revenue; diversified; 10K employees; oxygen/acetylene production; industrial parks.",,,,,,,,,,,,,,,,Safari Group
saudi_factories.csv,Saudi Arabia,Safco Industrial Company,,,+966 551440123,,,,,,,,,,,,,,,,,,,,Safco Industrial Company,,Riyadh,Riyadh,"SAFCO Industrial Company is specialized in the production of liquid and powder detergents and disinfectants. Operating since 1996 in Riyadh, the company manufactures a variety of private label and thi...",Safco Industrial Company
saudi_factories.csv,Saudi Arabia,Salama Radiators,,,+966 13 847 1959,,,,,,,,,,,,,,,,,,,,Salama Radiators,,Dammam,Eastern Province,Salama Radiator Factory is among the leading and technologically advanced Saudi companies in the field of radiator and cooler manufacturing in the Middle East. The company was founded in 1977 on the v...,Salama Radiators
saudi_factories.csv,Saudi Arabia,Saudi Ceramics,,,+966 118298888,,,,,,,,,,,,,,,,,,,,Saudi Ceramics,,Riyadh,Riyadh,"Saudi Ceramics is a full solution provider that has mastered the methodology of an ancient craft. By manufacturing products from raw materials to end users for over 42 years, the company has gained an...",Saudi Ceramics
saudi_factories.csv,Saudi Arabia,Saudi Diesel Equipment,,,+966 xxxxxxxxxx,,,,,,,,,,,,,,,,,,,,Saudi Diesel Equipment,,Khobar,Eastern Province,"Established in 1978, Saudi Diesel Equipment Company (SDEC)—formerly known as Saudi Diesel Generators Company—is a key subsidiary of the Abduljawad Group of Companies. What began as a local manufac...",Saudi Diesel Equipment
gcc_manufacturers.csv,Saudi Arabia,Saudi Eco Care LLC,,,,,,,,,Dammam,www.saudiecocare.com,Water treatment equipment," filters,Industrial purification; 300 employees; green tech; serves oil/gas; Eastern Province.",,,,,,,,,,,,,,,,Saudi Eco Care LLC
saudi_factories.csv,Saudi Arabia,Saudi Factory For Drums Co. (SRCO),,,+966 554595885,,,,,,,,,,,,,,,,,,,,Saudi Factory For Drums Co. (SRCO),,Riyadh,Riyadh,"The Saudi Drum Factory (SRCO) stands as a leading industrial pioneer in the Kingdom of Saudi Arabia, specializing in the production of a diverse range of plastic and metal products. We proudly serve m...",Saudi Factory For Drums Co. (SRCO)
arab_manufacturers.csv;mena_manufacturers.csv,Saudi Arabia,Saudi Heaven Industrial Company,Manufacturing chemicals and chemical products,Chemicals,0114110924,heavenalsaudia@gmail.com,Sudair,,,,,,,,,,,,,,,,,,,,,,,Saudi Heaven Industrial Company
saudi_factories.csv,Saudi Arabia,Saudi Industrial Paint Co. Ltd,,,+966 xxxxxxxxxx,,,,,,,,,,,,,,,,,,,,Saudi Industrial Paint Co. Ltd,,Dammam,Eastern Province,"Dedicated to technical excellence, the supply of quality products and high levels of service; Saudi Industrial Paint Company Limited is one of the most prominent Saudi Arabian manufacturers. Establish...",Saudi Industrial Paint Co. Ltd
gcc_manufacturers.csv,Saudi Arabia,Saudi Kayan Petrochemical Co.,,,,,,,,,Jubail,www.saudikayan.com,Polyethylene," solvents, ethylene glycol,Chemicals; Aramco affiliate; 1,500 employees; export-oriented.",,,,,,,,,,,,,,,,Saudi Kayan Petrochemical Co.
saudi_factories.csv,Saudi Arabia,Saudi Leather Industries Company,,,+966 548956991,,,,,,,,,,,,,,,,,,,,Saudi Leather Industries Company,,Dammam,Eastern Province,"Saudi Leather Industries Company (SLIC) main productions are work, military and casual footwear. The shoes are manufactured in the company's factory located in the second industrial city of Dammam, East...",Saudi Leather Industries Company
gcc_manufacturers.csv,Saudi Arabia,Savola Group,,,,,,,,,Jeddah,www.savola.com,Edible oils," sugar, pasta,Food manufacturing; $6.9B revenue; 23K employees; brands like Afia; GCC distribution.",,,,,,,,,,,,,,,,Savola Group
saudi_factories.csv,Saudi Arabia,Shater Al Ebtekar Factory,,,+966 xxxxxxxxxx,,,,,,,,,,,,,,,,,,,,Shater Al Ebtekar Factory,,Dammam,Eastern Province,Proud to be in the Printing and Packaging Industry for 42 years. Digital Printing • Printing Food Product Boxes • Books • Paper Bags • Envelope • Commercial.,Shater Al Ebtekar Factory
saudi_factories.csv,Saudi Arabia,Sigma Paints Saudi Arabia Ltd,,,+966 xxxxxxxxxx,,,,,,,,,,,,,,,,,,,,Sigma Paints Saudi Arabia Ltd,,Dammam,Eastern Province,"PPG was founded in 1883 when Capt. John B. Ford and John Pitcairn started the first commercially successful plate glass factory in the United States at Creighton, Pa. Known as the Pittsburgh Plate Gla...",Sigma Paints Saudi Arabia Ltd
saudi_factories.csv,Saudi Arabia,Simple Solutions for Industry,,,+966 xxxxxxxxxx,,,,,,,,,,,,,,,,,,,,Simple Solutions for Industry,,Dammam,Eastern Province,"Simple Solutions Co. for Industry is 100% Saudi-owned and led organization that was established in 2008. Our business offers specialized hydraulic and pneumatic hoses, seals, O-rings, and fittings.",Simple Solutions for Industry
saudi_factories.csv,Saudi Arabia,Tabatan Factory,,,+966 554541666,,,,,,,,,,,,,,,,,,,,Tabatan Factory,,Riyadh,Riyadh,"Founded 2013, we started with digital printing, producing books, magazines, ID cards, indoor and outdoor boards. Later we started to grow into a packaging and die-making company, started Die-making fa...",Tabatan Factory
saudi_factories.csv,Saudi Arabia,Tag Labels Manufacturing L.L.C,,,+966 547829554,,,,,,,,,,,,,,,,,,,,Tag Labels Manufacturing L.L.C,,Dammam,Eastern Province,"TAG Labels Manufacturing L.L.C is a leading manufacturer and supplier of high-quality self-adhesive labels. With a commitment to excellence and innovation, we provide customized labeling solutions to...",Tag Labels Manufacturing L.L.C
saudi_factories.csv,Saudi Arabia,Tamimi Tape Manufacturing company Ltd,,,+966 504818039,,,,,,,,,,,,,,,,,,,,Tamimi Tape Manufacturing company Ltd,,Dammam,Eastern Province,"At Tamimi Tape, we provide a comprehensive range of adhesive tapes designed to meet the diverse needs of various industries. Whether you’re sealing, repairing, or crafting, our tapes offer unmatched...",Tamimi Tape Manufacturing company Ltd
saudi_factories.csv,Saudi Arabia,Tayyah Industrial Company,,,+966 xxxxxxxxxx,,,,,,,,,,,,,,,,,,,,Tayyah Industrial Company,,Dammam,Eastern Province,"Tayyah Company, established in 2023, specializes in the production of low-density polyethylene foam and adheres to universal criteria. As a 100% Saudi national industry, Tayyah utilizes raw materials...",Tayyah Industrial Company
saudi_factories.csv,Saudi Arabia,Technology Products and Services Company Co,,,+966 13 857 9794,,,,,,,,,,,,,,,,,,,,Technology Products and Services Company Co,,Dammam,Eastern Province,Technology Products and Services Company Co. (TPS) is a branch of Sariya Company Ltd and a member of the Al Kuhaimi Group of companies. TPS specializes in providing water and wastewater treatment indu...,Technology Products and Services Company Co
saudi_factories.csv,Saudi Arabia,The Four Advantages Factory,,,+966 xxxxxxxxxx,,,,,,,,,,,,,,,,,,,,The Four Advantages Factory,,Sakakah,Jouf,"The Four Advantages Factory is one of the leading manufacturers in the building materials sector, offering a wide range of high-quality products including cement blocks, volcanic blocks, conduit block...",The Four Advantages Factory
arab_manufacturers.csv;mena_manufacturers.csv,Saudi Arabia,Thiqah Wood Factory for Wood Industries,Manufacturing of wood and wood products except furniture; Manufacturing of articles of straw and plaiting materials,Wood industries,0126621800,mohamed.ragab65@gmail.com,Jeddah 3rd,,,,,,,,,,,,,,,,,,,,,,,Thiqah Wood Factory for Wood Industries
saudi_factories.csv,Saudi Arabia,Traffic Signal Factory,,,+966 xxxxxxxxxx,,,,,,,,,,,,,,,,,,,,Traffic Signal Factory,,Dammam,Eastern Province,"Traffic Signal Factory having wide experience in the field of traffic safety for 20 years. So, we’re pleased to offer full cooperation with you in relation to our developed products for traffic syste...",Traffic Signal Factory
arab_manufacturers.csv;mena_manufacturers.csv,Saudi Arabia,Transport Media Factory Company for Metallic Products,Manufacturing of shaped metal products; Manufacturing of motor vehicles, trailers and semi-trailers; Manufacturing of other transport equipment,Metallic products,0114997060,infi@wasaetalnqil.com,Riyadh 2nd,,"N/A,N/A",,,,,,,,,,,,,,,,,,,,Transport Media Factory Company for Metallic Products
saudi_factories.csv,Saudi Arabia,Wasaet Al Naqil Factory For Metal Industries,,,+966 557421769,,,,,,,,,,,,,,,,,,,,Wasaet Al Naqil Factory For Metal Industries,,Riyadh,Riyadh,WASAET ALNQIL Factory is one of the first factories in the Kingdom that contributed to finding solutions to the problems of waste containers and the visual distortion that they cause in the streets of...,Wasaet Al Naqil Factory For Metal Industries
saudi_factories.csv,Saudi Arabia,Zahid Tractor,,,+966 xxxxxxxxxx,,,,,,,,,,,,,,,,,,,,Zahid Tractor,,Riyadh,Riyadh,"Zahid Tractor Construction Machinery Division (CMD) recently marked a significant milestone, celebrating its 75th anniversary as the official Caterpillar dealer in the Kingdom of Saudi Arabia. In cele...",Zahid Tractor
saudi_factories.csv,Saudi Arabia,Zamil Plastic Industries Co.,,,+966 xxxxxxxxxx,,,,,,,,,,,,,,,,,,,,Zamil Plastic Industries Co.,,Dammam,Eastern Province,"Zamil Plastic is one of the market leaders in plastic conversion founded in 1980 under Zamil Group umbrella with a clear vision to be a pioneer in the industry by utilizing technology, innovation, and...",Zamil Plastic Industries Co.
saudi_factories.csv,Saudi Arabia,alharamain factory,,,+966 xxxxxxxxxx,,,,,,,,,,,,,,,,,,,,alharamain factory,,Al Kharj,Riyadh,It is a factory specialized in the field of uniforms. Categories: Medical uniforms. Brands: Wonderwink · Healing Hands · Hampton · Coy · Grey's Anatomy.,alharamain factory
gcc_manufacturers.csv,UAE,Agthia Group,,,,,,,,,Abu Dhabi,www.agthia.com,Bottled water (Al Ain)," juices, dairy, snacks,Food/bev portfolio; GCC reach; sustainability via recycled packaging; $1B+ revenue; partners with Yoplait/Nabil.",,,,,,,,,,,,,,,,Agthia Group
gcc_manufacturers.csv,UAE,Al Ghafia Manufacturing LLC,,,,,,,,,Dubai,www.alghafia.com,Doors," cabinets, fittings,Custom wood/metal products; interior solutions; 200+ staff; Sharjah base; exports to GCC.",,,,,,,,,,,,,,,,Al Ghafia Manufacturing LLC
gcc_manufacturers.csv,UAE,Arabian Gulf Steel,,,,,,,,,Abu Dhabi,www.arabiangulfsteel.com,Steel products (rebar," billets),Construction/infra materials; regional exports; 800 employees; focus on green steel; KIZAD zone.",,,,,,,,,,,,,,,,Arabian Gulf Steel
gcc_manufacturers.csv,UAE,Deep Sea Pipes & Fittings Trading LLC,,,,,,,,,Dubai,www.deepseapipes.com,Pipes," fittings, valves, gaskets,Oil/gas/plumbing; supplier network; 150 staff; Deira location; ISO 9001.",,,,,,,,,,,,,,,,Deep Sea Pipes & Fittings Trading LLC
gcc_manufacturers.csv,UAE,Dubai Cable Company (Ducab),,,,,,,,,Dubai,www.ducab.com,Cables," conductors, accessories,Landmark projects (Dubai Metro); JV with BICC; quality focus; 2,000+ staff; exports to GCC/Africa.",,,,,,,,,,,,,,,,Dubai Cable Company (Ducab)
gcc_manufacturers.csv,UAE,Ducab,,,,,,,,,Dubai,www.ducab.com,Copper/aluminium cables," wires, power conductors,Global energy sector supplier; founded 1979; serves projects like Burj Khalifa; ISO-certified; 1,000+ employees; Dubai Industrial City base.",,,,,,,,,,,,,,,,Ducab
gcc_manufacturers.csv,UAE,Emirates Global Aluminium (EGA),,,,,,,,,Abu Dhabi,www.ega.ae,Primary aluminium," billets, foundry alloys,Aluminium smelting giant; 2.4M tonnes/year capacity; exports to 50+ countries; sustainability focus on low-carbon production; HQ in Al Taweelah.",,,,,,,,,,,,,,,,Emirates Global Aluminium (EGA)
gcc_manufacturers.csv,UAE,Gallery Interior Decor LLC,,,,,,,,,Dubai,www.giduae.me,CNC-cut decor," carvings, engravings,Hospitality/real estate focus; UV printing; 100 employees; eco-materials; Dubai Silicon Oasis.",,,,,,,,,,,,,,,,Gallery Interior Decor LLC
gcc_manufacturers.csv,UAE,Hitachi Ltd. Middle East,,,,,,,,,Dubai,www.hitachi.ae,Industrial machinery," electronics,Power systems/automation; global tech; Middle East HQ; serves oil/gas; R&D in smart factories.",,,,,,,,,,,,,,,,Hitachi Ltd. Middle East
gcc_manufacturers.csv,UAE,Julphar,,,,,,,,,Ras Al Khaimah,www.julphar.com,Pharmaceuticals," generics, biosimilars,Leading MENA pharma; 2,500+ products; exports to 40 countries; R&D in vaccines; 3,000 employees; GMP-compliant.",,,,,,,,,,,,,,,,Julphar
gcc_manufacturers.csv,UAE,Mai Dubai,,,,,,,,,Dubai,www.maidubaiwater.com,Bottled water," beverages,Sustainable sourcing; 500ML+ employees; awards for eco-packaging; serves hotels/catering; Jebel Ali facility.",,,,,,,,,,,,,,,,Mai Dubai
gcc_manufacturers.csv,UAE,National Food Products Company (NFPC),,,,,,,,,Abu Dhabi,www.nfpcuae.com,Dairy (Milco)," water (Oasis), bakery, juices,Retail/foodservice; founded 1971; 1,500 employees; halal-certified; UAE-wide distribution.",,,,,,,,,,,,,,,,National Food Products Company (NFPC)
gcc_manufacturers.csv,UAE,Prestige Engineering Industries LLC,,,,,,,,,Sharjah,www.prestigeengg.com,Steel fabrication," pressure vessels,Oil/gas equipment; 300 employees; ASME-certified; exports to Middle East.",,,,,,,,,,,,,,,,Prestige Engineering Industries LLC
gcc_manufacturers.csv,UAE,RAK Ceramics,,,,,,,,,Ras Al Khaimah,www.rakceramics.com,Ceramic tiles," porcelain slabs, sanitaryware,Wall/floor solutions for residential/commercial; top exporter; innovation in eco-tiles; 5,000+ employees; serves hospitality sector.",,,,,,,,,,,,,,,,RAK Ceramics
gcc_manufacturers.csv,UAE,Strata Manufacturing,,,,,,,,,Al Ain,www.stratamfg.ae,Aerospace components (aircraft parts),"High-tech for Airbus/Boeing; Abu Dhabi hub; 1,000+ employees; advanced composites; part of Mubadala.",,,,,,,,,,,,,,,,Strata Manufacturing
