Source File,Country,Company Name,Sector,Product Categories,Phone,Email,Address,Certifications,Production Capacity,Other,City/Location,Website,Types of Products,Additional Information,Name,الأسم,Type,نوع التصنيف,Subtype,نوع التصنيف الفرعي,Block,X Longitude,Y Latitude,Location,Factory Name,Industry Type,City,Region,Products/Services
arab_manufacturers.csv,Saudi Arabia,Noor Sar Factory for Building Chemicals,Manufacturing chemicals and chemical products,Building chemicals,0165314844,noorsar@windowslive.com,Hail,N/A,N/A,N/A,,,,,,,,,,,,,,,,,,,
arab_manufacturers.csv,Saudi Arabia,Abdullah bin Salem bin Ayyad Al-Khattabi Factory for Industry,Manufacturing of rubber and plastic products,Rubber and plastic products,0126094111,alkhattabi_factory@hotmail.com,Jeddah 1st,N/A,N/A,N/A,,,,,,,,,,,,,,,,,,,
arab_manufacturers.csv,Saudi Arabia,Raniyah Mahmoud Mohammed Al-Abi Factory for Food Products,Manufacturing food products,Food products,0112865287,rokn.alhail@gmail.com,Al-Kharj,N/A,N/A,N/A,,,,,,,,,,,,,,,,,,,
arab_manufacturers.csv,Saudi Arabia,Al-Mumayzah Solutions Company for Chemical Industries,Manufacturing chemicals and chemical products; Manufacturing of rubber and plastic products; Manufacturing of machinery and equipment,Chemical industries,0126058546,info@usci.com.sa,Jeddah 1st,N/A,N/A,N/A,,,,,,,,,,,,,,,,,,,
arab_manufacturers.csv,Saudi Arabia,East Treasures Factory for Industry,N/A,N/A,0126545666,N/A,Jeddah 1st,N/A,N/A,N/A,,,,,,,,,,,,,,,,,,,
arab_manufacturers.csv,Saudi Arabia,Arabian Controls and Electrics Limited Company,Manufacturing computers, electronic and optical products,Electronics,0138101720,samer.alkurdi@abdulla-fouad.com,Dammam 3rd,N/A,"N/A,N/A",,,,,,,,,,,,,,,,,,,
arab_manufacturers.csv,Saudi Arabia,Transport Media Factory Company for Metallic Products,Manufacturing of shaped metal products; Manufacturing of motor vehicles, trailers and semi-trailers; Manufacturing of other transport equipment,Metallic products,0114997060,infi@wasaetalnqil.com,Riyadh 2nd,N/A,"N/A,N/A",,,,,,,,,,,,,,,,,,,
arab_manufacturers.csv,Saudi Arabia,Al-Rahden for Cleaning Company Saudi Closed Joint Stock,Other manufacturing; Manufacturing chemicals and chemical products,Cleaning products,0114543393,HR@alrahden.net,Riyadh 1st,N/A,N/A,N/A,,,,,,,,,,,,,,,,,,,
arab_manufacturers.csv,Saudi Arabia,Qu dra Industrial Company,Manufacturing of shaped metal products; Manufacturing of base metals; Manufacturing of electrical equipment; Manufacturing of rubber and plastic products; Manufacturing of motor vehicles, trailers and semi-trailers; Repair and installation of machinery and equipment; Manufacturing of other transport equipment,Various industrial,0112077773,faisal.benhumaid@qudra-sa.com,Riyadh 2nd,N/A,"N/A,N/A",,,,,,,,,,,,,,,,,,,
arab_manufacturers.csv,Saudi Arabia,Saudi Heaven Industrial Company,Manufacturing chemicals and chemical products,Chemicals,0114110924,heavenalsaudia@gmail.com,Sudair,N/A,N/A,N/A,,,,,,,,,,,,,,,,,,,
arab_manufacturers.csv,Saudi Arabia,Thiqah Wood Factory for Wood Industries,Manufacturing of wood and wood products except furniture; Manufacturing of articles of straw and plaiting materials,Wood industries,0126621800,mohamed.ragab65@gmail.com,Jeddah 3rd,N/A,N/A,N/A,,,,,,,,,,,,,,,,,,,
arab_manufacturers.csv,Saudi Arabia,Modhesh Factory for Metal Furniture Grills,Manufacturing of machinery and equipment; Manufacturing of furniture; Manufacturing of electrical equipment,Metal furniture,0114489782,info@modhish.sa,Riyadh 1st,N/A,N/A,N/A,,,,,,,,,,,,,,,,,,,
arab_manufacturers.csv,Qatar,Royal Foodz,Processed food services,Processed food,N/A,N/A,N/A,N/A,N/A,N/A,,,,,,,,,,,,,,,,,,,
arab_manufacturers.csv,Qatar,Qatari Canadian for Electrical generators and energy,Power and renewable energy,Power solutions,N/A,N/A,N/A,N/A,N/A,N/A,,,,,,,,,,,,,,,,,,,
arab_manufacturers.csv,Qatar,Twyla Recycling Company,Plastic recycling,Plastic raw material,N/A,N/A,N/A,N/A,N/A,N/A,,,,,,,,,,,,,,,,,,,
arab_manufacturers.csv,Qatar,Qatar Flour Mills Co.,Food processing,Flour and wheat-based products,N/A,N/A,N/A,N/A,N/A,N/A,,,,,,,,,,,,,,,,,,,
arab_manufacturers.csv,Qatar,National Food Company (Al arabia),Food processing,Processed frozen food,N/A,N/A,N/A,N/A,N/A,N/A,,,,,,,,,,,,,,,,,,,
arab_manufacturers.csv,Qatar,Dandy Company,Food and beverages,Dairy, beverage and ice cream products,ISO 9001:2000,N/A,N/A,N/A,N/A,,,,,,,,,,,,,,,,,,,
arab_manufacturers.csv,Qatar,Doha Cables,Electrical,Cables,BASEC, LPCB, KEMA/DNV-GL,N/A,Messaieed Industrial City,"N/A,N/A",,,,,,,,,,,,,,,,,,,
arab_manufacturers.csv,Qatar,Artikkan Gallery,Furniture and decor,Arab or Oriental influenced furniture and home-décor,N/A,N/A,Doha,N/A,N/A,N/A,,,,,,,,,,,,,,,,,,,
arab_manufacturers.csv,Qatar,AL ARZ AUTOMATIC BAKERY,Food processing,Bakery products,ISO 22000:2005, ISO 9001:2015,N/A,N/A,N/A,N/A,,,,,,,,,,,,,,,,,,,
arab_manufacturers.csv,Qatar,AL MESBAH FACTORY FOR ALUMINUM WORKS,Metal works,Aluminum works,N/A,N/A,N/A,N/A,N/A,N/A,,,,,,,,,,,,,,,,,,,
arab_manufacturers.csv,Qatar,COASTAL STEEL AND GALVANIZING WLL,Metal fabrication,Steel structures, stadium seats, bathroom partitions, lighting poles, crash barriers, cable trays,"N/A,N/A,N/A,N/A,N/A,N/A",,,,,,,,,,,,,,,,,,,
arab_manufacturers.csv,Qatar,INTERNATIONAL WELDING RODS FACTORY,Manufacturing,Welding electrodes,ISO-certified,N/A,New Industrial Area, Doha,N/A,N/A,,,,,,,,,,,,,,,,,,,
arab_manufacturers.csv,Qatar,Seashore Panels Factory (formaly Al Atti ya Steel),Construction materials,Insulated polyurethane sandwich panels, cold room panels, decking sheets, purlins, single skin sheets,N/A,"N/A,New Industrial Area, Doha,N/A,N/A",,,,,,,,,,,,,,,,,,,
arab_manufacturers.csv,Qatar,AlBINA SNACKS,Food processing,Roasted nuts,N/A,N/A,N/A,N/A,N/A,N/A,,,,,,,,,,,,,,,,,,,
arab_manufacturers.csv,Qatar,Baladna,Food and beverages,Dairy and juice products,ISO 22000:2005,N/A,Al Khor,N/A,N/A,,,,,,,,,,,,,,,,,,,,
arab_manufacturers.csv,Qatar,ADVANCED PLASTIC FACTORY,Plastics,Pipes, fittings PVC and HDPE, corrugated pipes,N/A,N/A,N/A,"N/A,N/A,N/A",,,,,,,,,,,,,,,,,,,
arab_manufacturers.csv,Qatar,EXPANDED METAL MFG. CO.,Metal products,Expanded metal products,British Standards, ASTM, ISO 9001:2015, AISI,N/A,"New Industrial Area, Doha,N/A,N/A",,,,,,,,,,,,,,,,,,,
arab_manufacturers.csv,Qatar,QATAR STEEL INDUSTRIES FACTORY,Steel products,Steel pipes, tubes, corrugated sheets, insulated panels, angles, beams," channels, flats,N/A,N/A,N/A,N/A,N/A,N/A",,,,,,,,,,,,,,,,,,,
arab_manufacturers.csv,Qatar,GULF CRAFTS,Manufacturing,Bespoke design and manufacturing,N/A,N/A,Doha,N/A,N/A,N/A,,,,,,,,,,,,,,,,,,,
arab_manufacturers.csv,Qatar,Qatari German For Medical Devices Company,Medical devices,Single-use syringes, hypodermic needles, intravenous cannulas, re-use prevention syringes, insulin syringes,N/A,"N/A,N/A,N/A,N/A,N/A",,,,,,,,,,,,,,,,,,,
arab_manufacturers.csv,Qatar,RAYYAN MINERAL WATER CO.,Beverages,Mineral water,N/A,N/A,60 kms from Doha,N/A,N/A,,,,,,,,,,,,,,,,,,,,
arab_manufacturers.csv,Qatar,QMEDIA SIGNAGE,Signage,Traffic, industrial, building name, indoor, way finding signs,N/A,"N/A,N/A,N/A,N/A,N/A",,,,,,,,,,,,,,,,,,,
arab_manufacturers.csv,Qatar,JERSEY GLASS,Glass processing,Glass processing,N/A,N/A,New Industrial Area,N/A,N/A,N/A,,,,,,,,,,,,,,,,,,,
arab_manufacturers.csv,Qatar,MODERN BUILDING ACCESSORIES FACTORY,Building materials,Plastic items for building,N/A,N/A,New Industrial Area, Doha,N/A,"N/A,N/A",,,,,,,,,,,,,,,,,,,
arab_manufacturers.csv,Qatar,AL BAYADAR PACK-QATAR,Packaging,Food packaging solutions,N/A,N/A,N/A,N/A,N/A,N/A,,,,,,,,,,,,,,,,,,,
arab_manufacturers.csv,Qatar,DOHA EXTRACO,Construction materials,GRC, GRP, UHPC, GRG, EIFS,N/A,"N/A,N/A,N/A,N/A,N/A",,,,,,,,,,,,,,,,,,,
arab_manufacturers.csv,Qatar,WEST BAY ICE AND WATER FACTORY,Beverages,Ice cubes, bottled water,N/A,N/A,N/A,N/A,"N/A,N/A",,,,,,,,,,,,,,,,,,,
arab_manufacturers.csv,Qatar,GROWTECH TRADING & INDUSTRIAL GROUP CO.,N/A,N/A,N/A,N/A,N/A,N/A,N/A,,,,,,,,,,,,,,,,,,,,
arab_manufacturers.csv,Qatar,QATAR GERMAN GASKET FACTORY (Q-GER),Manufacturing,Metallic and non-metallic gaskets,N/A,N/A,New Industrial Area, Doha,N/A,N/A,,,,,,,,,,,,,,,,,,,
arab_manufacturers.csv,Qatar,QATAR TECHNICAL STEEL FABRICATION CO.,Metal fabrication,Steel fabrication, industrial refrigeration, machining,N/A,N/A,Street 24," Zone 81, New Industrial Area,N/A,N/A",,,,,,,,,,,,,,,,,,,
arab_manufacturers.csv,Qatar,QATAR NATIONAL ALUMINIUM PANEL CO.,Metal products,Aluminium composite panels, coated aluminium coils,N/A,N/A,N/A,N/A,"N/A,N/A",,,,,,,,,,,,,,,,,,,
arab_manufacturers.csv,Qatar,METALS FORMING SUPPORT FACTORYS,Construction,Construction solutions,N/A,N/A,New Industrial Area Pink Zone,N/A,N/A,N/A,,,,,,,,,,,,,,,,,,,
arab_manufacturers.csv,Qatar,THE CONFIDENCE INDUSTRIAL GASES PLANT CO,Gases,Industrial, medical, specialty gases,N/A,N/A,N/A,"N/A,N/A,N/A",,,,,,,,,,,,,,,,,,,
arab_manufacturers.csv,Qatar,DELTA CORPORATION,Oil and gas,Wellheads, X-Mass tree equipment, valves, actuators, flow control products,N/A,"N/A,N/A,N/A,N/A,N/A",,,,,,,,,,,,,,,,,,,
arab_manufacturers.csv,Qatar,HALUL FOR BOAT MANUFACTURING,Manufacturing,Fiber glass boats, yachts, coast guard boats,N/A,N/A,New Industrial Area," Doha,N/A,N/A",,,,,,,,,,,,,,,,,,,
arab_manufacturers.csv,Qatar,AL SADA FACTORY FOR PLASTIC PIPES,Plastics,PPR pipes and fittings,N/A,N/A,Industrial Area, Doha,N/A,"N/A,N/A",,,,,,,,,,,,,,,,,,,
arab_manufacturers.csv,Qatar,AL SULAITEEN AGRICULTURE AND INDUSTRIAL COMPLEX CO,Agriculture,Flowers, fruits, vegetables, animal products,N/A,N/A,"40 hectares farms,N/A,N/A",,,,,,,,,,,,,,,,,,,
arab_manufacturers.csv,Qatar,ELITE PAPER RECYCLING,Recycling,Paper recycling,N/A,N/A,N/A,N/A,N/A,N/A,,,,,,,,,,,,,,,,,,,
arab_manufacturers.csv,Qatar,QATAR MEAT PRODUCTION,Food processing,Meat processing,N/A,N/A,6,000 sqm facility,N/A,N/A,,,,,,,,,,,,,,,,,,,
arab_manufacturers.csv,Qatar,DOHA PRECAST FACTORY,Construction materials,Reinforced concrete pipes, precast manholes, fittings,N/A,N/A,Messaieed Industrial City,"N/A,N/A",,,,,,,,,,,,,,,,,,,
arab_manufacturers.csv,Qatar,BRIGHT FUTURE TIRE RECYCLING COMPANY,Recycling,Reclaimed rubber from tyres,N/A,N/A,Umsaeed industrial area,N/A,N/A,,,,,,,,,,,,,,,,,,,,
arab_manufacturers.csv,Qatar,Asima Plastic Factory,Packaging,Packaging,N/A,N/A,N/A,N/A,N/A,N/A,,,,,,,,,,,,,,,,,,,
arab_manufacturers.csv,Qatar,SIGMA METAL INDUSTRIES,Metal products,Traffic signs, directional signs, gantries, cantilevers, variable message signs, controllers cabinets," steel structures,ISO 9001:2015, ISO 14001:2018,N/A,N/A,N/A,N/A",,,,,,,,,,,,,,,,,,,
arab_manufacturers.csv,Qatar,ALUMINUM GULF RAY (GULF RAY ALUMINUM AND GLASS),Metal products,Metal cladding, facades, doors, windows, aluminum products,N/A,"N/A,N/A,N/A,N/A,N/A",,,,,,,,,,,,,,,,,,,
arab_manufacturers.csv,Qatar,ITAG INTERNATIONAL,Oilfield equipment,Oilfield equipment,N/A,N/A,N/A,N/A,N/A,N/A,,,,,,,,,,,,,,,,,,,
arab_manufacturers.csv,Qatar,NATIONAL FOOD COMPANY W.L.L,Food processing,Processed dates,N/A,N/A,Doha,N/A,N/A,,,,,,,,,,,,,,,,,,,,
arab_manufacturers.csv,Qatar,Al crystal food oil factory,Food processing,Edible oil,N/A,N/A,New Industrial Area, Doha,N/A,N/A,,,,,,,,,,,,,,,,,,,
arab_manufacturers.csv,Qatar,ALBIDDA INDUSTRIES AND SERVICES,Electrical,Switchboard enclosures, assembly,N/A,N/A,N/A,N/A,"N/A,N/A",,,,,,,,,,,,,,,,,,,
arab_manufacturers.csv,Qatar,AL NAQEEB PLASTIC FACTORY,Plastics,Polypropylene woven bags and sacks,ISO 9001:2015, ISO 22000:2018, HACCP,N/A,N/A,"N/A,N/A",,,,,,,,,,,,,,,,,,,
arab_manufacturers.csv,Qatar,AL SADA FOOD INDUSTRY,Food industry,Factory sale, company not operational,N/A,N/A,Street 31, Zone 81," Small & Medium Industries Area,N/A,N/A",,,,,,,,,,,,,,,,,,,
arab_manufacturers.csv,Qatar,QATAR POLYMER INDUSTRIAL COMPANY,Plastics,PP woven products,HACCP, ISO 9001:2015, ISO 45001:2018,N/A,N/A,"N/A,N/A",,,,,,,,,,,,,,,,,,,
arab_manufacturers.csv,Oman,AL ASR ELECTRICAL & ELECTRONIC INDUSTRIES,Electrical,Electrical and electronic products,24446809,alasr@omantel.net.om,N/A,N/A,N/A,Contact: Gopalen 99358957; Fax: 24446809,,,,,,,,,,,,,,,,,,,
arab_manufacturers.csv,Oman,Al Hassan Switchgear Manufacturing Co. LLC (AHSG),Electrical,Switchgear,24591283,baqer.j@al-hassan.com,N/A,N/A,N/A,Contact: Bqer 95334775; Fax: 24596899,,,,,,,,,,,,,,,,,,,
arab_manufacturers.csv,Oman,AL HASSSAN POWER INDUSTRIES,Electrical,Power products,24591283,baqer.j@al-hassan.com,N/A,N/A,N/A,Contact: Bqer 95334775; Fax: 24596899,,,,,,,,,,,,,,,,,,,
arab_manufacturers.csv,Oman,AL JIZZI TRANSFORMERS & SWITCHGEAR CO.LLC,Electrical,Transformers and switchgear,24451427,ajtsoman@omantel.net.om,N/A,N/A,N/A,Contact: Srirram 99375340; Fax: 24456190,,,,,,,,,,,,,,,,,,,
arab_manufacturers.csv,Oman,AL MOHSIN ELECTRICALS,Electrical,Electrical products,24701494,allmoha@omantel.net.om,N/A,N/A,N/A,Contact: Saleem 99438409; Fax: 24706049,,,,,,,,,,,,,,,,,,,
arab_manufacturers.csv,Oman,AL SAQLAWI EST.,N/A,N/A,24813314,bisan80@omantel.net.om,N/A,N/A,N/A,Contact: Abdullah saqlawi 99383822; Fax: 24810344,,,,,,,,,,,,,,,,,,,
arab_manufacturers.csv,Oman,AL TASNEEM ELECTRICAL CONT.,Electrical,Electrical contracting,24501017,N/A,N/A,N/A,N/A,Contact: Moosa Tubaila 99366083; Fax: 24501018,,,,,,,,,,,,,,,,,,,
arab_manufacturers.csv,Oman,ELECTRO MECHANICAL SERVICES LLC,Electrical,Electro mechanical,24596686,suresh@emsswitchgear.com,N/A,N/A,N/A,Contact: Suresh 99365503; Fax: 24595585,,,,,,,,,,,,,,,,,,,
arab_manufacturers.csv,Oman,JYOTI SOHAR SWITCHGEAR,Electrical,Switchgear,26751197,jyotijss@omantel.net.om,N/A,N/A,N/A,Contact: Prabhat sherma 99445474; Fax: 26750286,,,,,,,,,,,,,,,,,,,
arab_manufacturers.csv,Oman,MAJAN SWITCHGEAR COMPANY,Electrical,Switchgear,24504235,majanmct@omantel.net.om,N/A,N/A,N/A,Contact: T.Thangamani 99226968; Fax: 24502549,,,,,,,,,,,,,,,,,,,
arab_manufacturers.csv,Oman,NATIONAL ELECTRICAL INDUSTRIES,Electrical,Electrical products,24453880,sudarsan@neioman.com,N/A,N/A,N/A,Contact: Sudarsan 95210070; Fax: 24453721,,,,,,,,,,,,,,,,,,,
arab_manufacturers.csv,Oman,NATIONAL PLASTIC FACTORY,Plastics,Plastic products,24811689,info@nationalplasticoman.com,N/A,N/A,N/A,Contact: wilfard 99840233; Fax: 24810078,,,,,,,,,,,,,,,,,,,
arab_manufacturers.csv,Oman,NATIONAL TRADING CO.,Trading,N/A,24591041,natcoed@omantel.net.om,N/A,N/A,N/A,Contact: ashok 99759012; Fax: 24591046,,,,,,,,,,,,,,,,,,,
arab_manufacturers.csv,Oman,NUHAS OMAN LLC,Manufacturing,Cables,24449007,alokbasu@nuhasoman.com,N/A,N/A,N/A,Contact: Sunil 99372917; Fax: 24446790,,,,,,,,,,,,,,,,,,,
arab_manufacturers.csv,Oman,OMAN CABLES INDUSTRY (O.C.I),Electrical,Cables,24446464,quadri@omancables.com,N/A,N/A,N/A,Contact: Saeed Qadiri 99349265; Fax: 24446096,,,,,,,,,,,,,,,,,,,
arab_manufacturers.csv,Oman,Oman National Engineering & Investement Co.,Engineering,Engineering and investment,24702075,bala.v@oneic.com.om,N/A,N/A,N/A,Contact: Bala 99217652; Fax: 24797394,,,,,,,,,,,,,,,,,,,
arab_manufacturers.csv,Oman,SHARIKAT FANNIYA OMANIA,Electrical,Electrical,24815970,sfoelect@omantel.net.om,N/A,N/A,N/A,Contact: Abijit 99363078; Fax: 248108706,,,,,,,,,,,,,,,,,,,
arab_manufacturers.csv,Oman,URICH SWITCHGEAR MANUFACTURING CO.,Electrical,Switchgear,24815597,usg_oman@yahoo.com,N/A,N/A,N/A,Contact: Prakash 99824034; Fax: 24818350,,,,,,,,,,,,,,,,,,,
arab_manufacturers.csv,Oman,VOLTAMP MANUFACTURING CO.,Manufacturing,N/A,24446372,aasit@voltampoman.com,N/A,N/A,N/A,Contact: Aaist Naik 99337423; Fax: 24446371,,,,,,,,,,,,,,,,,,,
arab_manufacturers.csv,Oman,VOLTAMP TRANSFORMERS OMAN LTD.,Electrical,Transformers,24446372,aasit@voltampoman.com,N/A,N/A,N/A,Contact: Aaist Naik 99337423; Fax: 24446371,,,,,,,,,,,,,,,,,,,
arab_manufacturers.csv,Kuwait,Ahmad Hassan Boland Sons & Partners Co.,Food and Beverages,Corn chips & snacks,(+965) 24718288 - 24739479,N/A,Sabhan – Block 1 – Street 103 – P.O. Box 20651 Safat 13067 Kuwait,N/A,N/A,Fax: (+965) 24725574,,,,,,,,,,,,,,,,,,,
arab_manufacturers.csv,Kuwait,Al-Seedawi Sweets Factories Co.,Food and Beverages,Packed roasted nuts – Arabian sweets – Candies – Halawa tahinia – Tahina (sesame juice) – Chocolate – Wafers,(+965) 24843994 - 24841551,alsedawi@qualitynet.net,Shuwaikh Industrial Area – Block 6 – Plot 70 – P.O. Box 569 Safat 13006 Kuwait,N/A,N/A,Fax: (+965) 24847488,,,,,,,,,,,,,,,,,,,
arab_manufacturers.csv,Kuwait,Arabian Beverage Company (ABC),Food and Beverages,Natural fruit juices – Yogurt & dairy products – Mineral water – Milk & flavored milk,(+965) 1802066 – 24736222,admin@abcjuice.com.kw,North Sabhan – Block 5 – Street 103 – P.O. Box 3022 Safat 13031 Kuwait,N/A,N/A,Fax: (+965) 24722793 – 24752881; Website: www.abcjuice.com.kw,,,,,,,,,,,,,,,,,,,
arab_manufacturers.csv,Kuwait,Conserved Food Distributing Co (Khazan),Food and Beverages,Chilled / frozen processed meat – Chilled / frozen processed poultry – Frozen processed sea food – Other frozen processed products – Canned food – Cake & pastries,(+965) 24722135 / 6 / 7/ 8/ 9,khazan@wazzan.com,Sabhan – Block 1 – Street 1 – P.O. Box 26226 Safat 13123 Kuwait,N/A,N/A,Fax: (+965) 24722142; Website: www.mezzan.com,,,,,,,,,,,,,,,,,,,
arab_manufacturers.csv,Kuwait,Food Industries Company (Fico),Food and Beverages,Potato chips – Corn starch snacks,(+965) 1803344 – 24742242,fico@ficofood.com,Sabhan – Block 1 – Street 11 – P.O. Box 26221 Safat 13123 Kuwait,N/A,N/A,Fax: (+965) 24730141; Website: www.ficofood.com,,,,,,,,,,,,,,,,,,,
arab_manufacturers.csv,Kuwait,Gulf Pastries Manufacturing Company,Food and Beverages,Cake – Pastries,(+965) 24745455 – 24745400,sara@wazzan.com,Sabhan – Block 10 – Street 1 – P.O. Box 3531 Safat 13036 Kuwait,N/A,N/A,Fax: (+965) 24748510; Website: www.mezzan.com,,,,,,,,,,,,,,,,,,,
arab_manufacturers.csv,Kuwait,Jercy Foodstuff Inc.,Food and Beverages,Potato chips & snacks – Popcorn – Jam – Honey – Salt – Black / white pepper – White / brown sugar,(+965) 24716402,jercyfoodstuff@hotmail.com,Sabhan – Block 1 – Street 13 – Plot 145 – P.O. Box 2508 Jahra 1027 Kuwait,N/A,N/A,Fax: (+965) 24713590; Website: www.jercycanary.com,,,,,,,,,,,,,,,,,,,
arab_manufacturers.csv,Kuwait,Kuwait Biscuit & Food Products Manufacturing Co.,Food and Beverages,Chips & snacks – Biscuits – Wafers – Sugar cubes & Icing sugar,(+965) 24745400 – 24745455,kbc@wazzan.com,Sabhan – Block 1 – Street 11 – P.O. Box 335 Hawali 32004,N/A,N/A,Fax: (+965) 24748510; Website: www.mezzan.com,,,,,,,,,,,,,,,,,,,
arab_manufacturers.csv,Kuwait,Kuwait Flour Mills & Bakeries Company,Food and Beverages,Wheat flour Biscuits – Macaroni – Vegetable oil & ghee – Arabic / European bread – Animal feed,(+965) 24841866,sales@flour-mills.com.kw,Shuwaikh – Jamal Abdul Naser Street – P.O. Box 681 Safat 13007 Kuwait,N/A,N/A,Fax: (+965) 24841590; Website: www.kuwaitflourmills.com,,,,,,,,,,,,,,,,,,,
arab_manufacturers.csv,Kuwait,Kuwait Food Company (Americana - Commercial Trading & Bakeries Division),Food and Beverages,Croissant / Mini Croissant – Mini Pate – Rusk – Bread Crumbs – Cold Sandwiches – Frozen Pastries (Puff Pastry, Sambousa) – Salads,(+965) 24735476 – 24735661,trade@americanaf.com,Sabhan – Block 1 – P.O. Box 5078 Safat 13051 Kuwait,N/A,"N/A,Fax: (+965) 24767232; Website: www.Americana-group.net",,,,,,,,,,,,,,,,,,,
arab_manufacturers.csv,Kuwait,Kuwait Protein & Fat Production Company,Food and Beverages,Animal feed (meat & bone powder) – Inedible tallow,(+965) 24672712 – 24678024,kpfpco@yahoo.com,Al-Mirqab – Abdullah Mubarak Street – Al-Niffisi Building – P.O. Box 22967 Safat 12092 Kuwait,N/A,N/A,Fax: (+965) 24678054,,,,,,,,,,,,,,,,,,,
arab_manufacturers.csv,Kuwait,Kuwait United Poultry Company,Food and Beverages,Fresh eggs – Columbus eggs – Fresh chicken – Frozen chicken,(+965) 24810033,info@kupco.net,Shuwaikh – Jamal Abdul Naser Street – P.O. Box 1236 Safat 13013 Kuwait,N/A,N/A,Fax: (+965) 24818864; Website: www.kupco.net,,,,,,,,,,,,,,,,,,,
arab_manufacturers.csv,Kuwait,Livestock Transport & Trading Co. - Meat Factory,Food and Beverages,Frozen products (mutton, beef, poultry) – Cooked products (mutton, beef, poultry) – Chilled New Zealand & Australian mutton carcasses – Frozen New Zealand mutton cuts – Chilled beef & veal cuts,(+965) 22420669 – 24676101,"sales@kltt.com.kw,Sulaibiya Agricultural Area – Block 12 – P.O. Box 23727 Safat 13098 Kuwait,N/A,N/A,Fax: (+965) 24676113; Website: www.kltt.com.kw",,,,,,,,,,,,,,,,,,,
arab_manufacturers.csv,Kuwait,Mickey Snax (Light Food Company),Food and Beverages,Natural potato chips – Snacks (processed potato),(+965) 24711531 – 24711534,contact@mickeysnax.com,Sabhan – Block 10 – Plot 58 – P.O. Box 26704 Safat 13129,N/A,N/A,Fax: (+965) 24711523,,,,,,,,,,,,,,,,,,,
arab_manufacturers.csv,Kuwait,National Canned Food Product & Trade Co (Dania),Food and Beverages,Canned meat – Canned vegetables and legumes – Vinegar – Mineral water,(+965) 24748866,national@wazzan.com,Sabhan – Block 1 – Street 3 – P.O. Box 25452 Safat 13115 Kuwait,N/A,N/A,Fax: (+965) 24722142; Website: www.daniah.com,,,,,,,,,,,,,,,,,,,
arab_manufacturers.csv,Kuwait,National Fishing Company,Food and Beverages,Fresh / frozen fish – Fresh / frozen shrimps – Processed seafood,(+965) 1807766 – 24827999,nfcinfo@nfcq8.com,Shuwaikh Industrial Area – Block A – Plot 89 – P.O. Box 27511 Safat 13136 Kuwait,N/A,N/A,Fax: (+965) 24847181; Website: www.nfcq8.com,,,,,,,,,,,,,,,,,,,
arab_manufacturers.csv,Kuwait,Petra Trading & Manufacturing Food Stuff,Food and Beverages,Dairy products – Juices – Cakes,(+965) 24733362 – 1802280,Petra@qualitynet.net,Sabhan – Block 7 – Street 103 – P.O. Box 3331 Safat 13034 Kuwait,N/A,N/A,Fax: (+965) 24745978; Website: www.Petrafood.com,,,,,,,,,,,,,,,,,,,
arab_manufacturers.csv,Kuwait,Refreshment Trading Company,Food and Beverages,Soft drinks – Mineral water – Juices,(+965) 24746888,rtccoke@kems.net,Sabhan – Block 11 – Street 1 – P.O. Box 1044 Safat 13011 Kuwait,N/A,N/A,Fax: (+965) 24741688,,,,,,,,,,,,,,,,,,,
arab_manufacturers.csv,Kuwait,Shuaiba Animal Feed Factory,Food and Beverages,All types of animal feed (both pellets and powder),(+965) 23260831,saffkwt@hotmail.com,Shuaiba Industrial Area – Block 5 – P.O. Box 2145 Safat 13075 Kuwait,N/A,N/A,Fax: (+965) 23260837 – 22446503; Website: www.mykitco.com,,,,,,,,,,,,,,,,,,,
arab_manufacturers.csv,Kuwait,The Kuwait Indo Trading Company ltd,Food and Beverages,Potato chips & snacks – Corn starch snacks,(+965) 1802345,kitco@wazaan.com,Sabhan – Block 1 – Street 11 – P.O. Box 2135 Safat 13022 Kuwait,N/A,N/A,Fax: (+965) 24764889; Website: www.mykitco.com,,,,,,,,,,,,,,,,,,,
arab_manufacturers.csv,Kuwait,The Mediator for Industries & Com. Co (Juice Factory),Food and Beverages,Juices,(+965) 24734336 – 24739670,plasticc@hotmail.com,Sabhan – Block 1 – Street 12 – P.O. Box 3802 Safat 13039 Kuwait,N/A,N/A,Fax: (+965) 24768175,,,,,,,,,,,,,,,,,,,
arab_manufacturers.csv,Kuwait,Al-Baghli Sponge Manufacturing Company,Textiles, Clothing & Leather Industries,Pillow cases & sheet sets,(+965) 24761444,sponge@albaghli.com,Sabhan – Block 2 – Street 101 – P.O. Box 29920 Safat 13160 Kuwait,N/A,"N/A,Fax: (+965) 24762999; Website: www.albaghli-sponge.net",,,,,,,,,,,,,,,,,,,
arab_manufacturers.csv,Kuwait,Burgan Shoes Manufacturing Company,Textiles, Clothing & Leather Industries,Military shoes – Safety shoes – Casual shoes,(+965) 24733228 – 24731589,q8shoes@qualitynet.net,Sabhan – Block 2 – Street 102 – P.O. Box 3063 Safat 13031 Kuwait,N/A,"N/A,Fax: (+965) 24714062",,,,,,,,,,,,,,,,,,,
arab_manufacturers.csv,Kuwait,Carpets Industry Company K.S.C.,Textiles, Clothing & Leather Industries,100 % Polyester carpets cut piles - straight and frieze yarn - 100 % PP BCF loop carpets,(+965) 24719000,info@carpetskuwait.com,Northern Sabhan – Block 6 – Street 104 - P.O. Box 929 Hawalli 32010 Kuwait,N/A,"N/A,Fax: (+965) 24763669; Website: www.carpetskuwait.com",,,,,,,,,,,,,,,,,,,
arab_manufacturers.csv,Kuwait,Gulf Leather Industries,Textiles, Clothing & Leather Industries,Shoes for men and women – Army shoes & safety shoes – Leather products (bags, wallets, belts),(+965) 24739766,gsf_kwt@yahoo.com,"Sabhan – Block 6 – Street 62 – P.O. Box 2336 Safat 13024 Kuwait,N/A,N/A,Fax: (+965) 24742046",,,,,,,,,,,,,,,,,,,
arab_manufacturers.csv,Kuwait,Gulftex Industries Co.,Textiles, Clothing & Leather Industries,Pillows & quilts - Cushions - Polyester fiber yarns,(+965) 24720874 – 24758892/ 3/4,info@gulftexindustries.com,Sabhan – Block 2 – Street 23 – P.O. Box 26532 Safat 13126 Kuwait,N/A,"N/A,Fax: (+965) 24720869 – 24758891; Website: www.gulftexindustries.com",,,,,,,,,,,,,,,,,,,
arab_manufacturers.csv,Kuwait,Kuwait Cotton Products Co. For Trade & Industry,Textiles, Clothing & Leather Industries,Pillows – Bed sheets & quilts,(+965) 24742287 – 24742288,kcpckt@kcpckt.com,Sabhan – Block 1 – Street 11 – P.O. Box 24301 Safat 13104 Kuwait,N/A,"N/A,Fax: (+965) 24742513; Website: www.kcpckt.com",,,,,,,,,,,,,,,,,,,
arab_manufacturers.csv,Kuwait,National Tannery Company,Textiles, Clothing & Leather Industries,Arabian / Australian skin – Arabian / Australian wool,(+965) 24676147 – 24676148,ntc@qualitynet.net,Sulaibiya Industrial Area – Block 1 – Street 3 – P.O. Box 1048 Safat 13011 Kuwait,N/A,"N/A,Fax: (+965) 24679777",,,,,,,,,,,,,,,,,,,
arab_manufacturers.csv,Kuwait,National Textile Company,Textiles, Clothing & Leather Industries,Towels – Polyester / cotton sheets – Table linen – Polyester Pillows – Comforters – Cotton products (Pilgrimage towels, t-shirts, ghutras),(+965) 24763311 – 24714347,alrabea@qualitynet.net,"Sabhan – Block 2 – Street 104 – P.O. Box 25186 Safat 13112 Kuwait,N/A,N/A,Fax: (+965) 24761122; Website: www.ntckuwait.com",,,,,,,,,,,,,,,,,,,
arab_manufacturers.csv,Kuwait,Al-Jeel Reprographic Industries,Paper & Wood Products,Engineering Papers – Thermal rolls,(+965) 24712918 – 24769875,Kuriakose@al-alfin.com,Sabhan – Block 2 – Plot 200 – P.O. Box 25726 Safat 13118 Kuwait,N/A,N/A,Fax: (+965) 24769876,,,,,,,,,,,,,,,,,,,
arab_manufacturers.csv,Kuwait,Alrawdah Paper & Nylon Products Plate Carton Company,Paper & Wood Products,Paper bags – Paper rolls – Paper plates – Carton products,(+965) 24710429 – 24832901 – 24740162,alrawdah_RPPC@hotmail.com,Sabhan – Block 2 – Street 21 – P.O. Box 33065 Safat 73451 Kuwait,N/A,N/A,Fax: (+965) 24740194 – 24848301; Website: www.alrawdah-co.com,,,,,,,,,,,,,,,,,,,
arab_manufacturers.csv,Kuwait,Caesar Pac Carton & Paper Products Company,Paper & Wood Products,Corrugated carton & paper products,(+965) 24610077,caesarpac@caesarsgroup.net,Kuwait Free Trade Zone - Block 2 B - Plot 5 - P.O. Box 5592 Safat 13056 Kuwait,N/A,N/A,Fax: (+965) 24610177; Website: www.caesarsgroup.net,,,,,,,,,,,,,,,,,,,
arab_manufacturers.csv,Kuwait,Hayakel Steel Industries Co.,Basic Metal Industries,Tankers (water, fuel, sewage) –Trailers & Semi Trailers – Garbage Compactors – Security Products,(+965) 1844888 – 24720088,info@hayakel.com,Sabhan – Block 3 –P.O. Box 145 Safat 13002 Kuwait,"N/A,N/A,Fax: (+965) 24749759; Website: www.hayakel.com",,,,,,,,,,,,,,,,,,,
arab_manufacturers.csv,Kuwait,Integral Services Co.,Basic Metal Industries,Heat exchangers,(+965) 23262706 / 7,iscocrop@isco.com.kw,Western Shuaiba – Block 6 – Plot 80 - P.O. Box 3683 Salmiya 22037 Kuwait,N/A,N/A,Fax: (+965) 23262717 - 23263193; Website: www.isco.com.kw,,,,,,,,,,,,,,,,,,,
arab_manufacturers.csv,Kuwait,Khalid Ali Al-Kharafi & Bros. Co. (Kharafi Steel),Basic Metal Industries,Structural steel – Pre-engineered steel buildings – Space frames – Pipes – Steel tanks – Steel doors (plain and fire rated) – Porta cabins – Aluminum composite panels – Galvanized products,(+965) 24845100 - 24873400,kaksteel@qulaitynet.net,Shuwaikh Industrial Area – Block B – Plot 100, 101, - P.O. Box 2886 Safat 13029," Kuwait,N/A,N/A,Fax: (+965) 24835501 - 24873500; Website: www.kharafisteel.net/index.htm",,,,,,,,,,,,,,,,,,,
arab_manufacturers.csv,Kuwait,Kuwait Aluminum & Brass Industries Co.,Basic Metal Industries,Aluminum housewares – Iron gas burners & other products made of iron,(+965) 24715884 – 24814419,info@kabi-kw.com,Sabhan – Block 9 – Street 102 – P.O. Box 3937 Safat 13040 Kuwait,N/A,N/A,Fax: (+965) 24840202; Website: www.kabi-kw.com,,,,,,,,,,,,,,,,,,,
arab_manufacturers.csv,Kuwait,Kuwait Aluminum Extrusion Company,Basic Metal Industries,Aluminum Extrusion – Anodizing,(+965) 24738509 – 24745434,extrusion@kalexco.com,Sabhan – Block 8 – Street 84 – Plot 208 –P.O. Box 24501 Safat 13106 Kuwait,N/A,N/A,Fax: (+965) 24710694; Website: www.kalexco.com,,,,,,,,,,,,,,,,,,,
arab_manufacturers.csv,Kuwait,Kuwait Foundry Company,Basic Metal Industries,Manhole covers - Drainage pipes & fittings - Other castings,(+965) 24766691/2/3/4,srp737@hotmail.com,Ray Industrial Area – Block 1 – Street 10 – P.O. Box 1393 Safat 13014 Kuwait,N/A,N/A,Fax: (+965) 24763033,,,,,,,,,,,,,,,,,,,
arab_manufacturers.csv,Kuwait,Kuwait Pipe Industries and Oil Services Company,Basic Metal Industries,Spirally welded carbon steel pipes,(+965) 24674843 – 24675622,kpios@kpios.com,Sulaibiya Industrial Area – Block 1 – Street 4 – P.O. Box 3416 Safat 13035 Kuwait,N/A,N/A,Fax: (+965) 24675897; Website: www.kpios.com,,,,,,,,,,,,,,,,,,,
arab_manufacturers.csv,Kuwait,Metal Products Accessories Co.,Basic Metal Industries,Beach chairs & umbrellas – Steel furniture (ladders - ironing tables - cloth dryers – cloth hangers – bases for gas cylinders and fridges),(+965) 24755292,metalproductsm@yahoo.com,Sabhan – Block 2 – Street 102 - Plot 73 - P.O. Box 99 Shamiya 71661, Kuwait,N/A,"N/A,Fax: (+965) 24755191; Website: www.mpcoj.com",,,,,,,,,,,,,,,,,,,
arab_manufacturers.csv,Kuwait,Metal Products Company,Basic Metal Industries,Galvanized Iron Profiles – Aluminum Ceiling of different Sizes,(+965) 24731287 – 24737916,mpc@kems.net,Sabhan – Block 6 – Street 62 - P.O. Box 3973 Safat 13040 Kuwait,N/A,N/A,Fax: (+965) 24737932; Website: www.mpckw.com,,,,,,,,,,,,,,,,,,,
arab_manufacturers.csv,Kuwait,New Exhibition Company,Basic Metal Industries,Electric Water Heaters – Water Cooling & Heating Equipments – Food Heating Equipment,(+965) 24822084 – 24716683,newexhib@newexhib.com,Shuwaikh – Al-Jawazat Street– P.O. Box 2383 Safat 13024 Kuwait,N/A,N/A,Fax: (+965) 24813083 – 24766993; Website: www.newexhib.com,,,,,,,,,,,,,,,,,,,
arab_manufacturers.csv,Kuwait,Refrigeration Industries and Storage Company,Basic Metal Industries,Central & Split Air-conditioning units,(+965) 1833380 - 24679732,risco@ricoolex.com,Sulaibiya – Block 1 – P.O. Box 22261 Safat 13083 Kuwait,N/A,N/A,Fax: (+965) 24673562; Website: www.riscoolex.com,,,,,,,,,,,,,,,,,,,
arab_manufacturers.csv,Kuwait,Sa’ad Murshad General Trade & Construction Establishment,Basic Metal Industries,Interior & Exterior Signs – Safety Signs – Road Markings – Metal Works,(+965) 23988171 – 23263888,mail@ smurshedest.com,West Industrial Shuaiba – Block 5 – P.O. Box 9716 Ahmadi 61008 Kuwait,N/A,N/A,Fax: (+965) 23988172 – 23263880; Website: www.smurshedest.com,,,,,,,,,,,,,,,,,,,
arab_manufacturers.csv,Kuwait,Sofan Steel and Metal Furniture Factory,Basic Metal Industries,Steel pipes – Hollow sections – Galvanized steel sheets – Corrugated sheets – Decoration steel,(+965) 24763841 / 91 - 24812337,faid@sofansteel.com,Al Rai – Block 1 – Plot 1822 - P.O. Box 42087 Shuwaikh 70651 , Kuwait,N/A,"N/A,Fax: (+965) 24763868 - 24831139; Website: www.sofansteel.com",,,,,,,,,,,,,,,,,,,
arab_manufacturers.csv,Kuwait,Specialties Expanded Metal Factory (Kumex),Basic Metal Industries,Metal Lath – Angle Beads – Brick Mesh – Plaster stop,(+965 ) 24565145/ 65,technical@aspeckuwait.com,Amghara Industrial Area – Block 4 – Plot 106 , 108 , 110 - P.O. Box 23595 Safat 13096 ," Kuwait,N/A,N/A,Fax: ( +965 ) 24565135; Website: www.kumex.net",,,,,,,,,,,,,,,,,,,
arab_manufacturers.csv,Kuwait,Steel Panel Center,Basic Metal Industries,Insulated Sandwich Panels – Corrugated & Plain Sheet Iron – Pre-Fabricated Buildings – Al,(+965) 24828200 – 24827532,nblramadan@yahoo.com,Shuwaikh Industrial Area – Mohammad Ben Al Qasim Street –P.O. Box 399 Dasman 15454 Kuwait,N/A,N/A,Fax: (+965) 24828201; Website: www.spckuwait.com,,,,,,,,,,,,,,,,,,,
arab_manufacturers.csv,Kuwait,United Steel Industrial Company,Basic Metal Industries,Reinforced steel bars,(+965) 22422200 – 22444231,commercial@unisteelkuwait.com,Shuaiba Industrial Area –Block 4 – Plot 71 – P.O. Box 1370 Safat 13014 Kuwait,N/A,N/A,Fax: (+965) 22444232; Website: www.unisteelkuwait.com,,,,,,,,,,,,,,,,,,,
arab_manufacturers.csv,Kuwait,Universal Steel Factory,Basic Metal Industries,Stainless Steel Tanks – Stainless Steel Trolleys –Stainless Steel Insulated Water Coolers – Water Heater Tanks – Stainless Steel Cooking Equipments – Stainless steel Tankers – Stainless Steel / Carbon Steel Pipes & Fittings – Stainless Steel Decoration,(+965) 22650372 / 3,universal-steel-architect@hotmail.com,West Industrial Shuaiba – Block 5 – P.O. Box 511 Surra 45706 Kuwait,N/A,N/A,Fax: (+965) 25352442,,,,,,,,,,,,,,,,,,,
arab_manufacturers.csv,Kuwait,Kuwait Cement Company,Non Metal Mining,Ordinary Portland cement – Sulphate resisting cement – Al- Ramadi (Masonry cement) – Clinker,(+965 ) 22401700 - 23261621,alcement@kuwait-cement.com,Kuwait City -Cement House -at the intersection of Al- Shuhada Street with Khaled Ibn Al-Waleed Street, Al-Sawaber Area- P.O. Box 20581 Safat 13066 Kuwait,N/A,"N/A,Fax: (+965) 22432956 - 22440896; Website: www.Kuwait-cement.com",,,,,,,,,,,,,,,,,,,
arab_manufacturers.csv,Kuwait,Metal Products Company,Non Metal Mining,Gypsum Ceiling Tiles,(+965) 24731287 – 24737916,mpc@kems.net,Sabhan – Block 6 – Street 62 - P.O. Box 3973 Safat 13040 Kuwait,N/A,N/A,Fax: (+965) 24737932; Website: www.mpckw.com,,,,,,,,,,,,,,,,,,,
arab_manufacturers.csv,Kuwait,National Industries Company for Building Materials,Non Metal Mining,Al-Abyad Blocks – Sand Lime Bricks – Interlock Tiles,(+965) 1844555 – 24837099,Sales@nicbm.com,Shuwaikh – Crossroads of Jahra Road and Airport Road – P.O. Box 3314 Safat 13034 Kuwait,N/A,N/A,Fax: (+965) 24833498; Website: www.nicbm.com,,,,,,,,,,,,,,,,,,,
arab_manufacturers.csv,Kuwait,Quality International Plant,Non Metal Mining,Concrete mix (all grades) –Swift Crete mix – Crack resisting mix – splash mix – screed mix- raw materials (washed sand and gravel of different sizes),(+965) 24580887,info@qiplant.com,Amghara Industrial Area – Block 4 – Plot 19 , 20 - P.O. Box 66678 Bayan, Kuwait,"N/A,N/A,Fax: (+965) 24560887; Website: www.qiplant.com",,,,,,,,,,,,,,,,,,,
arab_manufacturers.csv,Kuwait,Abbas Ali A-Hazeem & Partners Co. for Mattresses,Other Manufacturing Industries,Spring Mattresses – Headboards & Boxes – Bedrooms – Sofa Sets,(+965) 24731309 - 24738712,hazeem@qualitynet.com,Sabhan – Block 2- Street 21 –P.O. Box 497 Farwaniah Kuwait,N/A,N/A,Fax: (+965) 24735732,,,,,,,,,,,,,,,,,,,
arab_manufacturers.csv,Kuwait,Al-Baghli Sponge Manufacturing Company,Other Manufacturing Industries,Spring Mattresses – Polyester Pillows & Quilts,(+965 ) 24761444,sponge@albaghli.com,Sabhan – Block 2 – Street 101 – P.O. Box 29920 Safat 13160 Kuwait,N/A,N/A,Fax: (+965 ) 24762999; Website: www.albaghli-sponge.net,,,,,,,,,,,,,,,,,,,
arab_manufacturers.csv,Kuwait,Domain General Trading & Contracting Co.,Other Manufacturing Industries,Furniture & Interior Design,(+965) 24717566 - 24717552,domainkwt@yahoo.com,Sabhan – Block 6 – Street 61 – P.O. Box 3783 Hawali 32069 Kuwait,N/A,N/A,Fax: (+965) 24717498; Website: www.dominkwt.com,,,,,,,,,,,,,,,,,,,
arab_manufacturers.csv,Kuwait,Final Touches Co.,Other Manufacturing Industries,Furniture – Curtains – Accessories – Fabrics – Execution of interior designs,(+965) 24821143 - 1808899,finaltouches@usa.com,Shuwaikh –Canadadry Street –Wara Center– P.O. Box 22922 Safat 13090 Kuwait,N/A,N/A,Fax: (+965) 24822081,,,,,,,,,,,,,,,,,,,
arab_manufacturers.csv,Kuwait,Mattress & Sofa Industries Co. (Al Fares Industries),Other Manufacturing Industries,Spring & normal mattresses – Divan Base – Head boards / Feet Boards – Sofa sets,(+965 ) 24720871 / 2 / 3 / 4,info@alfaresindustries.com,Sabhan –Block 2 – Street 24 – P.O. Box 2947 Safat 13030 Kuwait,N/A,N/A,Fax: (+965 ) 24720869; Website: www.alfaresindustries.com,,,,,,,,,,,,,,,,,,,
arab_manufacturers.csv,Kuwait,Nijaracraft Furniture & joinery,Other Manufacturing Industries,Desks (conferences, reception…etc) – Wall cladding – Vanity cabinets & counters- Solid surfaces (tops, cladding …etc),(+965) 24719884,admin@nijaracraft.com,South Sabhan – Block 8 – Street 103 - P.O. Box 28903 Safat 13150 Kuwait,"N/A,N/A,Fax: (+965) 24743863",,,,,,,,,,,,,,,,,,,
gcc_manufacturers.csv,UAE,Emirates Global Aluminium (EGA),,,,,,,,,Abu Dhabi,www.ega.ae,Primary aluminium," billets, foundry alloys,Aluminium smelting giant; 2.4M tonnes/year capacity; exports to 50+ countries; sustainability focus on low-carbon production; HQ in Al Taweelah.",,,,,,,,,,,,,,,
gcc_manufacturers.csv,UAE,Ducab,,,,,,,,,Dubai,www.ducab.com,Copper/aluminium cables," wires, power conductors,Global energy sector supplier; founded 1979; serves projects like Burj Khalifa; ISO-certified; 1,000+ employees; Dubai Industrial City base.",,,,,,,,,,,,,,,
gcc_manufacturers.csv,UAE,RAK Ceramics,,,,,,,,,Ras Al Khaimah,www.rakceramics.com,Ceramic tiles," porcelain slabs, sanitaryware,Wall/floor solutions for residential/commercial; top exporter; innovation in eco-tiles; 5,000+ employees; serves hospitality sector.",,,,,,,,,,,,,,,
gcc_manufacturers.csv,UAE,Agthia Group,,,,,,,,,Abu Dhabi,www.agthia.com,Bottled water (Al Ain)," juices, dairy, snacks,Food/bev portfolio; GCC reach; sustainability via recycled packaging; $1B+ revenue; partners with Yoplait/Nabil.",,,,,,,,,,,,,,,
gcc_manufacturers.csv,UAE,Julphar,,,,,,,,,Ras Al Khaimah,www.julphar.com,Pharmaceuticals," generics, biosimilars,Leading MENA pharma; 2,500+ products; exports to 40 countries; R&D in vaccines; 3,000 employees; GMP-compliant.",,,,,,,,,,,,,,,
gcc_manufacturers.csv,UAE,Strata Manufacturing,,,,,,,,,Al Ain,www.stratamfg.ae,Aerospace components (aircraft parts),"High-tech for Airbus/Boeing; Abu Dhabi hub; 1,000+ employees; advanced composites; part of Mubadala.",,,,,,,,,,,,,,,
gcc_manufacturers.csv,UAE,Dubai Cable Company (Ducab),,,,,,,,,Dubai,www.ducab.com,Cables," conductors, accessories,Landmark projects (Dubai Metro); JV with BICC; quality focus; 2,000+ staff; exports to GCC/Africa.",,,,,,,,,,,,,,,
gcc_manufacturers.csv,UAE,National Food Products Company (NFPC),,,,,,,,,Abu Dhabi,www.nfpcuae.com,Dairy (Milco)," water (Oasis), bakery, juices,Retail/foodservice; founded 1971; 1,500 employees; halal-certified; UAE-wide distribution.",,,,,,,,,,,,,,,
gcc_manufacturers.csv,UAE,Mai Dubai,,,,,,,,,Dubai,www.maidubaiwater.com,Bottled water," beverages,Sustainable sourcing; 500ML+ employees; awards for eco-packaging; serves hotels/catering; Jebel Ali facility.",,,,,,,,,,,,,,,
gcc_manufacturers.csv,UAE,Arabian Gulf Steel,,,,,,,,,Abu Dhabi,www.arabiangulfsteel.com,Steel products (rebar," billets),Construction/infra materials; regional exports; 800 employees; focus on green steel; KIZAD zone.",,,,,,,,,,,,,,,
gcc_manufacturers.csv,UAE,Hitachi Ltd. Middle East,,,,,,,,,Dubai,www.hitachi.ae,Industrial machinery," electronics,Power systems/automation; global tech; Middle East HQ; serves oil/gas; R&D in smart factories.",,,,,,,,,,,,,,,
gcc_manufacturers.csv,UAE,Al Ghafia Manufacturing LLC,,,,,,,,,Dubai,www.alghafia.com,Doors," cabinets, fittings,Custom wood/metal products; interior solutions; 200+ staff; Sharjah base; exports to GCC.",,,,,,,,,,,,,,,
gcc_manufacturers.csv,UAE,Gallery Interior Decor LLC,,,,,,,,,Dubai,www.giduae.me,CNC-cut decor," carvings, engravings,Hospitality/real estate focus; UV printing; 100 employees; eco-materials; Dubai Silicon Oasis.",,,,,,,,,,,,,,,
gcc_manufacturers.csv,UAE,Deep Sea Pipes & Fittings Trading LLC,,,,,,,,,Dubai,www.deepseapipes.com,Pipes," fittings, valves, gaskets,Oil/gas/plumbing; supplier network; 150 staff; Deira location; ISO 9001.",,,,,,,,,,,,,,,
gcc_manufacturers.csv,UAE,Prestige Engineering Industries LLC,,,,,,,,,Sharjah,www.prestigeengg.com,Steel fabrication," pressure vessels,Oil/gas equipment; 300 employees; ASME-certified; exports to Middle East.",,,,,,,,,,,,,,,
gcc_manufacturers.csv,Saudi Arabia,SABIC,,,,,,,,,Riyadh,www.sabic.com,Petrochemicals," plastics, fertilizers,World's 4th largest; $37B revenue; 33K employees; Vision 2030 pillar; HQ in Jubail/Yanbu.",,,,,,,,,,,,,,,
gcc_manufacturers.csv,Saudi Arabia,Petro Rabigh,,,,,,,,,Rabigh,www.petrorabigh.com,Refined petroleum," chemicals, polymers,$10.9B revenue; Aramco JV; 60K employees; exports globally; focus on sustainable fuels.",,,,,,,,,,,,,,,
gcc_manufacturers.csv,Saudi Arabia,Savola Group,,,,,,,,,Jeddah,www.savola.com,Edible oils," sugar, pasta,Food manufacturing; $6.9B revenue; 23K employees; brands like Afia; GCC distribution.",,,,,,,,,,,,,,,
gcc_manufacturers.csv,Saudi Arabia,Safari Group,,,,,,,,,Riyadh,www.safari.sa,Industrial gases," steel, mining,$6.7B revenue; diversified; 10K employees; oxygen/acetylene production; industrial parks.",,,,,,,,,,,,,,,
gcc_manufacturers.csv,Saudi Arabia,Alfanar,,,,,,,,,Riyadh,www.alfanar.com,Electrical equipment," transformers, EPC,$6.6B revenue; 24K employees; exports to 100+ countries; smart grid tech.",,,,,,,,,,,,,,,
gcc_manufacturers.csv,Saudi Arabia,Almarai,,,,,,,,,Riyadh,www.almarai.com,Dairy," poultry, bakery, juices,World's largest vertically integrated dairy; $5B+ revenue; 40K employees; halal; fresh produce.",,,,,,,,,,,,,,,
gcc_manufacturers.csv,Saudi Arabia,Saudi Kayan Petrochemical Co.,,,,,,,,,Jubail,www.saudikayan.com,Polyethylene," solvents, ethylene glycol,Chemicals; Aramco affiliate; 1,500 employees; export-oriented.",,,,,,,,,,,,,,,
gcc_manufacturers.csv,Saudi Arabia,Naqi Water Co.,,,,,,,,,Jeddah,www.naqiwater.com,Bottled water," beverages,Purified products; 500 employees; eco-bottling; serves Hajj/Umrah; Red Sea plant.",,,,,,,,,,,,,,,
gcc_manufacturers.csv,Saudi Arabia,National Petrochemical Co. (Petrochem),,,,,,,,,Jubail,www.petrochem.com.sa,Aromatics," polymers, ethylene,Basic chemicals; 2,000 employees; Yanbu/Jubail facilities; global supply.",,,,,,,,,,,,,,,
gcc_manufacturers.csv,Saudi Arabia,Arabian Contracting Services Co.,,,,,,,,,Riyadh,www.arabiancontracting.com,Prefabs," steel structures, construction materials,Industrial builds; 1,000 employees; MODON zones; infra projects.",,,,,,,,,,,,,,,
gcc_manufacturers.csv,Saudi Arabia,Consolidated Can Manufacturing Co. Ltd.,,,,,,,,,Jeddah,www.consolidatedcan.com,Metal cans," packaging,Aerosol/beverage cans; 800 employees; sustainable aluminum; GCC exports.",,,,,,,,,,,,,,,
gcc_manufacturers.csv,Saudi Arabia,Crystal Arabia For Modern Industries Co. Ltd.,,,,,,,,,Riyadh,www.crystal-arabia.com,Glass products," containers, tableware,Modern glassware; 600 employees; Dammam plant; luxury focus.",,,,,,,,,,,,,,,
gcc_manufacturers.csv,Saudi Arabia,Maaden International Industries for Metal Co. Ltd.,,,,,,,,,Riyadh,www.maaden.com.sa,Aluminum," base metals, fertilizers,Mining/manufacturing; PIF-owned; 7K employees; Ras Al Khair smelter.",,,,,,,,,,,,,,,
gcc_manufacturers.csv,Saudi Arabia,Rose Aljazera Co. Ltd.,,,,,,,,,Jeddah,www.rosealjazera.com,Plastic products," packaging,Films/bags; 400 employees; Jeddah 2nd Industrial City; eco-plastics.",,,,,,,,,,,,,,,
gcc_manufacturers.csv,Saudi Arabia,Saudi Eco Care LLC,,,,,,,,,Dammam,www.saudiecocare.com,Water treatment equipment," filters,Industrial purification; 300 employees; green tech; serves oil/gas; Eastern Province.",,,,,,,,,,,,,,,
industries.csv,,,,,,,,,,,,,,,INDUSTRIAL AREAS DIRECTORATE,إدارة المناطق الصناعية,INDUSTRIES,الصناعات,INDUSTRIAL AREAS,المناطق الصناعية,951.0,50.60850115,26.07628128,"26.07628128, 50.60850115",,,,,
industries.csv,,,,,,,,,,,,,,,ALHID PORT ICE MAKING FACTORY,مصنع فرضة الحد لصناعة الثلج,INDUSTRIES,الصناعات,INDUSTRIAL COMPLEXES,المنشـآت الصناعية,101.0,50.66050769,26.24173472,"26.24173472, 50.66050769",,,,,
industries.csv,,,,,,,,,,,,,,,ARABIAN GERMAN MANUFACTURING COMPANY - AGMA,الشركة العربية الألمانية للتصنيع - أجما,INDUSTRIES,الصناعات,INDUSTRIAL COMPLEXES,المنشـآت الصناعية,115.0,50.68424057,26.21991306,"26.21991306, 50.68424057",,,,,
industries.csv,,,,,,,,,,,,,,,AMEERI INDUSTRIES - AMETECH,أميري للصناعات - أمتك,INDUSTRIES,الصناعات,INDUSTRIAL COMPLEXES,المنشـآت الصناعية,115.0,50.65991953,26.21331441,"26.21331441, 50.65991953",,,,,
industries.csv,,,,,,,,,,,,,,,TACTILE ROOFING SOLUTIONS,حلول تاكتيل روفينج,INDUSTRIES,الصناعات,INDUSTRIAL COMPLEXES,المنشـآت الصناعية,115.0,50.67153604,26.21917381,"26.21917381, 50.67153604",,,,,
industries.csv,,,,,,,,,,,,,,,THE FOOD SUPPLY COMPANY - FOOSCO,شركة التجهيزات الغذائية المحدودة - فوسكو,INDUSTRIES,الصناعات,INDUSTRIAL COMPLEXES,المنشـآت الصناعية,115.0,50.66745373,26.22181125,"26.22181125, 50.66745373",,,,,
industries.csv,,,,,,,,,,,,,,,ASGHAR ALI COMPANY,شركة أصغرعلي,INDUSTRIES,الصناعات,INDUSTRIAL COMPLEXES,المنشـآت الصناعية,115.0,50.67796487,26.21920307,"26.21920307, 50.67796487",,,,,
industries.csv,,,,,,,,,,,,,,,AWAL GULF MANUFACTURING COMPANY,شركة أوال الخليج للتصنيع,INDUSTRIES,الصناعات,INDUSTRIAL COMPLEXES,المنشـآت الصناعية,115.0,50.66924426,26.21715068,"26.21715068, 50.66924426",,,,,
industries.csv,,,,,,,,,,,,,,,PRAXAIR BAHRAIN COMPANY,شركة براكسير البحرين,INDUSTRIES,الصناعات,INDUSTRIAL COMPLEXES,المنشـآت الصناعية,115.0,50.67887533,26.20747738,"26.20747738, 50.67887533",,,,,
industries.csv,,,,,,,,,,,,,,,POLARIS INTERNATIONAL COMPANY,شركة بولاريس إنترناشيونال,INDUSTRIES,الصناعات,INDUSTRIAL COMPLEXES,المنشـآت الصناعية,115.0,50.66577966,26.21435124,"26.21435124, 50.66577966",,,,,
industries.csv,,,,,,,,,,,,,,,JBF BAHRAIN COMPANY,شركة جيه بي إف البحرين,INDUSTRIES,الصناعات,INDUSTRIAL COMPLEXES,المنشـآت الصناعية,115.0,50.67189936,26.22296778,"26.22296778, 50.67189936",,,,,
industries.csv,,,,,,,,,,,,,,,RAMEZ INDUSTRIAL COMPANY,شركة رامز الصناعية,INDUSTRIES,الصناعات,INDUSTRIAL COMPLEXES,المنشـآت الصناعية,115.0,50.66643583,26.21539945,"26.21539945, 50.66643583",,,,,
industries.csv,,,,,,,,,,,,,,,SAFEWAY GATE FOOD INDUSTRIES COMPANY,شركة سيفوي جيت للصناعات الغذائية,INDUSTRIES,الصناعات,INDUSTRIAL COMPLEXES,المنشـآت الصناعية,115.0,50.66361903,26.21431931,"26.21431931, 50.66361903",,,,,
industries.csv,,,,,,,,,,,,,,,KAVALANI AND SONS COMPANY,شركة كافالاني وأولاده,INDUSTRIES,الصناعات,INDUSTRIAL COMPLEXES,المنشـآت الصناعية,115.0,50.68354427,26.2064609,"26.2064609, 50.68354427",,,,,
industries.csv,,,,,,,,,,,,,,,CHEMCO PLASTIC BAHRAIN COMPANY,شركة كمكو بلاستيك البحرين,INDUSTRIES,الصناعات,INDUSTRIAL COMPLEXES,المنشـآت الصناعية,115.0,50.66578105,26.21386622,"26.21386622, 50.66578105",,,,,
industries.csv,,,,,,,,,,,,,,,BIN MAHMOOD AUTOMATIC BAKERIES AND CATERING FACTORY,مصانع بن محمود للمخابز الآلية والتموين,INDUSTRIES,الصناعات,INDUSTRIAL COMPLEXES,المنشـآت الصناعية,115.0,50.66439269,26.21437343,"26.21437343, 50.66439269",,,,,
industries.csv,,,,,,,,,,,,,,,MUHAMMAD ABDULAZIZ AL HALWACHI FOOD FACTORIES,مصانع محمد عبدالعزيز الحلواجي للأغذية,INDUSTRIES,الصناعات,INDUSTRIAL COMPLEXES,المنشـآت الصناعية,115.0,50.6674972,26.22127991,"26.22127991, 50.6674972",,,,,
industries.csv,,,,,,,,,,,,,,,ALMERAISI MOSAICS GLASS MANUFACTURING FACTORY,مصنع المريسي موزاييك لصناعة الزجاج المصنوع,INDUSTRIES,الصناعات,INDUSTRIAL COMPLEXES,المنشـآت الصناعية,115.0,50.66294751,26.21431842,"26.21431842, 50.66294751",,,,,
industries.csv,,,,,,,,,,,,,,,ILIUM COMPOSITES FACTORY,مصنع إيليوم,INDUSTRIES,الصناعات,INDUSTRIAL COMPLEXES,المنشـآت الصناعية,115.0,50.67868286,26.21796034,"26.21796034, 50.67868286",,,,,
industries.csv,,,,,,,,,,,,,,,BIN MAHMOOD CHOCOLATE FACTORY,مصنع بن محمود للشوكولاتة,INDUSTRIES,الصناعات,INDUSTRIAL COMPLEXES,المنشـآت الصناعية,115.0,50.66733549,26.22023169,"26.22023169, 50.66733549",,,,,
industries.csv,,,,,,,,,,,,,,,SNSI INDUSTRIES - SARENS NASS SMET,مصنع سنسي - سارينس ناس سمت,INDUSTRIES,الصناعات,INDUSTRIAL COMPLEXES,المنشـآت الصناعية,115.0,50.67411111,26.22330489,"26.22330489, 50.67411111",,,,,
industries.csv,,,,,,,,,,,,,,,UNIQUE POWER SWITCHGEARS UPS,مصنع يونيك بور سويتشجير يو بي إس,INDUSTRIES,الصناعات,INDUSTRIAL COMPLEXES,المنشـآت الصناعية,115.0,50.67237599,26.22021712,"26.22021712, 50.67237599",,,,,
industries.csv,,,,,,,,,,,,,,,MONDELEZ BAHRAIN,مونديليز البحرين,INDUSTRIES,الصناعات,INDUSTRIAL COMPLEXES,المنشـآت الصناعية,115.0,50.67234711,26.21610583,"26.21610583, 50.67234711",,,,,
industries.csv,,,,,,,,,,,,,,,EXCELLENCE INDUSTRIAL MAINTENANCE COMPANY,شركة اكسلنس للصيانة الصناعية,INDUSTRIES,الصناعات,INDUSTRIAL COMPLEXES,المنشـآت الصناعية,116.0,50.65424702,26.21554853,"26.21554853, 50.65424702",,,,,
industries.csv,,,,,,,,,,,,,,,GATES E & S BAHRAIN,شركة غيتس اي اند اس البحرين,INDUSTRIES,الصناعات,INDUSTRIAL COMPLEXES,المنشـآت الصناعية,116.0,50.654762,26.215056,"26.215056, 50.654762",,,,,
industries.csv,,,,,,,,,,,,,,,NASS MARINE SERVICES COMPANY,شركة ناس للخدمات البحرية,INDUSTRIES,الصناعات,INDUSTRIAL COMPLEXES,المنشـآت الصناعية,116.0,50.65667124,26.21366627,"26.21366627, 50.65667124",,,,,
industries.csv,,,,,,,,,,,,,,,PRECAST CONCRETE AND BUILDING BLOCKS FACTORY,مصنع الخرسانة الجاهزة وطابوق البناء,INDUSTRIES,الصناعات,INDUSTRIAL COMPLEXES,المنشـآت الصناعية,116.0,50.65785862,26.21350855,"26.21350855, 50.65785862",,,,,
industries.csv,,,,,,,,,,,,,,,MANAMA PACKAGING INDUSTRY,مصنع المنامة للتغليف,INDUSTRIES,الصناعات,INDUSTRIAL COMPLEXES,المنشـآت الصناعية,116.0,50.65561392,26.2147878,"26.2147878, 50.65561392",,,,,
industries.csv,,,,,,,,,,,,,,,ARABIAN DREDGING COMPANY,الشركة العربية لجرف الرمال,INDUSTRIES,الصناعات,INDUSTRIAL COMPLEXES,المنشـآت الصناعية,117.0,50.66559744,26.20465272,"26.20465272, 50.66559744",,,,,
industries.csv,,,,,,,,,,,,,,,KINGDOM READYMIX COMPANY,المملكة للخرسانة,INDUSTRIES,الصناعات,INDUSTRIAL COMPLEXES,المنشـآت الصناعية,117.0,50.6640238,26.20393235,"26.20393235, 50.6640238",,,,,
industries.csv,,,,,,,,,,,,,,,BAHRAIN FERRO ALLOYS - BAFA,شركة بحرين فيرو ألويس - بافا,INDUSTRIES,الصناعات,INDUSTRIAL COMPLEXES,المنشـآت الصناعية,117.0,50.6706859,26.209378,"26.209378, 50.6706859",,,,,
industries.csv,,,,,,,,,,,,,,,BAHRAIN STEEL COMPANY,شركة حديد البحرين,INDUSTRIES,الصناعات,INDUSTRIAL COMPLEXES,المنشـآت الصناعية,117.0,50.67998375,26.20155262,"26.20155262, 50.67998375",,,,,
industries.csv,,,,,,,,,,,,,,,UNIVERSAL ROLLING COMPANY – UNIROL,شركة يونيفرسال رولنج,INDUSTRIES,الصناعات,INDUSTRIAL COMPLEXES,المنشـآت الصناعية,117.0,50.66830751,26.21077942,"26.21077942, 50.66830751",,,,,
industries.csv,,,,,,,,,,,,,,,ARAB SHIPBUILDING AND REPAIR YARD - ASRY,الشركة العربية لبناء وإصلاح السفن - أسري,INDUSTRIES,الصناعات,INDUSTRIAL COMPLEXES,المنشـآت الصناعية,128.0,50.66947015,26.18630066,"26.18630066, 50.66947015",,,,,
industries.csv,,,,,,,,,,,,,,,BAHRAIN WATER BOTTLING AND BEVERAGES COMPANY,شركة البحرين لتعبئة المياه والمشروبات,INDUSTRIES,الصناعات,INDUSTRIAL COMPLEXES,المنشـآت الصناعية,236.0,50.64312307,26.27422134,"26.27422134, 50.64312307",,,,,
industries.csv,,,,,,,,,,,,,,,BAHRAIN AVIATION FUELING COMPANY - BAFCO,شركة البحرين لتزويد وقود الطائرات,INDUSTRIES,الصناعات,INDUSTRIAL COMPLEXES,المنشـآت الصناعية,241.0,50.63851048,26.25591968,"26.25591968, 50.63851048",,,,,
industries.csv,,,,,,,,,,,,,,,ALMANAMA FOOD STUFF COMPANY,مصنع المنامة للأغذية,INDUSTRIES,الصناعات,INDUSTRIAL COMPLEXES,المنشـآت الصناعية,243.0,50.64571501,26.25694366,"26.25694366, 50.64571501",,,,,
industries.csv,,,,,,,,,,,,,,,"AL BURSHAID WORKSHOP FOR ALL TYPES OF AWNINGS, WROUGHT IRON AND ALUMINUM WORKS",ورشة البورشيد لجميع أنواع المظلات والحديد المطاوع وأعمال الألمنيوم,INDUSTRIES,الصناعات,INDUSTRIAL COMPLEXES,المنشـآت الصناعية,243.0,50.64128677,50.64128677,"50.64128677, 50.64128677",,,,,
industries.csv,,,,,,,,,,,,,,,BAHRAINI AMERICAN FOR MIRROR & GLASSES,البحرينية الامريكية للزجاج والمرايا,INDUSTRIES,الصناعات,INDUSTRIAL COMPLEXES,المنشـآت الصناعية,307.0,50.57974975,26.22633015,"26.22633015, 50.57974975",,,,,
industries.csv,,,,,,,,,,,,,,,AL YOUSIF GLASS & MIRRORS COMPANY,شركة اليوسف للزجاج والمرايا,INDUSTRIES,الصناعات,INDUSTRIAL COMPLEXES,المنشـآت الصناعية,309.0,50.58012447,26.22643452,"26.22643452, 50.58012447",,,,,
industries.csv,,,,,,,,,,,,,,,AWAL PLASTICS,أوال بلاستك,INDUSTRIES,الصناعات,INDUSTRIAL COMPLEXES,المنشـآت الصناعية,312.0,50.57067894,26.22260898,"26.22260898, 50.57067894",,,,,
industries.csv,,,,,,,,,,,,,,,DELMON POULTRY COMPANY - FEEDMILL FACTORY,شركة دلمون للدواجن - مصنع العلف,INDUSTRIES,الصناعات,INDUSTRIAL COMPLEXES,المنشـآت الصناعية,342.0,50.609761,26.204235,"26.204235, 50.609761",,,,,
industries.csv,,,,,,,,,,,,,,,BAHRAIN FIBERGLASS,البحرين للفيبر جلاس,INDUSTRIES,الصناعات,INDUSTRIAL COMPLEXES,المنشـآت الصناعية,343.0,50.59546887,26.19647306,"26.19647306, 50.59546887",,,,,
industries.csv,,,,,,,,,,,,,,,GULF PLASTIC INDUSTRIES,الخليج للصناعات البلاستيكية,INDUSTRIES,الصناعات,INDUSTRIAL COMPLEXES,المنشـآت الصناعية,343.0,50.59553,26.195823,"26.195823, 50.59553",,,,,
industries.csv,,,,,,,,,,,,,,,MIDDLE EAST DETERGENT MANUFACTURE AND TRADING,الشرق الأوسط لصناعة وتجارة المنظفات,INDUSTRIES,الصناعات,INDUSTRIAL COMPLEXES,المنشـآت الصناعية,343.0,50.59464329,26.19745957,"26.19745957, 50.59464329",,,,,
industries.csv,,,,,,,,,,,,,,,AL ZAMIL NAIL AND SCREW FACTORY,مصنع الزامل للمسامير والبراغي,INDUSTRIES,الصناعات,INDUSTRIAL COMPLEXES,المنشـآت الصناعية,343.0,50.60015358,26.20027781,"26.20027781, 50.60015358",,,,,
industries.csv,,,,,,,,,,,,,,,AL MANARATAIN,المنارتين,INDUSTRIES,الصناعات,INDUSTRIAL COMPLEXES,المنشـآت الصناعية,357.0,50.54828923,26.21342459,"26.21342459, 50.54828923",,,,,
industries.csv,,,,,,,,,,,,,,,BAHRAIN NEON,نيون البحرين,INDUSTRIES,الصناعات,INDUSTRIAL COMPLEXES,المنشـآت الصناعية,363.0,50.55489751,26.20894541,"26.20894541, 50.55489751",,,,,
industries.csv,,,,,,,,,,,,,,,AL HAYKI TILES FACTORIES,مصانع الحايكي للبلاط,INDUSTRIES,الصناعات,INDUSTRIAL COMPLEXES,المنشـآت الصناعية,368.0,50.537254,26.20441666,"26.20441666, 50.537254",,,,,
industries.csv,,,,,,,,,,,,,,,AL YOUSIF GLASS & MIRRORS COMPANY,شركة اليوسف للزجاج والمرايا,INDUSTRIES,الصناعات,INDUSTRIAL COMPLEXES,المنشـآت الصناعية,419.0,50.54485989,26.21092629,"26.21092629, 50.54485989",,,,,
industries.csv,,,,,,,,,,,,,,,MUHAMMAD AL JASER FACTORY FOR POLLINATION AND HERBAL WATER,مصنع محمد الجسر لتقطير ماء اللقاح والأدوية الشعبية,INDUSTRIES,الصناعات,INDUSTRIAL COMPLEXES,المنشـآت الصناعية,432.0,50.52819753,26.22986467,"26.22986467, 50.52819753",,,,,
industries.csv,,,,,,,,,,,,,,,SUHAL ALUMINUM,ألمنيوم سهل,INDUSTRIES,الصناعات,INDUSTRIAL COMPLEXES,المنشـآت الصناعية,439.0,50.53200094,26.2029149,"26.2029149, 50.53200094",,,,,
industries.csv,,,,,,,,,,,,,,,AL KHULOOD ALUMINIUM FACTORY,مصنع الخلود للألمنيوم,INDUSTRIES,الصناعات,INDUSTRIAL COMPLEXES,المنشـآت الصناعية,441.0,50.532383,26.202599,"26.202599, 50.532383",,,,,
industries.csv,,,,,,,,,,,,,,,AL JAZEERAH ALUMINUM AND GLASS FACTORY,مصنع الجزيرة للألمنيوم والزجاج,INDUSTRIES,الصناعات,INDUSTRIAL COMPLEXES,المنشـآت الصناعية,543.0,50.45860057,26.20649232,"26.20649232, 50.45860057",,,,,
industries.csv,,,,,,,,,,,,,,,GULF SANDS COMPANY,شركة الخليج للرمال,INDUSTRIES,الصناعات,INDUSTRIAL COMPLEXES,المنشـآت الصناعية,577.0,50.46857642,26.17370188,"26.17370188, 50.46857642",,,,,
industries.csv,,,,,,,,,,,,,,,ARCHITECTURAL WROUGHT IRON SYSTEM,التشكيل المعماري للحديد المطاوع,INDUSTRIES,الصناعات,INDUSTRIAL COMPLEXES,المنشـآت الصناعية,601.0,50.60406242,26.17652074,"26.17652074, 50.60406242",,,,,
industries.csv,,,,,,,,,,,,,,,GULF ACID INDUSTRIES,الخليج لصناعة الاسيد,INDUSTRIES,الصناعات,INDUSTRIAL COMPLEXES,المنشـآت الصناعية,601.0,50.61849726,26.18421238,"26.18421238, 50.61849726",,,,,
industries.csv,,,,,,,,,,,,,,,CELSHI RUBBER & PLASTIC FACTORY,سلشي للبلاستيك والمطاط,INDUSTRIES,الصناعات,INDUSTRIAL COMPLEXES,المنشـآت الصناعية,601.0,50.61693158,26.17923324,"26.17923324, 50.61693158",,,,,
industries.csv,,,,,,,,,,,,,,,BAHRAIN PHARMACEUTICAL COMPANY,شركة البحرين الصيدلية,INDUSTRIES,الصناعات,INDUSTRIAL COMPLEXES,المنشـآت الصناعية,601.0,50.60876712,26.17804035,"26.17804035, 50.60876712",,,,,
industries.csv,,,,,,,,,,,,,,,BAHRAIN MINERAL COMPANY,شركة البحرين للمعادن,INDUSTRIES,الصناعات,INDUSTRIAL COMPLEXES,المنشـآت الصناعية,601.0,50.62100229,26.18490266,"26.18490266, 50.62100229",,,,,
industries.csv,,,,,,,,,,,,,,,AL ZEERA UNITED FACTORIES,مصانع الزيرة المتحدة,INDUSTRIES,الصناعات,INDUSTRIAL COMPLEXES,المنشـآت الصناعية,601.0,50.60946821,26.1809469,"26.1809469, 50.60946821",,,,,
industries.csv,,,,,,,,,,,,,,,BAHRAIN ESTABLISHMENT FOR ICE & WATER,مؤسسة البحرين للثلج والماء,INDUSTRIES,الصناعات,INDUSTRIAL COMPLEXES,المنشـآت الصناعية,601.0,50.60618626,26.18000722,"26.18000722, 50.60618626",,,,,
industries.csv,,,,,,,,,,,,,,,AL KHAJAH ESTABLISHMENT,مؤسسة الخاجة,INDUSTRIES,الصناعات,INDUSTRIAL COMPLEXES,المنشـآت الصناعية,601.0,50.61759887,26.18302562,"26.18302562, 50.61759887",,,,,
industries.csv,,,,,,,,,,,,,,,ASCON CONTROL COMPANY,شركة أسكون كونترول,INDUSTRIES,الصناعات,INDUSTRIAL COMPLEXES,المنشـآت الصناعية,603.0,50.61253614,26.17615131,"26.17615131, 50.61253614",,,,,
industries.csv,,,,,,,,,,,,,,,OILFIELD & TECHNICAL SUPPLIES CENTER (OTSC),شركة مركز معدات حقول النفط والأدوات الفنية,INDUSTRIES,الصناعات,INDUSTRIAL COMPLEXES,المنشـآت الصناعية,606.0,50.60534737,26.16266717,"26.16266717, 50.60534737",,,,,
industries.csv,,,,,,,,,,,,,,,AL MANARATAIN,المنارتين,INDUSTRIES,الصناعات,INDUSTRIAL COMPLEXES,المنشـآت الصناعية,625.0,50.59644583,26.14661373,"26.14661373, 50.59644583",,,,,
industries.csv,,,,,,,,,,,,,,,EBRAHIM RASHID AL JALAHMA,ابراهيم راشد الجلاهمة,INDUSTRIES,الصناعات,INDUSTRIAL COMPLEXES,المنشـآت الصناعية,634.0,50.60811477,26.13216192,"26.13216192, 50.60811477",,,,,
industries.csv,,,,,,,,,,,,,,,AMBATTUR CLOTHING INTERNATIONAL COMPANY,شركة امبتور الدولية للملابس الجاهزة,INDUSTRIES,الصناعات,INDUSTRIAL COMPLEXES,المنشـآت الصناعية,634.0,50.61066126,26.13323167,"26.13323167, 50.61066126",,,,,
industries.csv,,,,,,,,,,,,,,,AHMED RASHID AL JALAHMA & BROTHERS COMPANY,شركة أحمد راشد الجلاهمة وأخوانه,INDUSTRIES,الصناعات,INDUSTRIAL COMPLEXES,المنشـآت الصناعية,634.0,50.60896295,26.12749099,"26.12749099, 50.60896295",,,,,
industries.csv,,,,,,,,,,,,,,,BAHRAIN STEEL FACTORY,مصنع البحرين للحديد المطاوع,INDUSTRIES,الصناعات,INDUSTRIAL COMPLEXES,المنشـآت الصناعية,634.0,50.60928497,26.13187489,"26.13187489, 50.60928497",,,,,
industries.csv,,,,,,,,,,,,,,,AL ZAMIL ALUMINIUM FACTORY,مصنع الزامل للألمنيوم,INDUSTRIES,الصناعات,INDUSTRIAL COMPLEXES,المنشـآت الصناعية,634.0,50.60861939,26.12565616,"26.12565616, 50.60861939",,,,,
industries.csv,,,,,,,,,,,,,,,AL MANNAI MEATAL FABRICATION FACTORY,مصنع المناعي لتشكيل المعادن,INDUSTRIES,الصناعات,INDUSTRIAL COMPLEXES,المنشـآت الصناعية,634.0,50.60770489,26.13378822,"26.13378822, 50.60770489",,,,,
industries.csv,,,,,,,,,,,,,,,BAPCO OIL REFINERY,مصنع بابكو للتكرير,INDUSTRIES,الصناعات,INDUSTRIAL COMPLEXES,المنشـآت الصناعية,636.0,50.59991549,26.11706697,"26.11706697, 50.59991549",,,,,
industries.csv,,,,,,,,,,,,,,,BAHRAIN PIPES FACTORY,مصنع مواسير البحرين,INDUSTRIES,الصناعات,INDUSTRIAL COMPLEXES,المنشـآت الصناعية,702.0,50.53539932,26.18978845,"26.18978845, 50.53539932",,,,,
industries.csv,,,,,,,,,,,,,,,KINGDOM DETERGENTS FACTORY,مصنع المملكة للتنظيفات,INDUSTRIES,الصناعات,INDUSTRIAL COMPLEXES,المنشـآت الصناعية,704.0,50.53288509,26.18142857,"26.18142857, 50.53288509",,,,,
industries.csv,,,,,,,,,,,,,,,PERLO ALUMINUM,بيرلو ألمنيوم,INDUSTRIES,الصناعات,INDUSTRIAL COMPLEXES,المنشـآت الصناعية,711.0,50.56383657,26.20228943,"26.20228943, 50.56383657",,,,,
industries.csv,,,,,,,,,,,,,,,COCA COLA BOTTLING COMPANY,شركة تعبئة كوكا كولا,INDUSTRIES,الصناعات,INDUSTRIAL COMPLEXES,المنشـآت الصناعية,744.0,50.50737488,26.17493347,"26.17493347, 50.50737488",,,,,
industries.csv,,,,,,,,,,,,,,,AL JAZEERAH TENTS FACTORY,مصنع الجزيرة للخيام,INDUSTRIES,الصناعات,INDUSTRIAL COMPLEXES,المنشـآت الصناعية,948.0,50.59319816,26.09508046,"26.09508046, 50.59319816",,,,,
industries.csv,,,,,,,,,,,,,,,UNIVERSAL ALUMINIUM COMPANY,الشركة العالمية للألمنيوم,INDUSTRIES,الصناعات,INDUSTRIAL COMPLEXES,المنشـآت الصناعية,949.0,50.59182514,26.11712209,"26.11712209, 50.59182514",,,,,
industries.csv,,,,,,,,,,,,,,,NATIONAL STAINED GLASS,الوطنية للزجاج الملون,INDUSTRIES,الصناعات,INDUSTRIAL COMPLEXES,المنشـآت الصناعية,949.0,50.59165018,26.11755414,"26.11755414, 50.59165018",,,,,
industries.csv,,,,,,,,,,,,,,,AL MOHSEN FURNITURE FACTORY,مصنع المحسن للأثاث,INDUSTRIES,الصناعات,INDUSTRIAL COMPLEXES,المنشـآت الصناعية,949.0,50.59057955,26.11746748,"26.11746748, 50.59057955",,,,,
industries.csv,,,,,,,,,,,,,,,ALAA FOR INDUSTRY - AFI,آلاء للصناعة,INDUSTRIES,الصناعات,INDUSTRIAL COMPLEXES,المنشـآت الصناعية,951.0,50.60435441,26.07801201,"26.07801201, 50.60435441",,,,,
industries.csv,,,,,,,,,,,,,,,YATEEM OXYGEN COMPANY,شركة مصنع يتيم للأكسجين,INDUSTRIES,الصناعات,INDUSTRIAL COMPLEXES,المنشـآت الصناعية,951.0,50.60967673,26.0801098,"26.0801098, 50.60967673",,,,,
industries.csv,,,,,,,,,,,,,,,ABDULLAH AHMED NASS - IRON AND STEEL STRUCTURE,عبدالله أحمد ناس - صناعة الحديد والستيل,INDUSTRIES,الصناعات,INDUSTRIAL COMPLEXES,المنشـآت الصناعية,951.0,50.61013756,26.07920494,"26.07920494, 50.61013756",,,,,
industries.csv,,,,,,,,,,,,,,,AL HASNAA FACTORY,مصنع الحسناء,INDUSTRIES,الصناعات,INDUSTRIAL COMPLEXES,المنشـآت الصناعية,951.0,50.60992434,26.07572176,"26.07572176, 50.60992434",,,,,
industries.csv,,,,,,,,,,,,,,,AWAL FIBRE GLASS FACTORY,مصنع أوال للفيبر جلاس,INDUSTRIES,الصناعات,INDUSTRIAL COMPLEXES,المنشـآت الصناعية,951.0,50.60237277,26.0735928,"26.0735928, 50.60237277",,,,,
industries.csv,,,,,,,,,,,,,,,DELMON MARBLE CUTTING FACTORY,مصنع دلمون لتقطيع وتلميع الرخام,INDUSTRIES,الصناعات,INDUSTRIAL COMPLEXES,المنشـآت الصناعية,951.0,50.59364764,26.06969248,"26.06969248, 50.59364764",,,,,
industries.csv,,,,,,,,,,,,,,,AHMED ISA BLOCK FACTORY,مصنع أحمد عيسى للطابوق,INDUSTRIES,الصناعات,INDUSTRIAL COMPLEXES,المنشـآت الصناعية,952.0,50.62825873,26.08179943,"26.08179943, 50.62825873",,,,,
industries.csv,,,,,,,,,,,,,,,DREAM READYMIX,دريم للخرسانة المخلوطة,INDUSTRIES,الصناعات,INDUSTRIAL COMPLEXES,المنشـآت الصناعية,954.0,50.62228547,26.07528361,"26.07528361, 50.62228547",,,,,
industries.csv,,,,,,,,,,,,,,,BRAMCO,برامكو,INDUSTRIES,الصناعات,INDUSTRIAL COMPLEXES,المنشـآت الصناعية,955.0,50.58206413,26.03800139,"26.03800139, 50.58206413",,,,,
industries.csv,,,,,,,,,,,,,,,TATWEER PETROLEUM COMPANY - BAHRAIN PETROLEUM FIELD,شركة تطوير للبترول - حقل البحرين,INDUSTRIES,الصناعات,INDUSTRIAL COMPLEXES,المنشـآت الصناعية,983.0,50.55384656,26.02683635,"26.02683635, 50.55384656",,,,,
industries.csv,,,,,,,,,,,,,,,HIDD INDUSTRIAL AREA,منطقة الحد الصناعية,INDUSTRIES,الصناعات,INDUSTRIAL AREAS,المناطق الصناعية,116.0,50.65616746,26.20994364,"26.20994364, 50.65616746",,,,,
industries.csv,,,,,,,,,,,,,,,ARAD INDUSTRIAL AREA,منطقة عراد الصناعية,INDUSTRIES,الصناعات,INDUSTRIAL AREAS,المناطق الصناعية,243.0,50.64546814,26.25737253,"26.25737253, 50.64546814",,,,,
industries.csv,,,,,,,,,,,,,,,MINA SALMAN INDUSTRIAL AREA,منطقة ميناء سلمان الصناعية,INDUSTRIES,الصناعات,INDUSTRIAL AREAS,المناطق الصناعية,343.0,50.59937656,26.19755661,"26.19755661, 50.59937656",,,,,
industries.csv,,,,,,,,,,,,,,,NORTH REFINERY INDUSTRIAL AREA,منطقة مصفاة الشمال الصناعية,INDUSTRIES,الصناعات,INDUSTRIAL AREAS,المناطق الصناعية,635.0,50.59823985,26.12492793,"26.12492793, 50.59823985",,,,,
industries.csv,,,,,,,,,,,,,,,ARABIAN SUGAR COMPANY - ASC,الشركة العربية للسكر,INDUSTRIES,الصناعات,INDUSTRIAL COMPLEXES,المنشـآت الصناعية,115.0,50.68234304,26.21637391,"26.21637391, 50.68234304",,,,,
industries.csv,,,,,,,,,,,,,,,AL MASKATI BROTHERS AND COMPANY,المسقطي إخوان وشركاهم,INDUSTRIES,الصناعات,INDUSTRIAL COMPLEXES,المنشـآت الصناعية,115.0,50.66672769,26.21697324,"26.21697324, 50.66672769",,,,,
industries.csv,,,,,,,,,,,,,,,AIRTECH,إيرتك,INDUSTRIES,الصناعات,INDUSTRIAL COMPLEXES,المنشـآت الصناعية,115.0,50.66140224,26.21590428,"26.21590428, 50.66140224",,,,,
industries.csv,,,,,,,,,,,,,,,SPRUNG INSTANT STRUCTURES,سبرانغ انستنت ستراكتشرز,INDUSTRIES,الصناعات,INDUSTRIAL COMPLEXES,المنشـآت الصناعية,115.0,50.68695095,26.22233767,"26.22233767, 50.68695095",,,,,
industries.csv,,,,,,,,,,,,,,,CPIC ABAHSAIN FIBERGLASS,سي بي آي سي أباحسين فيبرجلاس,INDUSTRIES,الصناعات,INDUSTRIAL COMPLEXES,المنشـآت الصناعية,115.0,50.67876503,26.21728573,"26.21728573, 50.67876503",,,,,
industries.csv,,,,,,,,,,,,,,,GULF BIOTECH COMPANY,شركة الخليج للتقنية الحيوية,INDUSTRIES,الصناعات,INDUSTRIAL COMPLEXES,المنشـآت الصناعية,115.0,50.68046012,26.21727756,"26.21727756, 50.68046012",,,,,
industries.csv,,,,,,,,,,,,,,,AL ANZAROUTI FOOD INDUSTRY COMPANY,شركة العنزروتي للصناعات الغذائية,INDUSTRIES,الصناعات,INDUSTRIAL COMPLEXES,المنشـآت الصناعية,115.0,50.68284255,26.22296796,"26.22296796, 50.68284255",,,,,
industries.csv,,,,,,,,,,,,,,,GULF PLASTIC COMPANY,شركة بلاستيك الخليج,INDUSTRIES,الصناعات,INDUSTRIAL COMPLEXES,المنشـآت الصناعية,115.0,50.66523859,26.21384987,"26.21384987, 50.66523859",,,,,
industries.csv,,,,,,,,,,,,,,,QUALITY WIRE PRODUCTS COMPANY,شركة كوالتي واير برودكتس,INDUSTRIES,الصناعات,INDUSTRIAL COMPLEXES,المنشـآت الصناعية,115.0,50.6651565,26.21431956,"26.21431956, 50.6651565",,,,,
industries.csv,,,,,,,,,,,,,,,LAUSCHA FIBER INTERNATIONAL BAHRAIN,لوشا فيبر انترناشيونال البحرين,INDUSTRIES,الصناعات,INDUSTRIAL COMPLEXES,المنشـآت الصناعية,115.0,50.681292,26.216706,"26.216706, 50.681292",,,,,
industries.csv,,,,,,,,,,,,,,,MAK FOR FOOD INDUSTRY,ماك لصناعة المواد الغذائية,INDUSTRIES,الصناعات,INDUSTRIAL COMPLEXES,المنشـآت الصناعية,115.0,50.66713229,26.22330024,"26.22330024, 50.66713229",,,,,
industries.csv,,,,,,,,,,,,,,,RMA PIPELINE EQUIPMENT MIDDLE EAST FACTORY,مصنع ار ام ايه ميدل ايست,INDUSTRIES,الصناعات,INDUSTRIAL COMPLEXES,المنشـآت الصناعية,115.0,50.6628589,26.21388135,"26.21388135, 50.6628589",,,,,
industries.csv,,,,,,,,,,,,,,,ALAA INDUSTRIAL EQUIPMENT FACTORY - AFI,مصنع الاء للمعدات الصناعية,INDUSTRIES,الصناعات,INDUSTRIAL COMPLEXES,المنشـآت الصناعية,115.0,50.68711114,26.22233427,"26.22233427, 50.68711114",,,,,
industries.csv,,,,,,,,,,,,,,,BAHRAIN INDUSTRIAL FILTERS MFG.,مصنع البحرين للمرشحات الصناعية,INDUSTRIES,الصناعات,INDUSTRIAL COMPLEXES,المنشـآت الصناعية,115.0,50.6729663,26.22372495,"26.22372495, 50.6729663",,,,,
industries.csv,,,,,,,,,,,,,,,AL JAZEERAH ROASTERY,مصنع الجزيرة للحلويات,INDUSTRIES,الصناعات,INDUSTRIAL COMPLEXES,المنشـآت الصناعية,115.0,50.66739192,26.22261739,"26.22261739, 50.66739192",,,,,
industries.csv,,,,,,,,,,,,,,,BOX MAKERS,مصنع بوكس ميكرز,INDUSTRIES,الصناعات,INDUSTRIAL COMPLEXES,المنشـآت الصناعية,115.0,50.6621816,26.21533854,"26.21533854, 50.6621816",,,,,
industries.csv,,,,,,,,,,,,,,,DELTA CABLES FACTORY BAHRAIN,مصنع دلتا للكابلات البحرين,INDUSTRIES,الصناعات,INDUSTRIAL COMPLEXES,المنشـآت الصناعية,115.0,50.68313008,26.2224239,"26.2224239, 50.68313008",,,,,
industries.csv,,,,,,,,,,,,,,,DEVJI AURUM GOLD AND DIAMOND FACTORY,مصنع ديفجي أوروم للذهب والألماس,INDUSTRIES,الصناعات,INDUSTRIAL COMPLEXES,المنشـآت الصناعية,115.0,50.67656141,26.21921589,"26.21921589, 50.67656141",,,,,
industries.csv,,,,,,,,,,,,,,,GREEN GEOEARTH,مصنع غرين جيو إيرث,INDUSTRIES,الصناعات,INDUSTRIAL COMPLEXES,المنشـآت الصناعية,115.0,50.66873702,26.21915862,"26.21915862, 50.66873702",,,,,
industries.csv,,,,,,,,,,,,,,,GULF SHADE FACTORY,مصنع مظلات الخليج,INDUSTRIES,الصناعات,INDUSTRIAL COMPLEXES,المنشـآت الصناعية,115.0,50.66921523,26.21792888,"26.21792888, 50.66921523",,,,,
industries.csv,,,,,,,,,,,,,,,EUROTECHNOLOGY INCON,مصنع يوروتكنولوجي انكون,INDUSTRIES,الصناعات,INDUSTRIAL COMPLEXES,المنشـآت الصناعية,115.0,50.6728272,26.22022156,"26.22022156, 50.6728272",,,,,
industries.csv,,,,,,,,,,,,,,,AWAL READYMIX CONCRETE COMPANY - ARMCON,شركة أوال للخرسانة المخلوطة - أرمكون,INDUSTRIES,الصناعات,INDUSTRIAL COMPLEXES,المنشـآت الصناعية,116.0,50.66011536,26.20413241,"26.20413241, 50.66011536",,,,,
industries.csv,,,,,,,,,,,,,,,DELMON READYMIX COMPANY,شركة دلمون للخرسانة المخلوطة,INDUSTRIES,الصناعات,INDUSTRIAL COMPLEXES,المنشـآت الصناعية,116.0,50.65811198,26.21088942,"26.21088942, 50.65811198",,,,,
industries.csv,,,,,,,,,,,,,,,KINGDOM DREDGING AND SAND WASHING FACTORY,مصنع المملكة لجرف وغسل الرمال,INDUSTRIES,الصناعات,INDUSTRIAL COMPLEXES,المنشـآت الصناعية,116.0,50.65960622,26.20586423,"26.20586423, 50.65960622",,,,,
industries.csv,,,,,,,,,,,,,,,UNITED STAINLESS STEEL COMPANY - USCO,الشركة المتحدة للستانلس ستيل - أوسكو,INDUSTRIES,الصناعات,INDUSTRIAL COMPLEXES,المنشـآت الصناعية,117.0,50.677193,26.200562,"26.200562, 50.677193",,,,,
industries.csv,,,,,,,,,,,,,,,IMERYS AL ZAYANI FUSED ACOMPANY,شركة إيميرس الزياني للمعادن المدمجة,INDUSTRIES,الصناعات,INDUSTRIAL COMPLEXES,المنشـآت الصناعية,117.0,50.66819449,26.20808738,"26.20808738, 50.66819449",,,,,
industries.csv,,,,,,,,,,,,,,,EBRAHIM KHALIL KANOO,ابراهيم خليل كانو,INDUSTRIES,الصناعات,INDUSTRIAL COMPLEXES,المنشـآت الصناعية,243.0,50.64494723,26.25642061,"26.25642061, 50.64494723",,,,,
industries.csv,,,,,,,,,,,,,,,NATIONAL GLASS COMPANY,الشركه الوطنيه للزجاج المعشق,INDUSTRIES,الصناعات,INDUSTRIAL COMPLEXES,المنشـآت الصناعية,307.0,50.57982232,26.22638123,"26.22638123, 50.57982232",,,,,
industries.csv,,,,,,,,,,,,,,,BILJEEK GLASS & MIRRORS COMPANY,شركة بلجيك للزجاج والمرايا,INDUSTRIES,الصناعات,INDUSTRIAL COMPLEXES,المنشـآت الصناعية,309.0,50.58028906,26.22654462,"26.22654462, 50.58028906",,,,,
industries.csv,,,,,,,,,,,,,,,PEPSI COLA FACTORY - AHMADI INDUSTRIES,مصنع بيبسي كولا - مصنع الأحمدي,INDUSTRIES,الصناعات,INDUSTRIAL COMPLEXES,المنشـآت الصناعية,329.0,50.56994446,26.21453747,"26.21453747, 50.56994446",,,,,
industries.csv,,,,,,,,,,,,,,,THE BAHRAIN SHIP REPAIRING AND ENGINEERING COMPANY,شركة البحرين لتصليح السفن والهندسة,INDUSTRIES,الصناعات,INDUSTRIAL COMPLEXES,المنشـآت الصناعية,343.0,50.60201492,26.20103549,"26.20103549, 50.60201492",,,,,
industries.csv,,,,,,,,,,,,,,,HAJI HASAN GROUP,مجموعة حجي حسن,INDUSTRIES,الصناعات,INDUSTRIAL COMPLEXES,المنشـآت الصناعية,351.0,50.5590387,26.22611151,"26.22611151, 50.5590387",,,,,
industries.csv,,,,,,,,,,,,,,,BAHRAIN MEDICAL & INDUSTRIAL GAS PLANTS,مصانع البحرين للغازات الطبية والصناعية,INDUSTRIES,الصناعات,INDUSTRIAL COMPLEXES,المنشـآت الصناعية,413.0,50.53727513,26.20624936,"26.20624936, 50.53727513",,,,,
industries.csv,,,,,,,,,,,,,,,CAPITAL ALUMINIUM FACTORY,مصنع العاصمة للألمنيوم,INDUSTRIES,الصناعات,INDUSTRIAL COMPLEXES,المنشـآت الصناعية,439.0,50.53178241,26.20286342,"26.20286342, 50.53178241",,,,,
industries.csv,,,,,,,,,,,,,,,AWAL DAIRY COMPANY,شركة أوال للألبان,INDUSTRIES,الصناعات,INDUSTRIAL COMPLEXES,المنشـآت الصناعية,463.0,50.51241709,26.21644588,"26.21644588, 50.51241709",,,,,
industries.csv,,,,,,,,,,,,,,,AL NOOH WOODEN PRODUCTS DESIGN COMPANY,شركة آل نوح لتصميم المنتوجات الخشبيه,INDUSTRIES,الصناعات,INDUSTRIAL COMPLEXES,المنشـآت الصناعية,547.0,50.46101199,26.20042793,"26.20042793, 50.46101199",,,,,
industries.csv,,,,,,,,,,,,,,,UNITED PAPER INDUSTRIES COMPANY,الشركة المتحدة لصناعة الورق,INDUSTRIES,الصناعات,INDUSTRIAL COMPLEXES,المنشـآت الصناعية,601.0,50.61877712,26.18314974,"26.18314974, 50.61877712",,,,,
industries.csv,,,,,,,,,,,,,,,AL MASKATI BROTHERS AND COMPANY,المسقطي إخوان وشركاهم,INDUSTRIES,الصناعات,INDUSTRIAL COMPLEXES,المنشـآت الصناعية,601.0,50.61629423,26.18427822,"26.18427822, 50.61629423",,,,,
industries.csv,,,,,,,,,,,,,,,AWAL REFRIGERATION & AIR CONDITIONERS,أوال للثلاجات والمكيفات,INDUSTRIES,الصناعات,INDUSTRIAL COMPLEXES,المنشـآت الصناعية,601.0,50.6082266,26.18059789,"26.18059789, 50.6082266",,,,,
industries.csv,,,,,,,,,,,,,,,ISA MUBARAK AL KUBAISI,عيسى مبارك الكبيسي,INDUSTRIES,الصناعات,INDUSTRIAL COMPLEXES,المنشـآت الصناعية,601.0,50.60190715,26.17550696,"26.17550696, 50.60190715",,,,,
industries.csv,,,,,,,,,,,,,,,MUHAMMAD JALAL & SONS,محمد جلال واولاده,INDUSTRIES,الصناعات,INDUSTRIAL COMPLEXES,المنشـآت الصناعية,601.0,50.60910363,26.18032334,"26.18032334, 50.60910363",,,,,
industries.csv,,,,,,,,,,,,,,,GULF FIBERGLASS FACTORY,مصنع الخليج للفيبر جلاس,INDUSTRIES,الصناعات,INDUSTRIAL COMPLEXES,المنشـآت الصناعية,601.0,50.61798335,26.17822154,"26.17822154, 50.61798335",,,,,
industries.csv,,,,,,,,,,,,,,,NIDUKKI TRADING COMPANY,شركة نيدوكي التجارية,INDUSTRIES,الصناعات,INDUSTRIAL COMPLEXES,المنشـآت الصناعية,604.0,50.60257682,26.17227118,"26.17227118, 50.60257682",,,,,
industries.csv,,,,,,,,,,,,,,,GULF PETROCHEMICAL INDUSTRIES COMPANY - GPIC,شركة الخليج لصناعة البتروكيماويات,INDUSTRIES,الصناعات,INDUSTRIAL COMPLEXES,المنشـآت الصناعية,614.0,50.62918188,26.13691128,"26.13691128, 50.62918188",,,,,
industries.csv,,,,,,,,,,,,,,,EBRAHIM ABDULRAHIM FAKHRO,ابراهيم عبدالرحيم فخرو,INDUSTRIES,الصناعات,INDUSTRIAL COMPLEXES,المنشـآت الصناعية,634.0,50.6074165,26.13236119,"26.13236119, 50.6074165",,,,,
industries.csv,,,,,,,,,,,,,,,KINGDOM READYMIX COMPANY,المملكة للخرسانة,INDUSTRIES,الصناعات,INDUSTRIAL COMPLEXES,المنشـآت الصناعية,634.0,50.60746845,26.13072569,"26.13072569, 50.60746845",,,,,
industries.csv,,,,,,,,,,,,,,,P. HARIDAS SONS COMPANY,شركة بي هاريداس وأولاده,INDUSTRIES,الصناعات,INDUSTRIAL COMPLEXES,المنشـآت الصناعية,634.0,50.6069444,26.13091475,"26.13091475, 50.6069444",,,,,
industries.csv,,,,,,,,,,,,,,,BAHRAIN WORKSHOP COMPANY,شركة ورشة البحرين,INDUSTRIES,الصناعات,INDUSTRIAL COMPLEXES,المنشـآت الصناعية,634.0,50.60444858,26.13211091,"26.13211091, 50.60444858",,,,,
industries.csv,,,,,,,,,,,,,,,ABDULLAH AHMED NASS - IRON MANUFACTURE,عبدالله أحمد ناس - صناعة الحديد,INDUSTRIES,الصناعات,INDUSTRIAL COMPLEXES,المنشـآت الصناعية,634.0,50.60783878,26.13300297,"26.13300297, 50.60783878",,,,,
industries.csv,,,,,,,,,,,,,,,AL MANNAI ALUMINUM AND GLASS FACTORY,مصنع المناعي للألمنيوم والزجاج,INDUSTRIES,الصناعات,INDUSTRIAL COMPLEXES,المنشـآت الصناعية,634.0,50.61180906,26.13220865,"26.13220865, 50.61180906",,,,,
industries.csv,,,,,,,,,,,,,,,AL HAMRA ALUMINIUM FACTORY,مصنع ألمنيوم الحمراء,INDUSTRIES,الصناعات,INDUSTRIAL COMPLEXES,المنشـآت الصناعية,634.0,50.61017764,26.12835379,"26.12835379, 50.61017764",,,,,
industries.csv,,,,,,,,,,,,,,,MUHAMMAD & ABDULRAHMAN NASS FACTORY,مصنع محمد وعبدالرحمن ناس,INDUSTRIES,الصناعات,INDUSTRIAL COMPLEXES,المنشـآت الصناعية,634.0,50.61031089,26.13074845,"26.13074845, 50.61031089",,,,,
industries.csv,,,,,,,,,,,,,,,AL KHAJAH ESTABLISHMENT,مؤسسة الخاجة,INDUSTRIES,الصناعات,INDUSTRIAL COMPLEXES,المنشـآت الصناعية,634.0,50.61036623,26.13631685,"26.13631685, 50.61036623",,,,,
industries.csv,,,,,,,,,,,,,,,SAYED MAHFOODH AL AʻALI ESTABLISHMENT,مؤسسة السيد محفوظ العالي,INDUSTRIES,الصناعات,INDUSTRIAL COMPLEXES,المنشـآت الصناعية,634.0,50.61162536,26.1277899,"26.1277899, 50.61162536",,,,,
industries.csv,,,,,,,,,,,,,,,SAYED KADHIM AL DERAZI & SONS COMPANY,شركة سيد كاظم الدرازي وأولاده,INDUSTRIES,الصناعات,INDUSTRIAL COMPLEXES,المنشـآت الصناعية,646.0,50.58839055,26.13620625,"26.13620625, 50.58839055",,,,,
industries.csv,,,,,,,,,,,,,,,BAHRAIN PRECAST CONCRETE,البحرين للخرسانة الجاهزة,INDUSTRIES,الصناعات,INDUSTRIAL COMPLEXES,المنشـآت الصناعية,702.0,50.53350026,26.18964733,"26.18964733, 50.53350026",,,,,
industries.csv,,,,,,,,,,,,,,,HAJI HASAN READYMIX,حجي حسن للخرسانة المخلوطة,INDUSTRIES,الصناعات,INDUSTRIAL COMPLEXES,المنشـآت الصناعية,702.0,50.53307661,26.18964596,"26.18964596, 50.53307661",,,,,
industries.csv,,,,,,,,,,,,,,,AWAL PLASTICS,أوال بلاستك,INDUSTRIES,الصناعات,INDUSTRIAL COMPLEXES,المنشـآت الصناعية,704.0,50.53463097,26.18109521,"26.18109521, 50.53463097",,,,,
industries.csv,,,,,,,,,,,,,,,ARADOUS STEEL SHEETS FACTORY,مصنع ارادوس لصفائح الستيل,INDUSTRIES,الصناعات,INDUSTRIAL COMPLEXES,المنشـآت الصناعية,949.0,50.59012866,26.11717339,"26.11717339, 50.59012866",,,,,
industries.csv,,,,,,,,,,,,,,,YOUSIF KHALIL AL MOAYYED & SONS - WAREHOUSING,يوسف خليل المؤيد وأولاده - المخازن,INDUSTRIES,الصناعات,INDUSTRIAL COMPLEXES,المنشـآت الصناعية,949.0,50.58658795,26.11835308,"26.11835308, 50.58658795",,,,,
industries.csv,,,,,,,,,,,,,,,BAHRAIN GALVANIZING FACTORY,مصنع البحرين لجلفنة المعادن,INDUSTRIES,الصناعات,INDUSTRIAL COMPLEXES,المنشـآت الصناعية,951.0,50.59588586,26.07238395,"26.07238395, 50.59588586",,,,,
industries.csv,,,,,,,,,,,,,,,GLOBAL PLASTIC AND WATER BOTTELING,جلوبل للبلاستيك وتعبئة المياه,INDUSTRIES,الصناعات,INDUSTRIAL COMPLEXES,المنشـآت الصناعية,952.0,50.62865889,26.08120388,"26.08120388, 50.62865889",,,,,
industries.csv,,,,,,,,,,,,,,,AHMED MANSOOR AL AʻALI COMPANY,شركة أحمد منصور العالي,INDUSTRIES,الصناعات,INDUSTRIAL COMPLEXES,المنشـآت الصناعية,952.0,50.61473319,26.08149574,"26.08149574, 50.61473319",,,,,
industries.csv,,,,,,,,,,,,,,,SEA EAGLE MARINE SERVICES,شركة نسور البحر للخدمات البحرية,INDUSTRIES,الصناعات,INDUSTRIAL COMPLEXES,المنشـآت الصناعية,952.0,50.62862919,26.08054531,"26.08054531, 50.62862919",,,,,
industries.csv,,,,,,,,,,,,,,,ALERADAH CHEMICAL SALES ESTABLISHMENT,مؤسسة الارادة لبيع المواد الكيماوية,INDUSTRIES,الصناعات,INDUSTRIAL COMPLEXES,المنشـآت الصناعية,952.0,50.62821805,26.07780591,"26.07780591, 50.62821805",,,,,
industries.csv,,,,,,,,,,,,,,,AHMED MANSOOR AL AʻALI - ROCK CRUSHER,أحمد منصور العالي - الكسارة,INDUSTRIES,الصناعات,INDUSTRIAL COMPLEXES,المنشـآت الصناعية,955.0,50.58824299,26.04872576,"26.04872576, 50.58824299",,,,,
industries.csv,,,,,,,,,,,,,,,HASAN AL AʻALI,حسن العالي,INDUSTRIES,الصناعات,INDUSTRIAL COMPLEXES,المنشـآت الصناعية,955.0,50.59046929,26.04126298,"26.04126298, 50.59046929",,,,,
industries.csv,,,,,,,,,,,,,,,UNITED GULF ASPHALT COMPANY,شركة الخليج المتحدة للاسفلت,INDUSTRIES,الصناعات,INDUSTRIAL COMPLEXES,المنشـآت الصناعية,959.0,50.58927522,26.02681185,"26.02681185, 50.58927522",,,,,
industries.csv,,,,,,,,,,,,,,,TATWEER PETROLEUM COMPANY,شركة تطوير للبترول,INDUSTRIES,الصناعات,INDUSTRIAL COMPLEXES,المنشـآت الصناعية,981.0,50.57407566,26.07376442,"26.07376442, 50.57407566",,,,,
industries.csv,,,,,,,,,,,,,,,ZARWAN FIBRE GLASS FACTORY,مصنع زروان للفيبر جلاس,INDUSTRIES,الصناعات,INDUSTRIAL COMPLEXES,المنشـآت الصناعية,1012.0,50.48408495,26.13518161,"26.13518161, 50.48408495",,,,,
industries.csv,,,,,,,,,,,,,,,NORTH SITRA INDUSTRIAL AREA,منطقة سترة الشمالية الصناعية,INDUSTRIES,الصناعات,INDUSTRIAL AREAS,المناطق الصناعية,601.0,50.61168844,26.17965517,"26.17965517, 50.61168844",,,,,
industries.csv,,,,,,,,,,,,,,,AL MAʻAMEER INDUSTRIAL AREA,منطقة المعامير الصناعية,INDUSTRIES,الصناعات,INDUSTRIAL AREAS,المناطق الصناعية,634.0,50.6082129,26.13061053,"26.13061053, 50.6082129",,,,,
industries.csv,,,,,,,,,,,,,,,ALBA INDUSTRIAL AREA,منطقة ألبا الصناعية,INDUSTRIES,الصناعات,INDUSTRIAL AREAS,المناطق الصناعية,951.0,50.6074348,26.07579511,"26.07579511, 50.6074348",,,,,
industries.csv,,,,,,,,,,,,,,,AL EZZEL OPERATION & MAINTENANCE COMPANY,الايزل للطاقة والغاز,INDUSTRIES,الصناعات,INDUSTRIAL COMPLEXES,المنشـآت الصناعية,115.0,50.66108164,26.21647426,"26.21647426, 50.66108164",,,,,
industries.csv,,,,,,,,,,,,,,,UNIVERSAL ELECTRO ENGINEERING - UNEECO,العالمية للهندسة الكهربائية,INDUSTRIES,الصناعات,INDUSTRIAL COMPLEXES,المنشـآت الصناعية,115.0,50.66296766,26.21535081,"26.21535081, 50.66296766",,,,,
industries.csv,,,,,,,,,,,,,,,INTERNATIONAL BISCUITS PRODUCTION FACTORY,المصانع الدولية لإنتاج البسكويت,INDUSTRIES,الصناعات,INDUSTRIAL COMPLEXES,المنشـآت الصناعية,115.0,50.66719233,26.22081721,"26.22081721, 50.66719233",,,,,
industries.csv,,,,,,,,,,,,,,,ORIENTAL PRESS,المطبعة الشرقية,INDUSTRIES,الصناعات,INDUSTRIAL COMPLEXES,المنشـآت الصناعية,115.0,50.675241,26.219205,"26.219205, 50.675241",,,,,
industries.csv,,,,,,,,,,,,,,,PLASTIC ADDITIVES MIDDLE EAST - BASF,باسف بلاستيك أديتيفز الشرق الأوسط,INDUSTRIES,الصناعات,INDUSTRIAL COMPLEXES,المنشـآت الصناعية,115.0,50.67349317,26.21773972,"26.21773972, 50.67349317",,,,,
industries.csv,,,,,,,,,,,,,,,BITUMENA BAHRAIN,بيتو مينا البحرين,INDUSTRIES,الصناعات,INDUSTRIAL COMPLEXES,المنشـآت الصناعية,115.0,50.68787636,26.21989351,"26.21989351, 50.68787636",,,,,
industries.csv,,,,,,,,,,,,,,,ROHAIL HASHIMI STAINLESS STEEL INDUSTRIES,روحيل هاشمي لإنتاج الأثاث من الحديد المقاوم,INDUSTRIES,الصناعات,INDUSTRIAL COMPLEXES,المنشـآت الصناعية,115.0,50.66424002,26.21548564,"26.21548564, 50.66424002",,,,,
industries.csv,,,,,,,,,,,,,,,GULF TEMPERATURE SENSORS - GTS,شركة الخليج للمجسات الحرارية,INDUSTRIES,الصناعات,INDUSTRIAL COMPLEXES,المنشـآت الصناعية,115.0,50.672863,26.22307432,"26.22307432, 50.672863",,,,,
industries.csv,,,,,,,,,,,,,,,AL DAHIYA INDUSTRIAL COMPANY,شركة الضاحية الصناعية,INDUSTRIES,الصناعات,INDUSTRIAL COMPLEXES,المنشـآت الصناعية,115.0,50.68071878,26.21944543,"26.21944543, 50.68071878",,,,,
industries.csv,,,,,,,,,,,,,,,MTQ OILFIELD SERVICES COMPANY,شركة أم تي كيو أويل فيلد سيرفيسز,INDUSTRIES,الصناعات,INDUSTRIAL COMPLEXES,المنشـآت الصناعية,115.0,50.66915807,26.22251032,"26.22251032, 50.66915807",,,,,
industries.csv,,,,,,,,,,,,,,,CHOCOLATE AND CO. COMPANY,شركة أند كو للشوكولاتة,INDUSTRIES,الصناعات,INDUSTRIAL COMPLEXES,المنشـآت الصناعية,115.0,50.66735603,26.2193749,"26.2193749, 50.66735603",,,,,
industries.csv,,,,,,,,,,,,,,,PASCHAL CONCRETE FORMS COMPANY,شركة باسكال للخرسانة,INDUSTRIES,الصناعات,INDUSTRIAL COMPLEXES,المنشـآت الصناعية,115.0,50.66151125,26.21430645,"26.21430645, 50.66151125",,,,,
industries.csv,,,,,,,,,,,,,,,THE BREAD FACTORY COMPANY,شركة ذا برد فاكتوري,INDUSTRIES,الصناعات,INDUSTRIAL COMPLEXES,المنشـآت الصناعية,115.0,50.67619553,26.2123623,"26.2123623, 50.67619553",,,,,
industries.csv,,,,,,,,,,,,,,,GLASS TECH INDUSTRIES,شركة صناعة تقنية الزجاج,INDUSTRIES,الصناعات,INDUSTRIAL COMPLEXES,المنشـآت الصناعية,115.0,50.66506415,26.21699313,"26.21699313, 50.66506415",,,,,
industries.csv,,,,,,,,,,,,,,,LEGEND PAINTS COMPANY,شركة ليجاند بينتس,INDUSTRIES,الصناعات,INDUSTRIAL COMPLEXES,المنشـآت الصناعية,115.0,50.67909219,26.21924973,"26.21924973, 50.67909219",,,,,
industries.csv,,,,,,,,,,,,,,,BAHRAIN MEDICAL AND INDUSTRIAL GAS PLANTS - BMIGP,مصانع البحرين للغازات الطبية والصناعية - بميجب,INDUSTRIES,الصناعات,INDUSTRIAL COMPLEXES,المنشـآت الصناعية,115.0,50.67923143,26.21470779,"26.21470779, 50.67923143",,,,,
industries.csv,,,,,,,,,,,,,,,BAHRAIN PHARMA - BP,مصنع البحرين فارما,INDUSTRIES,الصناعات,INDUSTRIAL COMPLEXES,المنشـآت الصناعية,115.0,50.66844173,26.22136988,"26.22136988, 50.66844173",,,,,
industries.csv,,,,,,,,,,,,,,,ZAYANI POLYMER FACTORY,مصنع الزياني للبوليمر,INDUSTRIES,الصناعات,INDUSTRIAL COMPLEXES,المنشـآت الصناعية,115.0,50.66525641,26.21538872,"26.21538872, 50.66525641",,,,,
industries.csv,,,,,,,,,,,,,,,OFFSHORE MANUFACTURE AND MAINTENANCE OF SHIPS,اوفشور لصناعة وصيانة السفن,INDUSTRIES,الصناعات,INDUSTRIAL COMPLEXES,المنشـآت الصناعية,116.0,50.65316663,26.21552235,"26.21552235, 50.65316663",,,,,
industries.csv,,,,,,,,,,,,,,,ARABIAN GULF CEMENT COMPANY,شركة اسمنت الخليج العربي,INDUSTRIES,الصناعات,INDUSTRIAL COMPLEXES,المنشـآت الصناعية,116.0,50.65747961,26.21820287,"26.21820287, 50.65747961",,,,,
industries.csv,,,,,,,,,,,,,,,AHMED MANSOOR AL AʻALI COMPANY,شركة أحمد منصور العالي,INDUSTRIES,الصناعات,INDUSTRIAL COMPLEXES,المنشـآت الصناعية,116.0,50.65690037,26.21414002,"26.21414002, 50.65690037",,,,,
industries.csv,,,,,,,,,,,,,,,REDX READYMIX COMPANY,شركة ريدكس للخرسانة المخلوطة,INDUSTRIES,الصناعات,INDUSTRIAL COMPLEXES,المنشـآت الصناعية,116.0,50.65846891,26.20965155,"26.20965155, 50.65846891",,,,,
industries.csv,,,,,,,,,,,,,,,ORTA ANADOLU TEXTILE BAHRAIN COMPANY,شركة مصانع الأقمشة أورتا أناضولو البحرين,INDUSTRIES,الصناعات,INDUSTRIAL COMPLEXES,المنشـآت الصناعية,116.0,50.654775,26.216412,"26.216412, 50.654775",,,,,
industries.csv,,,,,,,,,,,,,,,UNITED STEEL COMPANY - SULB,الشركة المتحدة للحديد - صلب,INDUSTRIES,الصناعات,INDUSTRIAL COMPLEXES,المنشـآت الصناعية,117.0,50.67518477,26.20126765,"26.20126765, 50.67518477",,,,,
industries.csv,,,,,,,,,,,,,,,GULF INDUSTRIAL INVESTMENT COMPANY,شركة الخليج للصناعات الإستثمارية,INDUSTRIES,الصناعات,INDUSTRIAL COMPLEXES,المنشـآت الصناعية,117.0,50.67857384,26.20030274,"26.20030274, 50.67857384",,,,,
industries.csv,,,,,,,,,,,,,,,BAHRAIN TENTS FACTORY,مصنع البحرين للخيام,INDUSTRIES,الصناعات,INDUSTRIAL COMPLEXES,المنشـآت الصناعية,207.0,50.60801025,26.25798583,"26.25798583, 50.60801025",,,,,
industries.csv,,,,,,,,,,,,,,,RAYYA PORT ICE MAKING FACTORY,مصنع فرضة رية لصناعة الثلج,INDUSTRIES,الصناعات,INDUSTRIAL COMPLEXES,المنشـآت الصناعية,235.0,50.64064433,26.28720401,"26.28720401, 50.64064433",,,,,
industries.csv,,,,,,,,,,,,,,,AL NAMLAITY FACTORY FOR WATER AND ICE CENTER,مصنع النامليتي للماء والثلج,INDUSTRIES,الصناعات,INDUSTRIAL COMPLEXES,المنشـآت الصناعية,323.0,50.58789079,26.23259147,"26.23259147, 50.58789079",,,,,
industries.csv,,,,,,,,,,,,,,,BAHRAIN FLOUR MILLS COMPANY,شركة البحرين لمطاحن الدقيق,INDUSTRIES,الصناعات,INDUSTRIAL COMPLEXES,المنشـآت الصناعية,342.0,50.61063612,26.20199463,"26.20199463, 50.61063612",,,,,
industries.csv,,,,,,,,,,,,,,,HASAN ABDULLAH MANSOORI - STEEL FACTORY,حسن عبدالله منصوري - مصنع الصلب,INDUSTRIES,الصناعات,INDUSTRIAL COMPLEXES,المنشـآت الصناعية,343.0,50.60038432,26.19948281,"26.19948281, 50.60038432",,,,,
industries.csv,,,,,,,,,,,,,,,BRIDGE INDUSTRIAL SERVICES COMPANY,شركة الجسر للخدمات الصناعية,INDUSTRIES,الصناعات,INDUSTRIAL COMPLEXES,المنشـآت الصناعية,343.0,50.59938811,26.20014749,"26.20014749, 50.59938811",,,,,
industries.csv,,,,,,,,,,,,,,,YATEEM OXYGEN COMPANY,شركة مصنع يتيم للأكسجين,INDUSTRIES,الصناعات,INDUSTRIAL COMPLEXES,المنشـآت الصناعية,413.0,50.53895476,26.20585797,"26.20585797, 50.53895476",,,,,
industries.csv,,,,,,,,,,,,,,,QUBA FACTORY FOR PALM AND HERBAL WATER,مصنع قبى لإنتاج ماء اللقاح ومياه الأعشاب,INDUSTRIES,الصناعات,INDUSTRIAL COMPLEXES,المنشـآت الصناعية,430.0,50.5249877,26.23420638,"26.23420638, 50.5249877",,,,,
industries.csv,,,,,,,,,,,,,,,AL SHAJJAR FACTORY FOR POLLINATION WATER,مصنع الشجار لماء اللقاح,INDUSTRIES,الصناعات,INDUSTRIAL COMPLEXES,المنشـآت الصناعية,432.0,50.5287519,26.23010249,"26.23010249, 50.5287519",,,,,
industries.csv,,,,,,,,,,,,,,,BAHRAIN HERBAL FACTORY,مصنع البحرين للأعشاب,INDUSTRIES,الصناعات,INDUSTRIAL COMPLEXES,المنشـآت الصناعية,434.0,50.53384734,26.23130481,"26.23130481, 50.53384734",,,,,
industries.csv,,,,,,,,,,,,,,,AL JASER FACTORY COMPANY,شركة مصنع الجسر,INDUSTRIES,الصناعات,INDUSTRIAL COMPLEXES,المنشـآت الصناعية,438.0,50.51673077,26.23023901,"26.23023901, 50.51673077",,,,,
industries.csv,,,,,,,,,,,,,,,BAHRAIN ICE CREAM BISCUIT FACTORY,مصنع البحرين لانتاج بسكويت الآيس كريم,INDUSTRIES,الصناعات,INDUSTRIAL COMPLEXES,المنشـآت الصناعية,439.0,50.53263774,26.20282593,"26.20282593, 50.53263774",,,,,
industries.csv,,,,,,,,,,,,,,,AL AHRAR WELDING AND BLACKSMITH WORKSHOP,ورشة الأحرار للحدادة واللحام,INDUSTRIES,الصناعات,INDUSTRIAL COMPLEXES,المنشـآت الصناعية,439.0,50.53181365,26.20276885,"26.20276885, 50.53181365",,,,,
industries.csv,,,,,,,,,,,,,,,AL JAZEERAH REFRIGERATION AND HEATING FACTORY,مصنع الجزيرة للتبريد والتدفئة,INDUSTRIES,الصناعات,INDUSTRIAL COMPLEXES,المنشـآت الصناعية,543.0,50.45899619,26.20661478,"26.20661478, 50.45899619",,,,,
industries.csv,,,,,,,,,,,,,,,THE NATIONAL CONCRETE COMPANY,الشركة الوطنية,INDUSTRIES,الصناعات,INDUSTRIAL COMPLEXES,المنشـآت الصناعية,601.0,50.61401676,26.18497398,"26.18497398, 50.61401676",,,,,
industries.csv,,,,,,,,,,,,,,,ISMAIL EBRAHIM TARADAH,إسماعيل ابراهيم طرادة,INDUSTRIES,الصناعات,INDUSTRIAL COMPLEXES,المنشـآت الصناعية,601.0,50.60243508,26.17456946,"26.17456946, 50.60243508",,,,,
industries.csv,,,,,,,,,,,,,,,AHMED MANSOOR AL AʻALI - ALUMINUM MANUFACTURE,أحمد منصور العالي - صناعة الألمنيوم,INDUSTRIES,الصناعات,INDUSTRIAL COMPLEXES,المنشـآت الصناعية,601.0,50.60418747,26.17807858,"26.17807858, 50.60418747",,,,,
industries.csv,,,,,,,,,,,,,,,R.B. HILTON LIMITED,آر بي هيلتون المحدودة,INDUSTRIES,الصناعات,INDUSTRIAL COMPLEXES,المنشـآت الصناعية,601.0,50.60127912,26.17365999,"26.17365999, 50.60127912",,,,,
industries.csv,,,,,,,,,,,,,,,JASSIM ABDULRAHMAN AL ZAYANI,جاسم عبدالرحمن الزياني,INDUSTRIES,الصناعات,INDUSTRIAL COMPLEXES,المنشـآت الصناعية,601.0,50.61624797,26.18034275,"26.18034275, 50.61624797",,,,,
industries.csv,,,,,,,,,,,,,,,GULF ALUMINIUM ROLLING COMPANY,شركة الخليج لدرفلت الألمنيوم,INDUSTRIES,الصناعات,INDUSTRIAL COMPLEXES,المنشـآت الصناعية,601.0,50.6146839,26.18161478,"26.18161478, 50.6146839",,,,,
industries.csv,,,,,,,,,,,,,,,GULF CLOSURES COMPANY,شركة أغطية الخليج,INDUSTRIES,الصناعات,INDUSTRIAL COMPLEXES,المنشـآت الصناعية,601.0,50.60456552,26.17605369,"26.17605369, 50.60456552",,,,,
industries.csv,,,,,,,,,,,,,,,AWAL FOOD FACTORY,مصنع أوال للأغذية,INDUSTRIES,الصناعات,INDUSTRIAL COMPLEXES,المنشـآت الصناعية,601.0,50.61608408,26.17877672,"26.17877672, 50.61608408",,,,,
industries.csv,,,,,,,,,,,,,,,NASS ICE FACTORY,مصنع ناس للثلج,INDUSTRIES,الصناعات,INDUSTRIAL COMPLEXES,المنشـآت الصناعية,623.0,50.61455635,26.14081545,"26.14081545, 50.61455635",,,,,
industries.csv,,,,,,,,,,,,,,,GULF EXHAUST SERVICES,الخليج لخدمات العادم,INDUSTRIES,الصناعات,INDUSTRIAL COMPLEXES,المنشـآت الصناعية,634.0,50.606812,26.132093,"26.132093, 50.606812",,,,,
industries.csv,,,,,,,,,,,,,,,MAGNUM ENTERPRISES,شركات ماجنم,INDUSTRIES,الصناعات,INDUSTRIAL COMPLEXES,المنشـآت الصناعية,634.0,50.60638714,26.12667898,"26.12667898, 50.60638714",,,,,
industries.csv,,,,,,,,,,,,,,,UNITED GULF ASPHALT COMPANY,شركة الخليج المتحدة للاسفلت,INDUSTRIES,الصناعات,INDUSTRIAL COMPLEXES,المنشـآت الصناعية,634.0,50.60303504,26.12809481,"26.12809481, 50.60303504",,,,,
industries.csv,,,,,,,,,,,,,,,AWAL READYMIX CONCRETE COMPANY,شركة أوال للخرسانة,INDUSTRIES,الصناعات,INDUSTRIAL COMPLEXES,المنشـآت الصناعية,634.0,50.61200559,26.13093245,"26.13093245, 50.61200559",,,,,
industries.csv,,,,,,,,,,,,,,,ALTADHAMUN ALUMINUM CENTER,مركز التضامن للألمنيوم,INDUSTRIES,الصناعات,INDUSTRIAL COMPLEXES,المنشـآت الصناعية,634.0,50.61047825,26.12833993,"26.12833993, 50.61047825",,,,,
industries.csv,,,,,,,,,,,,,,,AL DHAEN CRAFT FACTORY,مصنع الظاعن للقوارب,INDUSTRIES,الصناعات,INDUSTRIAL COMPLEXES,المنشـآت الصناعية,634.0,50.60840686,26.13176903,"26.13176903, 50.60840686",,,,,
industries.csv,,,,,,,,,,,,,,,ADHARI BLOCK FACTORY,مصنع عذاري للطابوق,INDUSTRIES,الصناعات,INDUSTRIAL COMPLEXES,المنشـآت الصناعية,634.0,50.60922806,26.13385479,"26.13385479, 50.60922806",,,,,
industries.csv,,,,,,,,,,,,,,,FALCON FACTORY,مصنع فالكون,INDUSTRIES,الصناعات,INDUSTRIAL COMPLEXES,المنشـآت الصناعية,634.0,50.60698337,26.1327192,"26.1327192, 50.60698337",,,,,
industries.csv,,,,,,,,,,,,,,,CRYSTAL TILE FACTORY,مصنع كريستال للقرميد,INDUSTRIES,الصناعات,INDUSTRIAL COMPLEXES,المنشـآت الصناعية,634.0,50.60923629,26.13237219,"26.13237219, 50.60923629",,,,,
industries.csv,,,,,,,,,,,,,,,HAJI HASAN GROUP,مجموعة حجي حسن,INDUSTRIES,الصناعات,INDUSTRIAL COMPLEXES,المنشـآت الصناعية,702.0,50.53265804,26.18961154,"26.18961154, 50.53265804",,,,,
industries.csv,,,,,,,,,,,,,,,HABIB AHMED ALSHAGAL FACTORY,مصنع حبيب احمد الشغل,INDUSTRIES,الصناعات,INDUSTRIAL COMPLEXES,المنشـآت الصناعية,742.0,50.51704,26.159698,"26.159698, 50.51704",,,,,
industries.csv,,,,,,,,,,,,,,,BAHRAIN INTERNATIONAL COMPANY FOR METAL SPRAY,شركة البحرين الدولية لرذاذ المعادن,INDUSTRIES,الصناعات,INDUSTRIAL COMPLEXES,المنشـآت الصناعية,948.0,50.59130062,26.09345265,"26.09345265, 50.59130062",,,,,
industries.csv,,,,,,,,,,,,,,,DELMON READYMIX COMPANY,شركة دلمون للخرسانة المخلوطة,INDUSTRIES,الصناعات,INDUSTRIAL COMPLEXES,المنشـآت الصناعية,948.0,50.59187906,26.1002888,"26.1002888, 50.59187906",,,,,
industries.csv,,,,,,,,,,,,,,,HUSNI AZZUKA AND PARTNERS FACTORIES,شركة مصانع حسني عزوقة وشركاه,INDUSTRIES,الصناعات,INDUSTRIAL COMPLEXES,المنشـآت الصناعية,948.0,50.59493301,26.10036405,"26.10036405, 50.59493301",,,,,
industries.csv,,,,,,,,,,,,,,,WIRES INTERNATIONAL COMPANY,الشركة الدولية لصناعة شباك الألمنيوم,INDUSTRIES,الصناعات,INDUSTRIAL COMPLEXES,المنشـآت الصناعية,949.0,50.5910344,26.11735237,"26.11735237, 50.5910344",,,,,
industries.csv,,,,,,,,,,,,,,,BAHRAIN ALLOYS MANUFACTURING - BAMCO,البحرين لصناعة السبائك المعدنية - بامكو,INDUSTRIES,الصناعات,INDUSTRIAL COMPLEXES,المنشـآت الصناعية,951.0,50.6028449,26.07832463,"26.07832463, 50.6028449",,,,,
industries.csv,,,,,,,,,,,,,,,BAHRAIN NATIONAL PLASTIC COMPANY (BANAPCO),شركة البحرين الوطنية للبلاستيك - بنابكو,INDUSTRIES,الصناعات,INDUSTRIAL COMPLEXES,المنشـآت الصناعية,951.0,50.59654345,26.07319216,"26.07319216, 50.59654345",,,,,
industries.csv,,,,,,,,,,,,,,,"CROWN COMPANY FOR WASTE RECYCLING ALUMINUM, PLASTIC AND SCRAP",شركة التاج لتدوير مخلفات الألمنيوم والبلاستيك والسكراب,INDUSTRIES,الصناعات,INDUSTRIAL COMPLEXES,المنشـآت الصناعية,951.0,50.60438974,26.07631418,"26.07631418, 50.60438974",,,,,
industries.csv,,,,,,,,,,,,,,,ALUMINIUM BAHRAIN COMPANY - ALBA,شركة ألمنيوم البحرين - ألبا,INDUSTRIES,الصناعات,INDUSTRIAL COMPLEXES,المنشـآت الصناعية,951.0,50.60709031,26.08901537,"26.08901537, 50.60709031",,,,,
industries.csv,,,,,,,,,,,,,,,TURK MECHANICAL INDUSTRIES,شركة ترك الميكانيكية الصناعية,INDUSTRIES,الصناعات,INDUSTRIAL COMPLEXES,المنشـآت الصناعية,951.0,50.60994113,26.07671724,"26.07671724, 50.60994113",,,,,
industries.csv,,,,,,,,,,,,,,,ALUMINUM WHEELS COMPANY,شركة عجلات الألمنيوم الويل,INDUSTRIES,الصناعات,INDUSTRIAL COMPLEXES,المنشـآت الصناعية,951.0,50.60510191,26.07940019,"26.07940019, 50.60510191",,,,,
industries.csv,,,,,,,,,,,,,,,MAGNUM SHIPS CARE SERVICES COMPANY,شركة ماغنوم لخدمات العناية,INDUSTRIES,الصناعات,INDUSTRIAL COMPLEXES,المنشـآت الصناعية,951.0,50.6083221,26.07542109,"26.07542109, 50.6083221",,,,,
industries.csv,,,,,,,,,,,,,,,CLARK INDUSTRIES,كلارك للصناعات,INDUSTRIES,الصناعات,INDUSTRIAL COMPLEXES,المنشـآت الصناعية,951.0,50.59411852,26.06950505,"26.06950505, 50.59411852",,,,,
industries.csv,,,,,,,,,,,,,,,MARKO WOODEN INDUSTRIES,ماركو للصناعات الخشبية,INDUSTRIES,الصناعات,INDUSTRIAL COMPLEXES,المنشـآت الصناعية,951.0,50.59733196,26.06750232,"26.06750232, 50.59733196",,,,,
industries.csv,,,,,,,,,,,,,,,BAHRAIN RECYCLING PLANT - BRP,مصهر البحرين لصهر المعادن,INDUSTRIES,الصناعات,INDUSTRIAL COMPLEXES,المنشـآت الصناعية,951.0,50.60338647,26.0736178,"26.0736178, 50.60338647",,,,,
industries.csv,,,,,,,,,,,,,,,HETHERO ALUMINIUM FACTORY,مصنع هيثرو للألمنيوم,INDUSTRIES,الصناعات,INDUSTRIAL COMPLEXES,المنشـآت الصناعية,952.0,50.62834854,26.08066595,"26.08066595, 50.62834854",,,,,
industries.csv,,,,,,,,,,,,,,,FOREST BREEZE AIR CONDITIONING AND KITCHEN FABRICATION,نسيم الغابة لفبركة القنوات الهوائية والمطابخ,INDUSTRIES,الصناعات,INDUSTRIAL COMPLEXES,المنشـآت الصناعية,952.0,50.62234305,26.07788979,"26.07788979, 50.62234305",,,,,
industries.csv,,,,,,,,,,,,,,,AL MANARATAIN,المنارتين,INDUSTRIES,الصناعات,INDUSTRIAL COMPLEXES,المنشـآت الصناعية,995.0,50.5902235,26.01879533,"26.01879533, 50.5902235",,,,,
industries.csv,,,,,,,,,,,,,,,DAMISTAN SAND WASHING AND DISTRIBUTION FACTORY,مصنع دمستان لغسيل وتوزيع الرمال,INDUSTRIES,الصناعات,INDUSTRIAL COMPLEXES,المنشـآت الصناعية,1012.0,50.48669842,26.13747274,"26.13747274, 50.48669842",,,,,
mena_manufacturers.csv,Saudi Arabia,Noor Sar Factory for Building Chemicals,Manufacturing chemicals and chemical products,Building chemicals,0165314844,noorsar@windowslive.com,Hail,N/A,N/A,N/A,,,,,,,,,,,,,,,,,,,
mena_manufacturers.csv,Saudi Arabia,Abdullah bin Salem bin Ayyad Al-Khattabi Factory for Industry,Manufacturing of rubber and plastic products,Rubber and plastic products,0126094111,alkhattabi_factory@hotmail.com,Jeddah 1st,N/A,N/A,N/A,,,,,,,,,,,,,,,,,,,
mena_manufacturers.csv,Saudi Arabia,Raniyah Mahmoud Mohammed Al-Abi Factory for Food Products,Manufacturing food products,Food products,0112865287,rokn.alhail@gmail.com,Al-Kharj,N/A,N/A,N/A,,,,,,,,,,,,,,,,,,,
mena_manufacturers.csv,Saudi Arabia,Al-Mumayzah Solutions Company for Chemical Industries,Manufacturing chemicals and chemical products; Manufacturing of rubber and plastic products; Manufacturing of machinery and equipment,Chemical industries,0126058546,info@usci.com.sa,Jeddah 1st,N/A,N/A,N/A,,,,,,,,,,,,,,,,,,,
mena_manufacturers.csv,Saudi Arabia,East Treasures Factory for Industry,N/A,N/A,0126545666,N/A,Jeddah 1st,N/A,N/A,N/A,,,,,,,,,,,,,,,,,,,
mena_manufacturers.csv,Saudi Arabia,Arabian Controls and Electrics Limited Company,Manufacturing computers, electronic and optical products,Electronics,0138101720,samer.alkurdi@abdulla-fouad.com,Dammam 3rd,N/A,"N/A,N/A",,,,,,,,,,,,,,,,,,,
mena_manufacturers.csv,Saudi Arabia,Transport Media Factory Company for Metallic Products,Manufacturing of shaped metal products; Manufacturing of motor vehicles, trailers and semi-trailers; Manufacturing of other transport equipment,Metallic products,0114997060,infi@wasaetalnqil.com,Riyadh 2nd,N/A,"N/A,N/A",,,,,,,,,,,,,,,,,,,
mena_manufacturers.csv,Saudi Arabia,Al-Rahden for Cleaning Company Saudi Closed Joint Stock,Other manufacturing; Manufacturing chemicals and chemical products,Cleaning products,0114543393,HR@alrahden.net,Riyadh 1st,N/A,N/A,N/A,,,,,,,,,,,,,,,,,,,
mena_manufacturers.csv,Saudi Arabia,Qu dra Industrial Company,Manufacturing of shaped metal products; Manufacturing of base metals; Manufacturing of electrical equipment; Manufacturing of rubber and plastic products; Manufacturing of motor vehicles, trailers and semi-trailers; Repair and installation of machinery and equipment; Manufacturing of other transport equipment,Various industrial,0112077773,faisal.benhumaid@qudra-sa.com,Riyadh 2nd,N/A,"N/A,N/A",,,,,,,,,,,,,,,,,,,
mena_manufacturers.csv,Saudi Arabia,Saudi Heaven Industrial Company,Manufacturing chemicals and chemical products,Chemicals,0114110924,heavenalsaudia@gmail.com,Sudair,N/A,N/A,N/A,,,,,,,,,,,,,,,,,,,
mena_manufacturers.csv,Saudi Arabia,Thiqah Wood Factory for Wood Industries,Manufacturing of wood and wood products except furniture; Manufacturing of articles of straw and plaiting materials,Wood industries,0126621800,mohamed.ragab65@gmail.com,Jeddah 3rd,N/A,N/A,N/A,,,,,,,,,,,,,,,,,,,
mena_manufacturers.csv,Saudi Arabia,Modhesh Factory for Metal Furniture Grills,Manufacturing of machinery and equipment; Manufacturing of furniture; Manufacturing of electrical equipment,Metal furniture,0114489782,info@modhish.sa,Riyadh 1st,N/A,N/A,N/A,,,,,,,,,,,,,,,,,,,
mena_manufacturers.csv,Qatar,Royal Foodz,Processed food services,Processed food,N/A,N/A,N/A,N/A,N/A,N/A,,,,,,,,,,,,,,,,,,,
mena_manufacturers.csv,Qatar,Qatari Canadian for Electrical generators and energy,Power and renewable energy,Power solutions,N/A,N/A,N/A,N/A,N/A,N/A,,,,,,,,,,,,,,,,,,,
mena_manufacturers.csv,Qatar,Twyla Recycling Company,Plastic recycling,Plastic raw material,N/A,N/A,N/A,N/A,N/A,N/A,,,,,,,,,,,,,,,,,,,
mena_manufacturers.csv,Qatar,Qatar Flour Mills Co.,Food processing,Flour and wheat-based products,N/A,N/A,N/A,N/A,N/A,N/A,,,,,,,,,,,,,,,,,,,
mena_manufacturers.csv,Qatar,National Food Company (Al arabia),Food processing,Processed frozen food,N/A,N/A,N/A,N/A,N/A,N/A,,,,,,,,,,,,,,,,,,,
mena_manufacturers.csv,Qatar,Dandy Company,Food and beverages,Dairy, beverage and ice cream products,ISO 9001:2000,N/A,N/A,N/A,N/A,,,,,,,,,,,,,,,,,,,
mena_manufacturers.csv,Qatar,Doha Cables,Electrical,Cables,BASEC, LPCB, KEMA/DNV-GL,N/A,Messaieed Industrial City,"N/A,N/A",,,,,,,,,,,,,,,,,,,
mena_manufacturers.csv,Qatar,Artikkan Gallery,Furniture and decor,Arab or Oriental influenced furniture and home-décor,N/A,N/A,Doha,N/A,N/A,N/A,,,,,,,,,,,,,,,,,,,
mena_manufacturers.csv,Qatar,AL ARZ AUTOMATIC BAKERY,Food processing,Bakery products,ISO 22000:2005, ISO 9001:2015,N/A,N/A,N/A,N/A,,,,,,,,,,,,,,,,,,,
mena_manufacturers.csv,Qatar,AL MESBAH FACTORY FOR ALUMINUM WORKS,Metal works,Aluminum works,N/A,N/A,N/A,N/A,N/A,N/A,,,,,,,,,,,,,,,,,,,
mena_manufacturers.csv,Qatar,COASTAL STEEL AND GALVANIZING WLL,Metal fabrication,Steel structures, stadium seats, bathroom partitions, lighting poles, crash barriers, cable trays,"N/A,N/A,N/A,N/A,N/A,N/A",,,,,,,,,,,,,,,,,,,
mena_manufacturers.csv,Qatar,INTERNATIONAL WELDING RODS FACTORY,Manufacturing,Welding electrodes,ISO-certified,N/A,New Industrial Area, Doha,N/A,N/A,,,,,,,,,,,,,,,,,,,
mena_manufacturers.csv,Qatar,Seashore Panels Factory (formaly Al Atti ya Steel),Construction materials,Insulated polyurethane sandwich panels, cold room panels, decking sheets, purlins, single skin sheets,N/A,"N/A,New Industrial Area, Doha,N/A,N/A",,,,,,,,,,,,,,,,,,,
mena_manufacturers.csv,Qatar,AlBINA SNACKS,Food processing,Roasted nuts,N/A,N/A,N/A,N/A,N/A,N/A,,,,,,,,,,,,,,,,,,,
mena_manufacturers.csv,Qatar,Baladna,Food and beverages,Dairy and juice products,ISO 22000:2005,N/A,Al Khor,N/A,N/A,,,,,,,,,,,,,,,,,,,,
mena_manufacturers.csv,Qatar,ADVANCED PLASTIC FACTORY,Plastics,Pipes, fittings PVC and HDPE, corrugated pipes,N/A,N/A,N/A,"N/A,N/A,N/A",,,,,,,,,,,,,,,,,,,
mena_manufacturers.csv,Qatar,EXPANDED METAL MFG. CO.,Metal products,Expanded metal products,British Standards, ASTM, ISO 9001:2015, AISI,N/A,"New Industrial Area, Doha,N/A,N/A",,,,,,,,,,,,,,,,,,,
mena_manufacturers.csv,Qatar,QATAR STEEL INDUSTRIES FACTORY,Steel products,Steel pipes, tubes, corrugated sheets, insulated panels, angles, beams," channels, flats,N/A,N/A,N/A,N/A,N/A,N/A",,,,,,,,,,,,,,,,,,,
mena_manufacturers.csv,Qatar,GULF CRAFTS,Manufacturing,Bespoke design and manufacturing,N/A,N/A,Doha,N/A,N/A,N/A,,,,,,,,,,,,,,,,,,,
mena_manufacturers.csv,Qatar,Qatari German For Medical Devices Company,Medical devices,Single-use syringes, hypodermic needles, intravenous cannulas, re-use prevention syringes, insulin syringes,N/A,"N/A,N/A,N/A,N/A,N/A",,,,,,,,,,,,,,,,,,,
mena_manufacturers.csv,Qatar,RAYYAN MINERAL WATER CO.,Beverages,Mineral water,N/A,N/A,60 kms from Doha,N/A,N/A,,,,,,,,,,,,,,,,,,,,
mena_manufacturers.csv,Qatar,QMEDIA SIGNAGE,Signage,Traffic, industrial, building name, indoor, way finding signs,N/A,"N/A,N/A,N/A,N/A,N/A",,,,,,,,,,,,,,,,,,,
mena_manufacturers.csv,Qatar,JERSEY GLASS,Glass processing,Glass processing,N/A,N/A,New Industrial Area,N/A,N/A,N/A,,,,,,,,,,,,,,,,,,,
mena_manufacturers.csv,Qatar,MODERN BUILDING ACCESSORIES FACTORY,Building materials,Plastic items for building,N/A,N/A,New Industrial Area, Doha,N/A,"N/A,N/A",,,,,,,,,,,,,,,,,,,
mena_manufacturers.csv,Qatar,AL BAYADAR PACK-QATAR,Packaging,Food packaging solutions,N/A,N/A,N/A,N/A,N/A,N/A,,,,,,,,,,,,,,,,,,,
mena_manufacturers.csv,Qatar,DOHA EXTRACO,Construction materials,GRC, GRP, UHPC, GRG, EIFS,N/A,"N/A,N/A,N/A,N/A,N/A",,,,,,,,,,,,,,,,,,,
mena_manufacturers.csv,Qatar,WEST BAY ICE AND WATER FACTORY,Beverages,Ice cubes, bottled water,N/A,N/A,N/A,N/A,"N/A,N/A",,,,,,,,,,,,,,,,,,,
mena_manufacturers.csv,Qatar,GROWTECH TRADING & INDUSTRIAL GROUP CO.,N/A,N/A,N/A,N/A,N/A,N/A,N/A,N/A,,,,,,,,,,,,,,,,,,,
mena_manufacturers.csv,Qatar,QATAR GERMAN GASKET FACTORY (Q-GER),Manufacturing,Metallic and non-metallic gaskets,N/A,N/A,New Industrial Area, Doha,N/A,N/A,,,,,,,,,,,,,,,,,,,
mena_manufacturers.csv,Qatar,QATAR TECHNICAL STEEL FABRICATION CO.,Metal fabrication,Steel fabrication, industrial refrigeration, machining,N/A,N/A,Street 24," Zone 81, New Industrial Area,N/A,N/A",,,,,,,,,,,,,,,,,,,
mena_manufacturers.csv,Qatar,QATAR NATIONAL ALUMINIUM PANEL CO.,Metal products,Aluminium composite panels, coated aluminium coils,N/A,N/A,N/A,N/A,"N/A,N/A",,,,,,,,,,,,,,,,,,,
mena_manufacturers.csv,Qatar,METALS FORMING SUPPORT FACTORYS,Construction,Construction solutions,N/A,N/A,New Industrial Area Pink Zone,N/A,N/A,N/A,,,,,,,,,,,,,,,,,,,
mena_manufacturers.csv,Qatar,THE CONFIDENCE INDUSTRIAL GASES PLANT CO,Gases,Industrial, medical, specialty gases,N/A,N/A,N/A,"N/A,N/A,N/A",,,,,,,,,,,,,,,,,,,
mena_manufacturers.csv,Qatar,DELTA CORPORATION,Oil and gas,Wellheads, X-Mass tree equipment, valves, actuators, flow control products,N/A,"N/A,N/A,N/A,N/A,N/A",,,,,,,,,,,,,,,,,,,
mena_manufacturers.csv,Qatar,HALUL FOR BOAT MANUFACTURING,Manufacturing,Fiber glass boats, yachts, coast guard boats,N/A,N/A,New Industrial Area," Doha,N/A,N/A",,,,,,,,,,,,,,,,,,,
mena_manufacturers.csv,Qatar,AL SADA FACTORY FOR PLASTIC PIPES,Plastics,PPR pipes and fittings,N/A,N/A,Industrial Area, Doha,N/A,"N/A,N/A",,,,,,,,,,,,,,,,,,,
mena_manufacturers.csv,Qatar,AL SULAITEEN AGRICULTURE AND INDUSTRIAL COMPLEX CO,Agriculture,Flowers, fruits, vegetables, animal products,N/A,N/A,"40 hectares farms,N/A,N/A",,,,,,,,,,,,,,,,,,,
mena_manufacturers.csv,Qatar,ELITE PAPER RECYCLING,Recycling,Paper recycling,N/A,N/A,N/A,N/A,N/A,N/A,,,,,,,,,,,,,,,,,,,
mena_manufacturers.csv,Qatar,QATAR MEAT PRODUCTION,Food processing,Meat processing,N/A,N/A,6,000 sqm facility,N/A,N/A,,,,,,,,,,,,,,,,,,,
mena_manufacturers.csv,Qatar,DOHA PRECAST FACTORY,Construction materials,Reinforced concrete pipes, precast manholes, fittings,N/A,N/A,Messaieed Industrial City,"N/A,N/A",,,,,,,,,,,,,,,,,,,
mena_manufacturers.csv,Qatar,BRIGHT FUTURE TIRE RECYCLING COMPANY,Recycling,Reclaimed rubber from tyres,N/A,N/A,Umsaeed industrial area,N/A,N/A,,,,,,,,,,,,,,,,,,,,
mena_manufacturers.csv,Qatar,Asima Plastic Factory,Packaging,Packaging,N/A,N/A,N/A,N/A,N/A,N/A,,,,,,,,,,,,,,,,,,,
mena_manufacturers.csv,Qatar,SIGMA METAL INDUSTRIES,Metal products,Traffic signs, directional signs, gantries, cantilevers, variable message signs, controllers cabinets," steel structures,ISO 9001:2015, ISO 14001:2018,N/A,N/A,N/A,N/A",,,,,,,,,,,,,,,,,,,
mena_manufacturers.csv,Qatar,ALUMINUM GULF RAY (GULF RAY ALUMINUM AND GLASS),Metal products,Metal cladding, facades, doors, windows, aluminum products,N/A,"N/A,N/A,N/A,N/A,N/A",,,,,,,,,,,,,,,,,,,
mena_manufacturers.csv,Qatar,ITAG INTERNATIONAL,Oilfield equipment,Oilfield equipment,N/A,N/A,N/A,N/A,N/A,N/A,,,,,,,,,,,,,,,,,,,
mena_manufacturers.csv,Qatar,NATIONAL FOOD COMPANY W.L.L,Food processing,Processed dates,N/A,N/A,Doha,N/A,N/A,,,,,,,,,,,,,,,,,,,,
mena_manufacturers.csv,Qatar,Al crystal food oil factory,Food processing,Edible oil,N/A,N/A,New Industrial Area, Doha,N/A,N/A,,,,,,,,,,,,,,,,,,,
mena_manufacturers.csv,Qatar,ALBIDDA INDUSTRIES AND SERVICES,Electrical,Switchboard enclosures, assembly,N/A,N/A,N/A,N/A,"N/A,N/A",,,,,,,,,,,,,,,,,,,
mena_manufacturers.csv,Qatar,AL NAQEEB PLASTIC FACTORY,Plastics,Polypropylene woven bags and sacks,ISO 9001:2015, ISO 22000:2018, HACCP,N/A,N/A,"N/A,N/A",,,,,,,,,,,,,,,,,,,
mena_manufacturers.csv,Qatar,AL SADA FOOD INDUSTRY,Food industry,Factory sale, company not operational,N/A,N/A,Street 31, Zone 81," Small & Medium Industries Area,N/A,N/A",,,,,,,,,,,,,,,,,,,
mena_manufacturers.csv,Qatar,QATAR POLYMER INDUSTRIAL COMPANY,Plastics,PP woven products,HACCP, ISO 9001:2015, ISO 45001:2018,N/A,N/A,"N/A,N/A",,,,,,,,,,,,,,,,,,,
mena_manufacturers.csv,Oman,AL ASR ELECTRICAL & ELECTRONIC INDUSTRIES,Electrical,Electrical and electronic products,24446809,alasr@omantel.net.om,N/A,N/A,N/A,Contact: Gopalen 99358957; Fax: 24446809,,,,,,,,,,,,,,,,,,,
mena_manufacturers.csv,Oman,Al Hassan Switchgear Manufacturing Co. LLC (AHSG),Electrical,Switchgear,24591283,baqer.j@al-hassan.com,N/A,N/A,N/A,Contact: Bqer 95334775; Fax: 24596899,,,,,,,,,,,,,,,,,,,
mena_manufacturers.csv,Oman,AL HASSSAN POWER INDUSTRIES,Electrical,Power products,24591283,baqer.j@al-hassan.com,N/A,N/A,N/A,Contact: Bqer 95334775; Fax: 24596899,,,,,,,,,,,,,,,,,,,
mena_manufacturers.csv,Oman,AL JIZZI TRANSFORMERS & SWITCHGEAR CO.LLC,Electrical,Transformers and switchgear,24451427,ajtsoman@omantel.net.om,N/A,N/A,N/A,Contact: Srirram 99375340; Fax: 24456190,,,,,,,,,,,,,,,,,,,
mena_manufacturers.csv,Oman,AL MOHSIN ELECTRICALS,Electrical,Electrical products,24701494,allmoha@omantel.net.om,N/A,N/A,N/A,Contact: Saleem 99438409; Fax: 24706049,,,,,,,,,,,,,,,,,,,
mena_manufacturers.csv,Oman,AL SAQLAWI EST.,N/A,N/A,24813314,bisan80@omantel.net.om,N/A,N/A,N/A,Contact: Abdullah saqlawi 99383822; Fax: 24810344,,,,,,,,,,,,,,,,,,,
mena_manufacturers.csv,Oman,AL TASNEEM ELECTRICAL CONT.,Electrical,Electrical contracting,24501017,N/A,N/A,N/A,N/A,Contact: Moosa Tubaila 99366083; Fax: 24501018,,,,,,,,,,,,,,,,,,,
mena_manufacturers.csv,Oman,ELECTRO MECHANICAL SERVICES LLC,Electrical,Electro mechanical,24596686,suresh@emsswitchgear.com,N/A,N/A,N/A,Contact: Suresh 99365503; Fax: 24595585,,,,,,,,,,,,,,,,,,,
mena_manufacturers.csv,Oman,JYOTI SOHAR SWITCHGEAR,Electrical,Switchgear,26751197,jyotijss@omantel.net.om,N/A,N/A,N/A,Contact: Prabhat sherma 99445474; Fax: 26750286,,,,,,,,,,,,,,,,,,,
mena_manufacturers.csv,Oman,MAJAN SWITCHGEAR COMPANY,Electrical,Switchgear,24504235,majanmct@omantel.net.om,N/A,N/A,N/A,Contact: T.Thangamani 99226968; Fax: 24502549,,,,,,,,,,,,,,,,,,,
mena_manufacturers.csv,Oman,NATIONAL ELECTRICAL INDUSTRIES,Electrical,Electrical products,24453880,sudarsan@neioman.com,N/A,N/A,N/A,Contact: Sudarsan 95210070; Fax: 24453721,,,,,,,,,,,,,,,,,,,
mena_manufacturers.csv,Oman,NATIONAL PLASTIC FACTORY,Plastics,Plastic products,24811689,info@nationalplasticoman.com,N/A,N/A,N/A,Contact: wilfard 99840233; Fax: 24810078,,,,,,,,,,,,,,,,,,,
mena_manufacturers.csv,Oman,NATIONAL TRADING CO.,Trading,N/A,24591041,natcoed@omantel.net.om,N/A,N/A,N/A,Contact: ashok 99759012; Fax: 24591046,,,,,,,,,,,,,,,,,,,
mena_manufacturers.csv,Oman,NUHAS OMAN LLC,Manufacturing,Cables,24449007,alokbasu@nuhasoman.com,N/A,N/A,N/A,Contact: Sunil 99372917; Fax: 24446790,,,,,,,,,,,,,,,,,,,
mena_manufacturers.csv,Oman,OMAN CABLES INDUSTRY (O.C.I),Electrical,Cables,24446464,quadri@omancables.com,N/A,N/A,N/A,Contact: Saeed Qadiri 99349265; Fax: 24446096,,,,,,,,,,,,,,,,,,,
mena_manufacturers.csv,Oman,Oman National Engineering & Investement Co.,Engineering,Engineering and investment,24702075,bala.v@oneic.com.om,N/A,N/A,N/A,Contact: Bala 99217652; Fax: 24797394,,,,,,,,,,,,,,,,,,,
mena_manufacturers.csv,Oman,SHARIKAT FANNIYA OMANIA,Electrical,Electrical,24815970,sfoelect@omantel.net.om,N/A,N/A,N/A,Contact: Abijit 99363078; Fax: 248108706,,,,,,,,,,,,,,,,,,,
mena_manufacturers.csv,Oman,URICH SWITCHGEAR MANUFACTURING CO.,Electrical,Switchgear,24815597,usg_oman@yahoo.com,N/A,N/A,N/A,Contact: Prakash 99824034; Fax: 24818350,,,,,,,,,,,,,,,,,,,
mena_manufacturers.csv,Oman,VOLTAMP MANUFACTURING CO.,Manufacturing,N/A,24446372,aasit@voltampoman.com,N/A,N/A,N/A,Contact: Aaist Naik 99337423; Fax: 24446371,,,,,,,,,,,,,,,,,,,
mena_manufacturers.csv,Oman,VOLTAMP TRANSFORMERS OMAN LTD.,Electrical,Transformers,24446372,aasit@voltampoman.com,N/A,N/A,N/A,Contact: Aaist Naik 99337423; Fax: 24446371,,,,,,,,,,,,,,,,,,,
mena_manufacturers.csv,Kuwait,Ahmad Hassan Boland Sons & Partners Co.,Food and Beverages,Corn chips & snacks,(+965) 24718288 - 24739479,N/A,Sabhan – Block 1 – Street 103 – P.O. Box 20651 Safat 13067 Kuwait,N/A,N/A,Fax: (+965) 24725574,,,,,,,,,,,,,,,,,,,
mena_manufacturers.csv,Kuwait,Al-Seedawi Sweets Factories Co.,Food and Beverages,Packed roasted nuts – Arabian sweets – Candies – Halawa tahinia – Tahina (sesame juice) – Chocolate – Wafers,(+965) 24843994 - 24841551,alsedawi@qualitynet.net,Shuwaikh Industrial Area – Block 6 – Plot 70 – P.O. Box 569 Safat 13006 Kuwait,N/A,N/A,Fax: (+965) 24847488,,,,,,,,,,,,,,,,,,,
mena_manufacturers.csv,Kuwait,Arabian Beverage Company (ABC),Food and Beverages,Natural fruit juices – Yogurt & dairy products – Mineral water – Milk & flavored milk,(+965) 1802066 – 24736222,admin@abcjuice.com.kw,North Sabhan – Block 5 – Street 103 – P.O. Box 3022 Safat 13031 Kuwait,N/A,N/A,Fax: (+965) 24722793 – 24752881; Website: www.abcjuice.com.kw,,,,,,,,,,,,,,,,,,,
mena_manufacturers.csv,Kuwait,Conserved Food Distributing Co (Khazan),Food and Beverages,Chilled / frozen processed meat – Chilled / frozen processed poultry – Frozen processed sea food – Other frozen processed products – Canned food – Cake & pastries,(+965) 24722135 / 6 / 7/ 8/ 9,khazan@wazzan.com,Sabhan – Block 1 – Street 1 – P.O. Box 26226 Safat 13123 Kuwait,N/A,N/A,Fax: (+965) 24722142; Website: www.mezzan.com,,,,,,,,,,,,,,,,,,,
mena_manufacturers.csv,Kuwait,Food Industries Company (Fico),Food and Beverages,Potato chips – Corn starch snacks,(+965) 1803344 – 24742242,fico@ficofood.com,Sabhan – Block 1 – Street 11 – P.O. Box 26221 Safat 13123 Kuwait,N/A,N/A,Fax: (+965) 24730141; Website: www.ficofood.com,,,,,,,,,,,,,,,,,,,
mena_manufacturers.csv,Kuwait,Gulf Pastries Manufacturing Company,Food and Beverages,Cake – Pastries,(+965) 24745455 – 24745400,sara@wazzan.com,Sabhan – Block 10 – Street 1 – P.O. Box 3531 Safat 13036 Kuwait,N/A,N/A,Fax: (+965) 24748510; Website: www.mezzan.com,,,,,,,,,,,,,,,,,,,
mena_manufacturers.csv,Kuwait,Jercy Foodstuff Inc.,Food and Beverages,Potato chips & snacks – Popcorn – Jam – Honey – Salt – Black / white pepper – White / brown sugar,(+965) 24716402,jercyfoodstuff@hotmail.com,Sabhan – Block 1 – Street 13 – Plot 145 – P.O. Box 2508 Jahra 1027 Kuwait,N/A,N/A,Fax: (+965) 24713590; Website: www.jercycanary.com,,,,,,,,,,,,,,,,,,,
mena_manufacturers.csv,Kuwait,Kuwait Biscuit & Food Products Manufacturing Co.,Food and Beverages,Chips & snacks – Biscuits – Wafers – Sugar cubes & Icing sugar,(+965) 24745400 – 24745455,kbc@wazzan.com,Sabhan – Block 1 – Street 11 – P.O. Box 335 Hawali 32004,N/A,N/A,Fax: (+965) 24748510; Website: www.mezzan.com,,,,,,,,,,,,,,,,,,,
mena_manufacturers.csv,Kuwait,Kuwait Flour Mills & Bakeries Company,Food and Beverages,Wheat flour Biscuits – Macaroni – Vegetable oil & ghee – Arabic / European bread – Animal feed,(+965) 24841866,sales@flour-mills.com.kw,Shuwaikh – Jamal Abdul Naser Street – P.O. Box 681 Safat 13007 Kuwait,N/A,N/A,Fax: (+965) 24841590; Website: www.kuwaitflourmills.com,,,,,,,,,,,,,,,,,,,
mena_manufacturers.csv,Kuwait,Kuwait Food Company (Americana - Commercial Trading & Bakeries Division),Food and Beverages,Croissant / Mini Croissant – Mini Pate – Rusk – Bread Crumbs – Cold Sandwiches – Frozen Pastries (Puff Pastry, Sambousa) – Salads,(+965) 24735476 – 24735661,trade@americanaf.com,Sabhan – Block 1 – P.O. Box 5078 Safat 13051 Kuwait,N/A,"N/A,Fax: (+965) 24767232; Website: www.Americana-group.net",,,,,,,,,,,,,,,,,,,
mena_manufacturers.csv,Kuwait,Kuwait Protein & Fat Production Company,Food and Beverages,Animal feed (meat & bone powder) – Inedible tallow,(+965) 24672712 – 24678024,kpfpco@yahoo.com,Al-Mirqab – Abdullah Mubarak Street – Al-Niffisi Building – P.O. Box 22967 Safat 12092 Kuwait,N/A,N/A,Fax: (+965) 24678054,,,,,,,,,,,,,,,,,,,
mena_manufacturers.csv,Kuwait,Kuwait United Poultry Company,Food and Beverages,Fresh eggs – Columbus eggs – Fresh chicken – Frozen chicken,(+965) 24810033,info@kupco.net,Shuwaikh – Jamal Abdul Naser Street – P.O. Box 1236 Safat 13013 Kuwait,N/A,N/A,Fax: (+965) 24818864; Website: www.kupco.net,,,,,,,,,,,,,,,,,,,
mena_manufacturers.csv,Kuwait,Livestock Transport & Trading Co. - Meat Factory,Food and Beverages,Frozen products (mutton, beef, poultry) – Cooked products (mutton, beef, poultry) – Chilled New Zealand & Australian mutton carcasses – Frozen New Zealand mutton cuts – Chilled beef & veal cuts,(+965) 22420669 – 24676101,"sales@kltt.com.kw,Sulaibiya Agricultural Area – Block 12 – P.O. Box 23727 Safat 13098 Kuwait,N/A,N/A,Fax: (+965) 24676113; Website: www.kltt.com.kw",,,,,,,,,,,,,,,,,,,
mena_manufacturers.csv,Kuwait,Mickey Snax (Light Food Company),Food and Beverages,Natural potato chips – Snacks (processed potato),(+965) 24711531 – 24711534,contact@mickeysnax.com,Sabhan – Block 10 – Plot 58 – P.O. Box 26704 Safat 13129,N/A,N/A,Fax: (+965) 24711523,,,,,,,,,,,,,,,,,,,
mena_manufacturers.csv,Kuwait,National Canned Food Product & Trade Co (Dania),Food and Beverages,Canned meat – Canned vegetables and legumes – Vinegar – Mineral water,(+965) 24748866,national@wazzan.com,Sabhan – Block 1 – Street 3 – P.O. Box 25452 Safat 13115 Kuwait,N/A,N/A,Fax: (+965) 24722142; Website: www.daniah.com,,,,,,,,,,,,,,,,,,,
mena_manufacturers.csv,Kuwait,National Fishing Company,Food and Beverages,Fresh / frozen fish – Fresh / frozen shrimps – Processed seafood,(+965) 1807766 – 24827999,nfcinfo@nfcq8.com,Shuwaikh Industrial Area – Block A – Plot 89 – P.O. Box 27511 Safat 13136 Kuwait,N/A,N/A,Fax: (+965) 24847181; Website: www.nfcq8.com,,,,,,,,,,,,,,,,,,,
mena_manufacturers.csv,Kuwait,Petra Trading & Manufacturing Food Stuff,Food and Beverages,Dairy products – Juices – Cakes,(+965) 24733362 – 1802280,Petra@qualitynet.net,Sabhan – Block 7 – Street 103 – P.O. Box 3331 Safat 13034 Kuwait,N/A,N/A,Fax: (+965) 24745978; Website: www.Petrafood.com,,,,,,,,,,,,,,,,,,,
mena_manufacturers.csv,Kuwait,Refreshment Trading Company,Food and Beverages,Soft drinks – Mineral water – Juices,(+965) 24746888,rtccoke@kems.net,Sabhan – Block 11 – Street 1 – P.O. Box 1044 Safat 13011 Kuwait,N/A,N/A,Fax: (+965) 24741688,,,,,,,,,,,,,,,,,,,
mena_manufacturers.csv,Kuwait,Shuaiba Animal Feed Factory,Food and Beverages,All types of animal feed (both pellets and powder),(+965) 23260831,saffkwt@hotmail.com,Shuaiba Industrial Area – Block 5 – P.O. Box 2145 Safat 13075 Kuwait,N/A,N/A,Fax: (+965) 23260837 – 22446503; Website: www.mykitco.com,,,,,,,,,,,,,,,,,,,
mena_manufacturers.csv,Kuwait,The Kuwait Indo Trading Company ltd,Food and Beverages,Potato chips & snacks – Corn starch snacks,(+965) 1802345,kitco@wazaan.com,Sabhan – Block 1 – Street 11 – P.O. Box 2135 Safat 13022 Kuwait,N/A,N/A,Fax: (+965) 24764889; Website: www.mykitco.com,,,,,,,,,,,,,,,,,,,
mena_manufacturers.csv,Kuwait,The Mediator for Industries & Com. Co (Juice Factory),Food and Beverages,Juices,(+965) 24734336 – 24739670,plasticc@hotmail.com,Sabhan – Block 1 – Street 12 – P.O. Box 3802 Safat 13039 Kuwait,N/A,N/A,Fax: (+965) 24768175,,,,,,,,,,,,,,,,,,,
mena_manufacturers.csv,Kuwait,Al-Baghli Sponge Manufacturing Company,Textiles, Clothing & Leather Industries,Pillow cases & sheet sets,(+965) 24761444,sponge@albaghli.com,Sabhan – Block 2 – Street 101 – P.O. Box 29920 Safat 13160 Kuwait,N/A,"N/A,Fax: (+965) 24762999; Website: www.albaghli-sponge.net",,,,,,,,,,,,,,,,,,,
mena_manufacturers.csv,Kuwait,Burgan Shoes Manufacturing Company,Textiles, Clothing & Leather Industries,Military shoes – Safety shoes – Casual shoes,(+965) 24733228 – 24731589,q8shoes@qualitynet.net,Sabhan – Block 2 – Street 102 – P.O. Box 3063 Safat 13031 Kuwait,N/A,"N/A,Fax: (+965) 24714062",,,,,,,,,,,,,,,,,,,
mena_manufacturers.csv,Kuwait,Carpets Industry Company K.S.C.,Textiles, Clothing & Leather Industries,100 % Polyester carpets cut piles - straight and frieze yarn - 100 % PP BCF loop carpets,(+965) 24719000,info@carpetskuwait.com,Northern Sabhan – Block 6 – Street 104 - P.O. Box 929 Hawalli 32010 Kuwait,N/A,"N/A,Fax: (+965) 24763669; Website: www.carpetskuwait.com",,,,,,,,,,,,,,,,,,,
mena_manufacturers.csv,Kuwait,Gulf Leather Industries,Textiles, Clothing & Leather Industries,Shoes for men and women – Army shoes & safety shoes – Leather products (bags, wallets, belts),(+965) 24739766,gsf_kwt@yahoo.com,"Sabhan – Block 6 – Street 62 – P.O. Box 2336 Safat 13024 Kuwait,N/A,N/A,Fax: (+965) 24742046",,,,,,,,,,,,,,,,,,,
mena_manufacturers.csv,Kuwait,Gulftex Industries Co.,Textiles, Clothing & Leather Industries,Pillows & quilts - Cushions - Polyester fiber yarns,(+965) 24720874 – 24758892/ 3/4,info@gulftexindustries.com,Sabhan – Block 2 – Street 23 – P.O. Box 26532 Safat 13126 Kuwait,N/A,"N/A,Fax: (+965) 24720869 – 24758891; Website: www.gulftexindustries.com",,,,,,,,,,,,,,,,,,,
mena_manufacturers.csv,Kuwait,Kuwait Cotton Products Co. For Trade & Industry,Textiles, Clothing & Leather Industries,Pillows – Bed sheets & quilts,(+965) 24742287 – 24742288,kcpckt@kcpckt.com,Sabhan – Block 1 – Street 11 – P.O. Box 24301 Safat 13104 Kuwait,N/A,"N/A,Fax: (+965) 24742513; Website: www.kcpckt.com",,,,,,,,,,,,,,,,,,,
mena_manufacturers.csv,Kuwait,National Tannery Company,Textiles, Clothing & Leather Industries,Arabian / Australian skin – Arabian / Australian wool,(+965) 24676147 – 24676148,ntc@qualitynet.net,Sulaibiya Industrial Area – Block 1 – Street 3 – P.O. Box 1048 Safat 13011 Kuwait,N/A,"N/A,Fax: (+965) 24679777",,,,,,,,,,,,,,,,,,,
mena_manufacturers.csv,Kuwait,National Textile Company,Textiles, Clothing & Leather Industries,Towels – Polyester / cotton sheets – Table linen – Polyester Pillows – Comforters – Cotton products (Pilgrimage towels, t-shirts, ghutras),(+965) 24763311 – 24714347,alrabea@qualitynet.net,"Sabhan – Block 2 – Street 104 – P.O. Box 25186 Safat 13112 Kuwait,N/A,N/A,Fax: (+965) 24761122; Website: www.ntckuwait.com",,,,,,,,,,,,,,,,,,,
mena_manufacturers.csv,Kuwait,Al-Jeel Reprographic Industries,Paper & Wood Products,Engineering Papers – Thermal rolls,(+965) 24712918 – 24769875,Kuriakose@al-alfin.com,Sabhan – Block 2 – Plot 200 – P.O. Box 25726 Safat 13118 Kuwait,N/A,N/A,Fax: (+965) 24769876,,,,,,,,,,,,,,,,,,,
mena_manufacturers.csv,Kuwait,Alrawdah Paper & Nylon Products Plate Carton Company,Paper & Wood Products,Paper bags – Paper rolls – Paper plates – Carton products,(+965) 24710429 – 24832901 – 24740162,alrawdah_RPPC@hotmail.com,Sabhan – Block 2 – Street 21 – P.O. Box 33065 Safat 73451 Kuwait,N/A,N/A,Fax: (+965) 24740194 – 24848301; Website: www.alrawdah-co.com,,,,,,,,,,,,,,,,,,,
mena_manufacturers.csv,Kuwait,Caesar Pac Carton & Paper Products Company,Paper & Wood Products,Corrugated carton & paper products,(+965) 24610077,caesarpac@caesarsgroup.net,Kuwait Free Trade Zone - Block 2 B - Plot 5 - P.O. Box 5592 Safat 13056 Kuwait,N/A,N/A,Fax: (+965) 24610177; Website: www.caesarsgroup.net,,,,,,,,,,,,,,,,,,,
mena_manufacturers.csv,Kuwait,Hayakel Steel Industries Co.,Basic Metal Industries,Tankers (water, fuel, sewage) –Trailers & Semi Trailers – Garbage Compactors – Security Products,(+965) 1844888 – 24720088,info@hayakel.com,Sabhan – Block 3 –P.O. Box 145 Safat 13002 Kuwait,"N/A,N/A,Fax: (+965) 24749759; Website: www.hayakel.com",,,,,,,,,,,,,,,,,,,
mena_manufacturers.csv,Kuwait,Integral Services Co.,Basic Metal Industries,Heat exchangers,(+965) 23262706 / 7,iscocrop@isco.com.kw,Western Shuaiba – Block 6 – Plot 80 - P.O. Box 3683 Salmiya 22037 Kuwait,N/A,N/A,Fax: (+965) 23262717 - 23263193; Website: www.isco.com.kw,,,,,,,,,,,,,,,,,,,
mena_manufacturers.csv,Kuwait,Khalid Ali Al-Kharafi & Bros. Co. (Kharafi Steel),Basic Metal Industries,Structural steel – Pre-engineered steel buildings – Space frames – Pipes – Steel tanks – Steel doors (plain and fire rated) – Porta cabins – Aluminum composite panels – Galvanized products,(+965) 24845100 - 24873400,kaksteel@qulaitynet.net,Shuwaikh Industrial Area – Block B – Plot 100, 101, - P.O. Box 2886 Safat 13029," Kuwait,N/A,N/A,Fax: (+965) 24835501 - 24873500; Website: www.kharafisteel.net/index.htm",,,,,,,,,,,,,,,,,,,
mena_manufacturers.csv,Kuwait,Kuwait Aluminum & Brass Industries Co.,Basic Metal Industries,Aluminum housewares – Iron gas burners & other products made of iron,(+965) 24715884 – 24814419,info@kabi-kw.com,Sabhan – Block 9 – Street 102 – P.O. Box 3937 Safat 13040 Kuwait,N/A,N/A,Fax: (+965) 24840202; Website: www.kabi-kw.com,,,,,,,,,,,,,,,,,,,
mena_manufacturers.csv,Kuwait,Kuwait Aluminum Extrusion Company,Basic Metal Industries,Aluminum Extrusion – Anodizing,(+965) 24738509 – 24745434,extrusion@kalexco.com,Sabhan – Block 8 – Street 84 – Plot 208 –P.O. Box 24501 Safat 13106 Kuwait,N/A,N/A,Fax: (+965) 24710694; Website: www.kalexco.com,,,,,,,,,,,,,,,,,,,
mena_manufacturers.csv,Kuwait,Kuwait Foundry Company,Basic Metal Industries,Manhole covers - Drainage pipes & fittings - Other castings,(+965) 24766691/2/3/4,srp737@hotmail.com,Ray Industrial Area – Block 1 – Street 10 – P.O. Box 1393 Safat 13014 Kuwait,N/A,N/A,Fax: (+965) 24763033,,,,,,,,,,,,,,,,,,,
mena_manufacturers.csv,Kuwait,Kuwait Pipe Industries and Oil Services Company,Basic Metal Industries,Spirally welded carbon steel pipes,(+965) 24674843 – 24675622,kpios@kpios.com,Sulaibiya Industrial Area – Block 1 – Street 4 – P.O. Box 3416 Safat 13035 Kuwait,N/A,N/A,Fax: (+965) 24675897; Website: www.kpios.com,,,,,,,,,,,,,,,,,,,
mena_manufacturers.csv,Kuwait,Metal Products Accessories Co.,Basic Metal Industries,Beach chairs & umbrellas – Steel furniture (ladders - ironing tables - cloth dryers – cloth hangers – bases for gas cylinders and fridges),(+965) 24755292,metalproductsm@yahoo.com,Sabhan – Block 2 – Street 102 - Plot 73 - P.O. Box 99 Shamiya 71661, Kuwait,N/A,"N/A,Fax: (+965) 24755191; Website: www.mpcoj.com",,,,,,,,,,,,,,,,,,,
mena_manufacturers.csv,Kuwait,Metal Products Company,Basic Metal Industries,Galvanized Iron Profiles – Aluminum Ceiling of different Sizes,(+965) 24731287 – 24737916,mpc@kems.net,Sabhan – Block 6 – Street 62 - P.O. Box 3973 Safat 13040 Kuwait,N/A,N/A,Fax: (+965) 24737932; Website: www.mpckw.com,,,,,,,,,,,,,,,,,,,
mena_manufacturers.csv,Kuwait,New Exhibition Company,Basic Metal Industries,Electric Water Heaters – Water Cooling & Heating Equipments – Food Heating Equipment,(+965) 24822084 – 24716683,newexhib@newexhib.com,Shuwaikh – Al-Jawazat Street– P.O. Box 2383 Safat 13024 Kuwait,N/A,N/A,Fax: (+965) 24813083 – 24766993; Website: www.newexhib.com,,,,,,,,,,,,,,,,,,,
mena_manufacturers.csv,Kuwait,Refrigeration Industries and Storage Company,Basic Metal Industries,Central & Split Air-conditioning units,(+965) 1833380 - 24679732,risco@ricoolex.com,Sulaibiya – Block 1 – P.O. Box 22261 Safat 13083 Kuwait,N/A,N/A,Fax: (+965) 24673562; Website: www.riscoolex.com,,,,,,,,,,,,,,,,,,,
mena_manufacturers.csv,Kuwait,Sa’ad Murshad General Trade & Construction Establishment,Basic Metal Industries,Interior & Exterior Signs – Safety Signs – Road Markings – Metal Works,(+965) 23988171 – 23263888,mail@ smurshedest.com,West Industrial Shuaiba – Block 5 – P.O. Box 9716 Ahmadi 61008 Kuwait,N/A,N/A,Fax: (+965) 23988172 – 23263880; Website: www.smurshedest.com,,,,,,,,,,,,,,,,,,,
mena_manufacturers.csv,Kuwait,Sofan Steel and Metal Furniture Factory,Basic Metal Industries,Steel pipes – Hollow sections – Galvanized steel sheets – Corrugated sheets – Decoration steel,(+965) 24763841 / 91 - 24812337,faid@sofansteel.com,Al Rai – Block 1 – Plot 1822 - P.O. Box 42087 Shuwaikh 70651 , Kuwait,N/A,"N/A,Fax: (+965) 24763868 - 24831139; Website: www.sofansteel.com",,,,,,,,,,,,,,,,,,,
mena_manufacturers.csv,Kuwait,Specialties Expanded Metal Factory (Kumex),Basic Metal Industries,Metal Lath – Angle Beads – Brick Mesh – Plaster stop,(+965 ) 24565145/ 65,technical@aspeckuwait.com,Amghara Industrial Area – Block 4 – Plot 106 , 108 , 110 - P.O. Box 23595 Safat 13096 ," Kuwait,N/A,N/A,Fax: ( +965 ) 24565135; Website: www.kumex.net",,,,,,,,,,,,,,,,,,,
mena_manufacturers.csv,Kuwait,Steel Panel Center,Basic Metal Industries,Insulated Sandwich Panels – Corrugated & Plain Sheet Iron – Pre-Fabricated Buildings – Al,(+965) 24828200 – 24827532,nblramadan@yahoo.com,Shuwaikh Industrial Area – Mohammad Ben Al Qasim Street –P.O. Box 399 Dasman 15454 Kuwait,N/A,N/A,Fax: (+965) 24828201; Website: www.spckuwait.com,,,,,,,,,,,,,,,,,,,
mena_manufacturers.csv,Kuwait,United Steel Industrial Company,Basic Metal Industries,Reinforced steel bars,(+965) 22422200 – 22444231,commercial@unisteelkuwait.com,Shuaiba Industrial Area –Block 4 – Plot 71 – P.O. Box 1370 Safat 13014 Kuwait,N/A,N/A,Fax: (+965) 22444232; Website: www.unisteelkuwait.com,,,,,,,,,,,,,,,,,,,
mena_manufacturers.csv,Kuwait,Universal Steel Factory,Basic Metal Industries,Stainless Steel Tanks – Stainless Steel Trolleys –Stainless Steel Insulated Water Coolers – Water Heater Tanks – Stainless Steel Cooking Equipments – Stainless steel Tankers – Stainless Steel / Carbon Steel Pipes & Fittings – Stainless Steel Decoration,(+965) 22650372 / 3,universal-steel-architect@hotmail.com,West Industrial Shuaiba – Block 5 – P.O. Box 511 Surra 45706 Kuwait,N/A,N/A,Fax: (+965) 25352442,,,,,,,,,,,,,,,,,,,
mena_manufacturers.csv,Kuwait,Kuwait Cement Company,Non Metal Mining,Ordinary Portland cement – Sulphate resisting cement – Al- Ramadi (Masonry cement) – Clinker,(+965 ) 22401700 - 23261621,alcement@kuwait-cement.com,Kuwait City -Cement House -at the intersection of Al- Shuhada Street with Khaled Ibn Al-Waleed Street, Al-Sawaber Area- P.O. Box 20581 Safat 13066 Kuwait,N/A,"N/A,Fax: (+965) 22432956 - 22440896; Website: www.Kuwait-cement.com",,,,,,,,,,,,,,,,,,,
mena_manufacturers.csv,Kuwait,Metal Products Company,Non Metal Mining,Gypsum Ceiling Tiles,(+965) 24731287 – 24737916,mpc@kems.net,Sabhan – Block 6 – Street 62 - P.O. Box 3973 Safat 13040 Kuwait,N/A,N/A,Fax: (+965) 24737932; Website: www.mpckw.com,,,,,,,,,,,,,,,,,,,
mena_manufacturers.csv,Kuwait,National Industries Company for Building Materials,Non Metal Mining,Al-Abyad Blocks – Sand Lime Bricks – Interlock Tiles,(+965) 1844555 – 24837099,Sales@nicbm.com,Shuwaikh – Crossroads of Jahra Road and Airport Road – P.O. Box 3314 Safat 13034 Kuwait,N/A,N/A,Fax: (+965) 24833498; Website: www.nicbm.com,,,,,,,,,,,,,,,,,,,
mena_manufacturers.csv,Kuwait,Quality International Plant,Non Metal Mining,Concrete mix (all grades) –Swift Crete mix – Crack resisting mix – splash mix – screed mix- raw materials (washed sand and gravel of different sizes),(+965) 24580887,info@qiplant.com,Amghara Industrial Area – Block 4 – Plot 19 , 20 - P.O. Box 66678 Bayan, Kuwait,"N/A,N/A,Fax: (+965) 24560887; Website: www.qiplant.com",,,,,,,,,,,,,,,,,,,
mena_manufacturers.csv,Kuwait,Abbas Ali A-Hazeem & Partners Co. for Mattresses,Other Manufacturing Industries,Spring Mattresses – Headboards & Boxes – Bedrooms – Sofa Sets,(+965) 24731309 - 24738712,hazeem@qualitynet.com,Sabhan – Block 2- Street 21 –P.O. Box 497 Farwaniah Kuwait,N/A,N/A,Fax: (+965) 24735732,,,,,,,,,,,,,,,,,,,
mena_manufacturers.csv,Kuwait,Al-Baghli Sponge Manufacturing Company,Other Manufacturing Industries,Spring Mattresses – Polyester Pillows & Quilts,(+965 ) 24761444,sponge@albaghli.com,Sabhan – Block 2 – Street 101 – P.O. Box 29920 Safat 13160 Kuwait,N/A,N/A,Fax: (+965 ) 24762999; Website: www.albaghli-sponge.net,,,,,,,,,,,,,,,,,,,
mena_manufacturers.csv,Kuwait,Domain General Trading & Contracting Co.,Other Manufacturing Industries,Furniture & Interior Design,(+965) 24717566 - 24717552,domainkwt@yahoo.com,Sabhan – Block 6 – Street 61 – P.O. Box 3783 Hawali 32069 Kuwait,N/A,N/A,Fax: (+965) 24717498; Website: www.dominkwt.com,,,,,,,,,,,,,,,,,,,
mena_manufacturers.csv,Kuwait,Final Touches Co.,Other Manufacturing Industries,Furniture – Curtains – Accessories – Fabrics – Execution of interior designs,(+965) 24821143 - 1808899,finaltouches@usa.com,Shuwaikh –Canadadry Street –Wara Center– P.O. Box 22922 Safat 13090 Kuwait,N/A,N/A,Fax: (+965) 24822081,,,,,,,,,,,,,,,,,,,
mena_manufacturers.csv,Kuwait,Mattress & Sofa Industries Co. (Al Fares Industries),Other Manufacturing Industries,Spring & normal mattresses – Divan Base – Head boards / Feet Boards – Sofa sets,(+965 ) 24720871 / 2 / 3 / 4,info@alfaresindustries.com,Sabhan –Block 2 – Street 24 – P.O. Box 2947 Safat 13030 Kuwait,N/A,N/A,Fax: (+965 ) 24720869; Website: www.alfaresindustries.com,,,,,,,,,,,,,,,,,,,
mena_manufacturers.csv,Kuwait,Nijaracraft Furniture & joinery,Other Manufacturing Industries,Desks (conferences, reception…etc) – Wall cladding – Vanity cabinets & counters- Solid surfaces (tops, cladding …etc),(+965) 24719884,admin@nijaracraft.com,South Sabhan – Block 8 – Street 103 - P.O. Box 28903 Safat 13150 Kuwait,"N/A,N/A,Fax: (+965) 24743863",,,,,,,,,,,,,,,,,,,
saudi_factories.csv,,,,,+966 xxxxxxxxxx,,,,,,,,,,,,,,,,,,,,Abdulaziz & Saad Al Moajil Co.,,,Eastern Province,Abdulaziz & Saad Al Moajil Co. was established in 1928 as a collective partnership company between the two brothers Abdulaziz & Saad and started functioning as a food stuff import company.
saudi_factories.csv,,,,,+966 112016528,,,,,,,,,,,,,,,,,,,,Advanced Solutions Company,,Riyadh,Riyadh,Comprehensive Software Solutions to Elevate Your Business We offer a range of intelligent software solutions to help you efficiently manage and streamline your operations: ✅ Enterprise Resource...
saudi_factories.csv,,,,,+966 xxxxxxxxxx,,,,,,,,,,,,,,,,,,,,Al Joaib Plastic Factory,,,Eastern Province,Today we are surrounded by products made out by plastic and it’s hard to imagine a world without plastic manufacturers. But how did it all begin and when was the birth of plastic? In 1862 the first...
saudi_factories.csv,,,,,+966 566838672,,,,,,,,,,,,,,,,,,,,Al Kuhaimi Group,,Dammam,Eastern Province,"AlKuhaimi Group of Companies founded in 1975 with the initial establishment of AlKuhaimi Metal Industries in Dammam, Saudi Arabia. The growth and stability of the Saudi market various sectors necessit..."
saudi_factories.csv,,,,,+966 xxxxxxxxxx,,,,,,,,,,,,,,,,,,,,Al Qahtani Pipe Coating Industries,,,Eastern Province,Abdel Hadi Abdullah Al-Qahtani Group of Companies established in 1940’s and has been expanded to cover various activities and considered to be one of the largest and most reputable privately owned...
saudi_factories.csv,,,,,+966 552295924,,,,,,,,,,,,,,,,,,,,Al Rish Al Khaleeji Trading Co.,,,Riyadh,"Is a leading provider of high-quality advertising and signage materials, committed to turning creative ideas into impactful marketing solutions. Since our inception, we have been serving clients acros..."
saudi_factories.csv,,,,,+966 xxxxxxxxxx,,,,,,,,,,,,,,,,,,,,Al Shifa Medical Products Co.,,Dammam,Eastern Province,"Since our establishment in 1980, we have committed to ourselves to making the healthcare environment safe and clean by manufacturing the latest and highest-quality medical disposable. We achieved that..."
saudi_factories.csv,,,,,+966 xxxxxxxxxx,,,,,,,,,,,,,,,,,,,,Al-Jubail Sanitary Pipe Factory,,Jubail,Eastern Province,"JSPF is the trade name of Al-Jubail Sanitary Pipe Factory owned 100% by a Saudi Individual. It was established in 1985, since then JSPF has become one of the largest manufacturer and supplier of Polye..."
saudi_factories.csv,,,,,+966 564240789,,,,,,,,,,,,,,,,,,,,Al-Suyuf Factory,,Jeddah,Makkah,"Al-Suyuf factory is one of the well-known manufacturers in Saudi Arabia for producing plastic bags. If you're looking for biodegradable or eco-friendly plastic bags, we provide all types of plastic ba..."
saudi_factories.csv,,,,,+966 558584966,,,,,,,,,,,,,,,,,,,,Alam Albaitar Trading Co.,,Khamis Mushayt,Asir,"We are one of the leading companies in the field of high-quality paint manufacturing in the Kingdom of Saudi Arabia. Our factory is located in Khamis Mushait and was established in 2008. Since then, o..."
saudi_factories.csv,,,,,+966 xxxxxxxxxx,,,,,,,,,,,,,,,,,,,,Alanwar Factory Co.,,Riyadh,Riyadh,"Alanwar Factory Co. is a leading factory in Saudi Arabia in the production of street light poles, street lights, and lighting accessories. The factory was established in 1392 in the 1st industrial Cit..."
saudi_factories.csv,,,,,+966 xxxxxxxxxx,,,,,,,,,,,,,,,,,,,,Alaousaj,,Jizan,Jazan,"Alaousaj established in Saudi Arabia, is dedicated to providing comprehensive and reliable pharmaceutical services to the community. We offer a wide range of medicines, healthcare products, and profes..."
saudi_factories.csv,,,,,+966 591596878,,,,,,,,,,,,,,,,,,,,Albitar Factory Company,,Dammam,Eastern Province,"Albitar factory is a wholly Saudi owned entity that was founded in 1974 in the First Industrial City, Eastern Province of Saudi Arabia and is a leading provider which is dedicated to quality work and..."
saudi_factories.csv,,,,,+966 13 882 9996,,,,,,,,,,,,,,,,,,,,Alfalak Electronic Equipment & Supplies Co.,,Khobar,Eastern Province,Al-Falak Electronic Equipment & Supplies Co. is a leading IT and communications solution provider that has continuously been ranked by Arab News as one of the top 100 Companies in Saudi Arabia. Wi...
saudi_factories.csv,,,,,+966 xxxxxxxxxx,,,,,,,,,,,,,,,,,,,,ALHamoudi Sign Systems,,Riyadh,Riyadh,"Since 1990, Al-Hamoudi established an integrated media system for providing integrated advertising services whether companies, institutions, or individuals, in the Kingdom of Saudi Arabia market. Addi..."
saudi_factories.csv,,,,,+966 xxxxxxxxxx,,,,,,,,,,,,,,,,,,,,alharamain factory,,Al Kharj,Riyadh,It is a factory specialized in the field of uniforms. Categories: Medical uniforms. Brands: Wonderwink · Healing Hands · Hampton · Coy · Grey's Anatomy.
saudi_factories.csv,,,,,+966 138472211,,,,,,,,,,,,,,,,,,,,AlMutlaq Furniture,,Dammam,Eastern Province,"ALMUTLAQ FURNITURE was founded in 1954 and since then the company was a leader and pioneer in the furniture retail market, in furniture manufacturing, and in contract furnishing. For decades the compa..."
saudi_factories.csv,,,,,+966 550723222,,,,,,,,,,,,,,,,,,,,Alsharq Factory,,Jeddah,Makkah,"Based in Jeddah, Saudi Arabia, Al Sharq Al Adna Manufacturing specializes in producing high-quality Wood-Plastic Composite (WPC) products. With a focus on durability, sustainability, and innovation, w..."
saudi_factories.csv,,,,,+966 xxxxxxxxxx,,,,,,,,,,,,,,,,,,,,Aluminium Manufacturing Co. Ltd,,Dammam,Eastern Province,ALUMACO is one of the largest and most prestigious architectural aluminum fabricators and installers in the Middle East. This achievement was made through advanced material management and technical en...
saudi_factories.csv,,,,,+966 58 392 6917,,,,,,,,,,,,,,,,,,,,Alwasat Printing Company,,Dammam,Eastern Province,"AlWasat Printing Company is one of the pioneers in providing high quality printing services. Whether in design, accuracy or execution, the company’s strength lies in its approach that works to meet..."
saudi_factories.csv,,,,,+966 xxxxxxxxxx,,,,,,,,,,,,,,,,,,,,Aqua Cool Saudi Arabia,,Dammam,Eastern Province,"Established in 1985, Aqua Cool is the first, and remains the longest serving, 5 gallon bottled drinking water supplier in the Kingdom of Saudi Arabia. Licensed by the Ministry of Industry and the Saud..."
saudi_factories.csv,,,,,+966 xxxxxxxxxx,,,,,,,,,,,,,,,,,,,,Arabian Minerals and Chemicals Co. Ltd,,Dammam,Eastern Province,"Arabian Minerals and Chemical Company Ltd. (AMC) is a Saudi Arabian Chemical Manufacturing Company supporting the Oil & Gas Industry for over 45 years. Established in 1976, AMC is one of the most..."
saudi_factories.csv,,,,,+966 xxxxxxxxxx,,,,,,,,,,,,,,,,,,,,Arabian Seals Company Ltd. (ASC),,Dammam,Eastern Province,"The first Saudi Arabian Joint Venture company to manufacture, sell and service mechanical seals, sealing systems and other related products for the Petroleum, Petrochemical, Chemical, Power Generation..."
saudi_factories.csv,,,,,+966 920011127,,,,,,,,,,,,,,,,,,,,Bahra Electric,,Jeddah,Makkah,Bahra Electric was established in 2008 as Bahra Cables. Initially we focused purely on establishing our name in the Wires and Cables industry and are very proud of our achievements to have reached the...
saudi_factories.csv,,,,,+966 506373336,,,,,,,,,,,,,,,,,,,,Brothers Gas Bottling and Distribution Co. LLC,,Riyadh,Riyadh,Brothers Gas Bottling & Distribution Co. LLC established in 1992 as a single bottling unit providing clean & portable fuel solutions has experienced a meteoric rise to our current position as...
saudi_factories.csv,,,,,+966 xxxxxxxxxx,,,,,,,,,,,,,,,,,,,,Delmon Chemical Industries,,Dammam,Eastern Province,"Delmon Chemical Industries - Specialty Chemicals Division, is a part of multi product, multi service Delmon business group. The Delmon group and Delmon Chemical Industries are hundred percent Saudi ow..."
saudi_factories.csv,,,,,+966 xxxxxxxxxx,,,,,,,,,,,,,,,,,,,,Eastern Factory for Ready Houses,,Dammam,Eastern Province,"Eastern Factory for Ready Houses is one of the leading manufacturers/suppliers of Single and double Storey Prefabricated Portable Buildings in Kingdom of Saudi Arabia, Dammam. Established in 1402H (..."
saudi_factories.csv,,,,,+966 xxxxxxxxxx,,,,,,,,,,,,,,,,,,,,Electrical A. Modern Factory Co.,,Dammam,Eastern Province,"EAMFCO is a leading manufacturer of Low Voltage Electrical Panel Board in Saudi Arabia. Our company is professionally managed with over-qualified, experienced and trained personnel, modern equipment..."
saudi_factories.csv,,,,,+966 xxxxxxxxxx,,,,,,,,,,,,,,,,,,,,Electrical Industries Co.,,Dammam,Eastern Province,Electrical Industries Company (EIC) was established with the merging of the leading manufacturers of electrical products in pursuit of a common goal; to satisfy growing demand of electrical equipment...
saudi_factories.csv,,,,,+966 543344577,,,,,,,,,,,,,,,,,,,,Elopak Packaging Company LLC,,Dammam,Eastern Province,"Elopak is a leading global supplier of carton packaging and filling equipment. We use renewable, recyclable and sustainably sourced materials to provide innovative packaging solutions. Our iconic Pure..."
saudi_factories.csv,,,,,+966 xxxxxxxxxx,,,,,,,,,,,,,,,,,,,,Fabco Plastic Factory,,Dammam,Eastern Province,"Fabco Plastic Factory Company Ltd. was established in 1975 at 2nd industrial city of Dammam; Eastern Province, to become one of the industrial castles in KSA for manufacturing Plastic Pipes, Fittings..."
saudi_factories.csv,,,,,+966 535005543,,,,,,,,,,,,,,,,,,,,Glass Speacialized Industry GSI,,Dammam,Eastern Province,Glass Specialized Industries (GSI) is a Glass fabrication factory with more than 30 years experience in the architecture glass sector in the area. GSI was previously known as Almadouie Aluminium and G...
saudi_factories.csv,,,,,+966 xxxxxxxxxx,,,,,,,,,,,,,,,,,,,,Guardian Industries Company Limited,,Dammam,Eastern Province,"Guardian Industries Company Limited was established in 1978, a 100% Saudi company, a subsidiary of Abdul Mohsen Al Tamimi Group."
saudi_factories.csv,,,,,+966 13 534 0500,,,,,,,,,,,,,,,,,,,,Gulf Carton Factory Co,,Al Ahsa,Eastern Province,"Gulf Carton Factory Co. was established in 1994 and belongs to one of the reputed business group from Saudi Arabia, Al Jabr Holding Company. Al Jabr Holding Co. has diverse business such as sole agenc..."
saudi_factories.csv,,,,,+966 xxxxxxxxxx,,,,,,,,,,,,,,,,,,,,Gulf Promotion Company,,Riyadh,Riyadh,"Gulf Promotion Signage and Advertising Co., Saudi Arabia, is a prominent signage and advertising company with a strong presence in the industry. The company has built a reputation for delivering high-..."
saudi_factories.csv,,,,,+966 112016528,,,,,,,,,,,,,,,,,,,,Holol Pack Company,,Riyadh,Riyadh,"Holol Pack is the first company of its kind in the Middle East, dedicated to meeting the diverse needs of customers in the packaging industry through three key approaches: ------ 1️⃣ Pre-Made Pa..."
saudi_factories.csv,,,,,+966 xxxxxxxxxx,,,,,,,,,,,,,,,,,,,,Jo Drinks Factory,,Dammam,Eastern Province,"At JO DRINKS, we uphold a set of core values that form the foundation of our operations and guide us in the non-alcoholic beverage industry."
saudi_factories.csv,,,,,+966 xxxxxxxxxx,,,,,,,,,,,,,,,,,,,,Kadioutdoor Trading Co.,,Dammam,Eastern Province,Leading Experts in Camping & Outdoor Gear Across Saudi Arabia Since 1967. Kadi Out
saudi_factories.csv,,,,,+966 920006826,,,,,,,,,,,,,,,,,,,,MEDICAL Textile Company,,Jeddah,Makkah,"Medical Textile Our products provide high protection and great comfort. We know you rely on disposable apparel to keep your staff protected and comfortable. For this reason, we use the finest mate..."
saudi_factories.csv,,,,,+966 xxxxxxxxxx,,,,,,,,,,,,,,,,,,,,Modern Saudi factory,,Dammam,Eastern Province,"Modern Saudi Factory Equipping central kitchens, hotels, restaurants, stainless steel works, and cold and freezing rooms."
saudi_factories.csv,,,,,+966 5555555555,,,,,,,,,,,,,,,,,,,,Momaizah Metal Fabrication Factory (MFF),,Dammam,Eastern Province,"Since 1983, Momaizah Metal Fabrication Factory LLC (MFF) has been a leading manufacturer in Saudi Arabia and the Gulf, of a variety of metal products, including playground equipment and laboratory fur..."
saudi_factories.csv,,,,,+966 xxxxxxxxxx,,,,,,,,,,,,,,,,,,,,Napco National,,Dammam,Eastern Province,"Napco National employs over 5,000 people across Saudi Arabia and the rest of the GCC, and has grown into becoming a leading manufacturer of Plastic and Paper Packaging Solutions, Recycled Resins, Corr..."
saudi_factories.csv,,,,,+966 xxxxxxxxxx,,,,,,,,,,,,,,,,,,,,National Care Company,,Dammam,Eastern Province,"With over 5,000 employees, National Care Company is recognized as a significant player in the manufacturing industry within Saudi Arabia. The company’s commitment to excellence is evident through th..."
saudi_factories.csv,,,,,+966 xxxxxxxxx,,,,,,,,,,,,,,,,,,,,National Lighting Company LTD.,,Dammam,Eastern Province,"25 years have been completed since National Lighting Company established, over the years the achievements follow. National lighting company has a complete range of indoor and outdoor lighting fixtures..."
saudi_factories.csv,,,,,+966 559767125,,,,,,,,,,,,,,,,,,,,National Signage Industrial Company,,Riyadh,Riyadh,"National Signboards Company for Industry was established as a leading Saudi company specialized in the design, manufacturing, and installation of all types of advertising and directional signage. With..."
saudi_factories.csv,,,,,+966 xxxxxxxxxx,,,,,,,,,,,,,,,,,,,,Oasis Sykes Ltd,,Dammam,Eastern Province,Oasis Sykes Ltd a Saudi Arabian company headquartered in Dammam second industrial city was founded in 1396H by a successful entrepreneur in collaboration with Andrew Sykes UK. Oasis Sykes Ltd is licen...
saudi_factories.csv,,,,,+966 xxxxxxxxxx,,,,,,,,,,,,,,,,,,,,PetroSafe Empowering Industry,,Khobar,Eastern Province,"PetroSafe is a premier supplier of industrial and safety solutions headquartered in Al Khobar, Saudi Arabia. We specialize in providing comprehensive equipment and materials for the Oil & Gas, Pet..."
saudi_factories.csv,,,,,+966 920013559,,,,,,,,,,,,,,,,,,,,Pioneer Way Establishment,,Riyadh,Riyadh,"Telecommunications, distributing technology and information security equipment, including barcode printers, scanners, surveillance cameras, and personal digital assistants; providing software solution..."
saudi_factories.csv,,,,,+966 555789764,,,,,,,,,,,,,,,,,,,,Power Solution Industries,,Riyadh,Riyadh,"Power Solution Industries founded in 2003, based in Dubai & Riyadh is an engineering manufacturing company serving the different sectors of economy in MENA region through its brand of Cable Manage..."
saudi_factories.csv,,,,,+966 xxxxxxxxx,,,,,,,,,,,,,,,,,,,,Rema Industrial Company,,Riyadh,Riyadh,"Rema Industrial Company - From the factory to your doorstep.. Specialized in producing shopping bags, food wrapping bags, freezer bags, and food storage bags of all sizes and thicknesses."
saudi_factories.csv,,,,,+966 562233555,,,,,,,,,,,,,,,,,,,,Riyadh Cables Group,,Dammam,Eastern Province,"Riyadh Cables Group is the largest manufacturer of cables in the Middle East with manufacturing facilities that span 650,000 square meters, and 24 branches covering Saudi Arabia and beyond its borders..."
saudi_factories.csv,,,,,+966 135109090,,,,,,,,,,,,,,,,,,,,Riyadh Ceramics,,Dammam,Eastern Province,"Riyadh Ceramics is a national factory in Saudi Arabia specialized in manufacturing all kinds of porcelain and ceramic tiles. Headquartered in Dammam, Kingdom of Saudi Arabia, Riyadh Ceramics Factory h..."
saudi_factories.csv,,,,,+966 503203416,,,,,,,,,,,,,,,,,,,,RTQ Silicone Factory,,Riyadh,Riyadh,WE ARE FIRST FACTORY FOR SILICONE SEALANT IN KINGDOM OF SAUDI ARABIA
saudi_factories.csv,,,,,+966 551440123,,,,,,,,,,,,,,,,,,,,Safco Industrial Company,,Riyadh,Riyadh,"SAFCO Industrial Company is specialized in the production of liquid and powder detergents and disinfectants. Operating since 1996 in Riyadh, the company manufactures a variety of private label and thi..."
saudi_factories.csv,,,,,+966 13 808 8887,,,,,,,,,,,,,,,,,,,,SAIPIN Company,,Dammam,Eastern Province,"Abdullah Al Saihati Factory for Plastic Industries, popularly known as SAIPIN is a manufacturing enterprise of Saihati Group of Companies established in the year 2003. The company is involved in the m..."
saudi_factories.csv,,,,,+966 13 847 1959,,,,,,,,,,,,,,,,,,,,Salama Radiators,,Dammam,Eastern Province,Salama Radiator Factory is among the leading and technologically advanced Saudi companies in the field of radiator and cooler manufacturing in the Middle East. The company was founded in 1977 on the v...
saudi_factories.csv,,,,,+966 118298888,,,,,,,,,,,,,,,,,,,,Saudi Ceramics,,Riyadh,Riyadh,"Saudi Ceramics is a full solution provider that has mastered the methodology of an ancient craft. By manufacturing products from raw materials to end users for over 42 years, the company has gained an..."
saudi_factories.csv,,,,,+966 xxxxxxxxxx,,,,,,,,,,,,,,,,,,,,Saudi Diesel Equipment,,Khobar,Eastern Province,"Established in 1978, Saudi Diesel Equipment Company (SDEC)—formerly known as Saudi Diesel Generators Company—is a key subsidiary of the Abduljawad Group of Companies. What began as a local manufac..."
saudi_factories.csv,,,,,+966 554595885,,,,,,,,,,,,,,,,,,,,Saudi Factory For Drums Co. (SRCO),,Riyadh,Riyadh,"The Saudi Drum Factory (SRCO) stands as a leading industrial pioneer in the Kingdom of Saudi Arabia, specializing in the production of a diverse range of plastic and metal products. We proudly serve m..."
saudi_factories.csv,,,,,+966 xxxxxxxxxx,,,,,,,,,,,,,,,,,,,,Saudi Industrial Paint Co. Ltd,,Dammam,Eastern Province,"Dedicated to technical excellence, the supply of quality products and high levels of service; Saudi Industrial Paint Company Limited is one of the most prominent Saudi Arabian manufacturers. Establish..."
saudi_factories.csv,,,,,+966 548956991,,,,,,,,,,,,,,,,,,,,Saudi Leather Industries Company,,Dammam,Eastern Province,"Saudi Leather Industries Company (SLIC) main productions are work, military and casual footwear. The shoes are manufactured in the company's factory located in the second industrial city of Dammam, East..."
saudi_factories.csv,,,,,+966 xxxxxxxxxx,,,,,,,,,,,,,,,,,,,,SAUDI ROAD MARKING CO.LTD.,,Dammam,Eastern Province,"Saudi Road Marking Company was established in Dammam 1st Industrial Area in 1984 for the production of Thermoplastic Hot Melt Road Marking Paint with a capacity of 10,000 MT. enabling us to cater for..."
saudi_factories.csv,,,,,+966 xxxxxxxxxx,,,,,,,,,,,,,,,,,,,,Shater Al Ebtekar Factory,,Dammam,Eastern Province,Proud to be in the Printing and Packaging Industry for 42 years. Digital Printing • Printing Food Product Boxes • Books • Paper Bags • Envelope • Commercial.
saudi_factories.csv,,,,,+966 xxxxxxxxxx,,,,,,,,,,,,,,,,,,,,Sigma Paints Saudi Arabia Ltd,,Dammam,Eastern Province,"PPG was founded in 1883 when Capt. John B. Ford and John Pitcairn started the first commercially successful plate glass factory in the United States at Creighton, Pa. Known as the Pittsburgh Plate Gla..."
saudi_factories.csv,,,,,+966 xxxxxxxxxx,,,,,,,,,,,,,,,,,,,,Simple Solutions for Industry,,Dammam,Eastern Province,"Simple Solutions Co. for Industry is 100% Saudi-owned and led organization that was established in 2008. Our business offers specialized hydraulic and pneumatic hoses, seals, O-rings, and fittings."
saudi_factories.csv,,,,,+966 554541666,,,,,,,,,,,,,,,,,,,,Tabatan Factory,,Riyadh,Riyadh,"Founded 2013, we started with digital printing, producing books, magazines, ID cards, indoor and outdoor boards. Later we started to grow into a packaging and die-making company, started Die-making fa..."
saudi_factories.csv,,,,,+966 547829554,,,,,,,,,,,,,,,,,,,,Tag Labels Manufacturing L.L.C,,Dammam,Eastern Province,"TAG Labels Manufacturing L.L.C is a leading manufacturer and supplier of high-quality self-adhesive labels. With a commitment to excellence and innovation, we provide customized labeling solutions to..."
saudi_factories.csv,,,,,+966 504818039,,,,,,,,,,,,,,,,,,,,Tamimi Tape Manufacturing company Ltd,,Dammam,Eastern Province,"At Tamimi Tape, we provide a comprehensive range of adhesive tapes designed to meet the diverse needs of various industries. Whether you’re sealing, repairing, or crafting, our tapes offer unmatched..."
saudi_factories.csv,,,,,+966 xxxxxxxxxx,,,,,,,,,,,,,,,,,,,,Tayyah Industrial Company,,Dammam,Eastern Province,"Tayyah Company, established in 2023, specializes in the production of low-density polyethylene foam and adheres to universal criteria. As a 100% Saudi national industry, Tayyah utilizes raw materials..."
saudi_factories.csv,,,,,+966 13 857 9794,,,,,,,,,,,,,,,,,,,,Technology Products and Services Company Co,,Dammam,Eastern Province,Technology Products and Services Company Co. (TPS) is a branch of Sariya Company Ltd and a member of the Al Kuhaimi Group of companies. TPS specializes in providing water and wastewater treatment indu...
saudi_factories.csv,,,,,+966 xxxxxxxxxx,,,,,,,,,,,,,,,,,,,,The Four Advantages Factory,,Sakakah,Jouf,"The Four Advantages Factory is one of the leading manufacturers in the building materials sector, offering a wide range of high-quality products including cement blocks, volcanic blocks, conduit block..."
saudi_factories.csv,,,,,+966 xxxxxxxxxx,,,,,,,,,,,,,,,,,,,,Traffic Signal Factory,,Dammam,Eastern Province,"Traffic Signal Factory having wide experience in the field of traffic safety for 20 years. So, we’re pleased to offer full cooperation with you in relation to our developed products for traffic syste..."
saudi_factories.csv,,,,,+966 557421769,,,,,,,,,,,,,,,,,,,,Wasaet Al Naqil Factory For Metal Industries,,Riyadh,Riyadh,WASAET ALNQIL Factory is one of the first factories in the Kingdom that contributed to finding solutions to the problems of waste containers and the visual distortion that they cause in the streets of...
saudi_factories.csv,,,,,+966 xxxxxxxxxx,,,,,,,,,,,,,,,,,,,,Zahid Tractor,,Riyadh,Riyadh,"Zahid Tractor Construction Machinery Division (CMD) recently marked a significant milestone, celebrating its 75th anniversary as the official Caterpillar dealer in the Kingdom of Saudi Arabia. In cele..."
saudi_factories.csv,,,,,+966 xxxxxxxxxx,,,,,,,,,,,,,,,,,,,,Zamil Plastic Industries Co.,,Dammam,Eastern Province,"Zamil Plastic is one of the market leaders in plastic conversion founded in 1980 under Zamil Group umbrella with a clear vision to be a pioneer in the industry by utilizing technology, innovation, and..."
